{
  "type": "FeatureCollection",
  "features": [
    {
      "type": "Feature",
      "geometry": {
        "type": "Polygon",
        "coordinates": [
          [
            [
              24.976628801552337,
              60.19387930632692
            ],
            [
              24.976674735888054,
              60.19389603729797
            ],
            [
              24.976553897877498,
              60.193978279086714
            ],
            [
              24.97650796348839,
              60.19396154807402
            ],
            [
              24.976628801552337,
              60.19387930632692
            ]
          ]
        ]
      },
      "properties": {
        "confidence": 0.8282,
        "length_m": 11.35,
        "width_m": 3.16,
        "heading_deg": 143.8,
        "aoi": "hermanni",
        "source_layer": "Ortoilmakuva_2025_5cm",
        "zoom": 16,
        "status": "candidate",
        "class": ""
      }
    },
    {
      "type": "Feature",
      "geometry": {
        "type": "Polygon",
        "coordinates": [
          [
            [
              24.974808231085092,
              60.19427176636127
            ],
            [
              24.974883500418166,
              60.194335968633474
            ],
            [
              24.974834262411704,
              60.19435027830059
            ],
            [
              24.974758993142036,
              60.19428607600057
            ],
            [
              24.974808231085092,
              60.19427176636127
            ]
          ]
        ]
      },
      "properties": {
        "confidence": 0.7948,
        "length_m": 8.28,
        "width_m": 3.16,
        "heading_deg": 30.3,
        "aoi": "hermanni",
        "source_layer": "Ortoilmakuva_2025_5cm",
        "zoom": 16,
        "status": "candidate",
        "class": ""
      }
    },
    {
      "type": "Feature",
      "geometry": {
        "type": "Polygon",
        "coordinates": [
          [
            [
              24.977111348202012,
              60.195074486118706
            ],
            [
              24.977154193793258,
              60.19509226620672
            ],
            [
              24.977033094227686,
              60.19516460236703
            ],
            [
              24.97699024859049,
              60.19514682224009
            ],
            [
              24.977111348202012,
              60.195074486118706
            ]
          ]
        ]
      },
      "properties": {
        "confidence": 0.7907,
        "length_m": 10.49,
        "width_m": 3.09,
        "heading_deg": 140.2,
        "aoi": "hermanni",
        "source_layer": "Ortoilmakuva_2025_5cm",
        "zoom": 16,
        "status": "candidate",
        "class": ""
      }
    },
    {
      "type": "Feature",
      "geometry": {
        "type": "Polygon",
        "coordinates": [
          [
            [
              24.978177284222582,
              60.196166439066744
            ],
            [
              24.978218063123574,
              60.19618595230268
            ],
            [
              24.978097994526028,
              60.19624814607698
            ],
            [
              24.9780572156192,
              60.1962286327701
            ],
            [
              24.978177284222582,
              60.196166439066744
            ]
          ]
        ]
      },
      "properties": {
        "confidence": 0.773,
        "length_m": 9.61,
        "width_m": 3.14,
        "heading_deg": 136.2,
        "aoi": "hermanni",
        "source_layer": "Ortoilmakuva_2025_5cm",
        "zoom": 16,
        "status": "candidate",
        "class": ""
      }
    },
    {
      "type": "Feature",
      "geometry": {
        "type": "Polygon",
        "coordinates": [
          [
            [
              24.97501933025143,
              60.19419235417574
            ],
            [
              24.97511400233167,
              60.19426859992399
            ],
            [
              24.975063010733123,
              60.19428429521704
            ],
            [
              24.974968338725944,
              60.194208049466816
            ],
            [
              24.97501933025143,
              60.19419235417574
            ]
          ]
        ]
      },
      "properties": {
        "confidence": 0.7616,
        "length_m": 9.99,
        "width_m": 3.33,
        "heading_deg": 31.7,
        "aoi": "hermanni",
        "source_layer": "Ortoilmakuva_2025_5cm",
        "zoom": 16,
        "status": "candidate",
        "class": ""
      }
    },
    {
      "type": "Feature",
      "geometry": {
        "type": "Polygon",
        "coordinates": [
          [
            [
              24.976578641494886,
              60.19384008430979
            ],
            [
              24.97662294784679,
              60.19385690499003
            ],
            [
              24.976432357927223,
              60.19398135475464
            ],
            [
              24.976388051505143,
              60.193964534011016
            ],
            [
              24.976578641494886,
              60.19384008430979
            ]
          ]
        ]
      },
      "properties": {
        "confidence": 0.7432,
        "length_m": 17.44,
        "width_m": 3.09,
        "heading_deg": 142.7,
        "aoi": "hermanni",
        "source_layer": "Ortoilmakuva_2025_5cm",
        "zoom": 16,
        "status": "candidate",
        "class": ""
      }
    },
    {
      "type": "Feature",
      "geometry": {
        "type": "Polygon",
        "coordinates": [
          [
            [
              24.975661583801614,
              60.193957994678755
            ],
            [
              24.975750812786064,
              60.19403123516776
            ],
            [
              24.975702598953752,
              60.194045796312956
            ],
            [
              24.975613370037205,
              60.19397255579168
            ],
            [
              24.975661583801614,
              60.193957994678755
            ]
          ]
        ]
      },
      "properties": {
        "confidence": 0.5572,
        "length_m": 9.54,
        "width_m": 3.13,
        "heading_deg": 31.3,
        "aoi": "hermanni",
        "source_layer": "Ortoilmakuva_2025_5cm",
        "zoom": 16,
        "status": "candidate",
        "class": ""
      }
    },
    {
      "type": "Feature",
      "geometry": {
        "type": "Polygon",
        "coordinates": [
          [
            [
              24.97899749637905,
              60.19492116707683
            ],
            [
              24.979061499590653,
              60.19496189328946
            ],
            [
              24.979024123549372,
              60.194976453516055
            ],
            [
              24.978960120355733,
              60.19493572728545
            ],
            [
              24.97899749637905,
              60.19492116707683
            ]
          ]
        ]
      },
      "properties": {
        "confidence": 0.4528,
        "length_m": 5.76,
        "width_m": 2.63,
        "heading_deg": 38.1,
        "aoi": "hermanni",
        "source_layer": "Ortoilmakuva_2025_5cm",
        "zoom": 16,
        "status": "candidate",
        "class": ""
      }
    },
    {
      "type": "Feature",
      "geometry": {
        "type": "Polygon",
        "coordinates": [
          [
            [
              24.974643724050164,
              60.194312649930446
            ],
            [
              24.97471345223311,
              60.19436814994682
            ],
            [
              24.974668748935827,
              60.19438207242681
            ],
            [
              24.97459902079883,
              60.194326572387034
            ],
            [
              24.974643724050164,
              60.194312649930446
            ]
          ]
        ]
      },
      "properties": {
        "confidence": 0.4494,
        "length_m": 7.29,
        "width_m": 2.92,
        "heading_deg": 32.0,
        "aoi": "hermanni",
        "source_layer": "Ortoilmakuva_2025_5cm",
        "zoom": 16,
        "status": "candidate",
        "class": ""
      }
    },
    {
      "type": "Feature",
      "geometry": {
        "type": "Polygon",
        "coordinates": [
          [
            [
              24.973791127719966,
              60.195451038749546
            ],
            [
              24.97387692697903,
              60.19548462292445
            ],
            [
              24.973851132506265,
              60.195500957490495
            ],
            [
              24.973765333230922,
              60.195467373307565
            ],
            [
              24.973791127719966,
              60.195451038749546
            ]
          ]
        ]
      },
      "properties": {
        "confidence": 0.4226,
        "length_m": 6.05,
        "width_m": 2.32,
        "heading_deg": 51.8,
        "aoi": "hermanni",
        "source_layer": "Ortoilmakuva_2025_5cm",
        "zoom": 16,
        "status": "candidate",
        "class": ""
      }
    },
    {
      "type": "Feature",
      "geometry": {
        "type": "Polygon",
        "coordinates": [
          [
            [
              24.97524351335238,
              60.194701458620244
            ],
            [
              24.975319078765747,
              60.19474098634425
            ],
            [
              24.97528123830102,
              60.19475891832868
            ],
            [
              24.975205672896237,
              60.1947193905832
            ],
            [
              24.97524351335238,
              60.194701458620244
            ]
          ]
        ]
      },
      "properties": {
        "confidence": 0.3686,
        "length_m": 6.08,
        "width_m": 2.9,
        "heading_deg": 43.6,
        "aoi": "hermanni",
        "source_layer": "Ortoilmakuva_2025_5cm",
        "zoom": 16,
        "status": "candidate",
        "class": ""
      }
    },
    {
      "type": "Feature",
      "geometry": {
        "type": "Polygon",
        "coordinates": [
          [
            [
              24.974880419132756,
              60.19458556891557
            ],
            [
              24.97495609606397,
              60.194620284311306
            ],
            [
              24.974924189386844,
              60.194637525869005
            ],
            [
              24.974848512449647,
              60.19460281045515
            ],
            [
              24.974880419132756,
              60.19458556891557
            ]
          ]
        ]
      },
      "properties": {
        "confidence": 0.3176,
        "length_m": 5.71,
        "width_m": 2.61,
        "heading_deg": 47.4,
        "aoi": "hermanni",
        "source_layer": "Ortoilmakuva_2025_5cm",
        "zoom": 16,
        "status": "candidate",
        "class": ""
      }
    }
  ]
}
