{
  "type": "FeatureCollection",
  "features": [
    {
      "type": "Feature",
      "geometry": {
        "type": "Polygon",
        "coordinates": [
          [
            [
              24.92148137682928,
              60.16155567961618
            ],
            [
              24.921539918366836,
              60.16160553575294
            ],
            [
              24.921499805155374,
              60.16161723517286
            ],
            [
              24.921441263657794,
              60.16156737901849
            ],
            [
              24.92148137682928,
              60.16155567961618
            ]
          ]
        ]
      },
      "properties": {
        "confidence": 0.8409,
        "length_m": 6.44,
        "width_m": 2.58,
        "heading_deg": 30.4,
        "aoi": "jatkasaari",
        "source_layer": "Ortoilmakuva_2025_5cm",
        "zoom": 16,
        "status": "candidate",
        "class": ""
      }
    },
    {
      "type": "Feature",
      "geometry": {
        "type": "Polygon",
        "coordinates": [
          [
            [
              24.921991784240618,
              60.16136375838074
            ],
            [
              24.922047904875612,
              60.16136767995243
            ],
            [
              24.922022524810266,
              60.16145789849428
            ],
            [
              24.921966404024506,
              60.16145397691183
            ],
            [
              24.921991784240618,
              60.16136375838074
            ]
          ]
        ]
      },
      "properties": {
        "confidence": 0.8359,
        "length_m": 10.15,
        "width_m": 3.15,
        "heading_deg": 172.1,
        "aoi": "jatkasaari",
        "source_layer": "Ortoilmakuva_2025_5cm",
        "zoom": 16,
        "status": "candidate",
        "class": ""
      }
    },
    {
      "type": "Feature",
      "geometry": {
        "type": "Polygon",
        "coordinates": [
          [
            [
              24.919531030700963,
              60.160948547268625
            ],
            [
              24.91956825010671,
              60.160960694108276
            ],
            [
              24.919512503840792,
              60.16100312364706
            ],
            [
              24.919475284442015,
              60.160990976791844
            ],
            [
              24.919531030700963,
              60.160948547268625
            ]
          ]
        ]
      },
      "properties": {
        "confidence": 0.8302,
        "length_m": 5.65,
        "width_m": 2.47,
        "heading_deg": 146.9,
        "aoi": "jatkasaari",
        "source_layer": "Ortoilmakuva_2025_5cm",
        "zoom": 16,
        "status": "candidate",
        "class": ""
      }
    },
    {
      "type": "Feature",
      "geometry": {
        "type": "Polygon",
        "coordinates": [
          [
            [
              24.92155370069837,
              60.16153181178766
            ],
            [
              24.921651627552347,
              60.161543562141965
            ],
            [
              24.92164209393455,
              60.161563297341424
            ],
            [
              24.921544167025285,
              60.161551546980085
            ],
            [
              24.92155370069837,
              60.16153181178766
            ]
          ]
        ]
      },
      "properties": {
        "confidence": 0.8108,
        "length_m": 5.59,
        "width_m": 2.26,
        "heading_deg": 76.5,
        "aoi": "jatkasaari",
        "source_layer": "Ortoilmakuva_2025_5cm",
        "zoom": 16,
        "status": "candidate",
        "class": ""
      }
    },
    {
      "type": "Feature",
      "geometry": {
        "type": "Polygon",
        "coordinates": [
          [
            [
              24.921705904817856,
              60.16102935307143
            ],
            [
              24.921762290432138,
              60.16103235088856
            ],
            [
              24.92174297959252,
              60.16112257063619
            ],
            [
              24.921686593825477,
              60.16111957281083
            ],
            [
              24.921705904817856,
              60.16102935307143
            ]
          ]
        ]
      },
      "properties": {
        "confidence": 0.8062,
        "length_m": 10.11,
        "width_m": 3.15,
        "heading_deg": 174.0,
        "aoi": "jatkasaari",
        "source_layer": "Ortoilmakuva_2025_5cm",
        "zoom": 16,
        "status": "candidate",
        "class": ""
      }
    },
    {
      "type": "Feature",
      "geometry": {
        "type": "Polygon",
        "coordinates": [
          [
            [
              24.922028518307954,
              60.16170022893806
            ],
            [
              24.92216073943299,
              60.161833020366245
            ],
            [
              24.922109946074933,
              60.16184558250281
            ],
            [
              24.921977725104412,
              60.16171279102423
            ],
            [
              24.922028518307954,
              60.16170022893806
            ]
          ]
        ]
      },
      "properties": {
        "confidence": 0.8047,
        "length_m": 16.52,
        "width_m": 3.15,
        "heading_deg": 26.5,
        "aoi": "jatkasaari",
        "source_layer": "Ortoilmakuva_2025_5cm",
        "zoom": 16,
        "status": "candidate",
        "class": ""
      }
    },
    {
      "type": "Feature",
      "geometry": {
        "type": "Polygon",
        "coordinates": [
          [
            [
              24.921938349916097,
              60.16166326201839
            ],
            [
              24.921954384873096,
              60.161715012140405
            ],
            [
              24.92191219989944,
              60.16171825886228
            ],
            [
              24.92189616500718,
              60.161666508735216
            ],
            [
              24.921938349916097,
              60.16166326201839
            ]
          ]
        ]
      },
      "properties": {
        "confidence": 0.8025,
        "length_m": 5.83,
        "width_m": 2.37,
        "heading_deg": 8.8,
        "aoi": "jatkasaari",
        "source_layer": "Ortoilmakuva_2025_5cm",
        "zoom": 16,
        "status": "candidate",
        "class": ""
      }
    },
    {
      "type": "Feature",
      "geometry": {
        "type": "Polygon",
        "coordinates": [
          [
            [
              24.922121554743104,
              60.16158256801408
            ],
            [
              24.922146348958236,
              60.16163594377501
            ],
            [
              24.922103301981885,
              60.16164091061145
            ],
            [
              24.922078507832826,
              60.16158753484251
            ],
            [
              24.922121554743104,
              60.16158256801408
            ]
          ]
        ]
      },
      "properties": {
        "confidence": 0.7897,
        "length_m": 6.1,
        "width_m": 2.45,
        "heading_deg": 13.1,
        "aoi": "jatkasaari",
        "source_layer": "Ortoilmakuva_2025_5cm",
        "zoom": 16,
        "status": "candidate",
        "class": ""
      }
    },
    {
      "type": "Feature",
      "geometry": {
        "type": "Polygon",
        "coordinates": [
          [
            [
              24.92155402543609,
              60.16155598603481
            ],
            [
              24.921653239232967,
              60.16156630727549
            ],
            [
              24.921644457402788,
              60.16158727544205
            ],
            [
              24.92154524354548,
              60.161576954194786
            ],
            [
              24.92155402543609,
              60.16155598603481
            ]
          ]
        ]
      },
      "properties": {
        "confidence": 0.7852,
        "length_m": 5.63,
        "width_m": 2.39,
        "heading_deg": 78.3,
        "aoi": "jatkasaari",
        "source_layer": "Ortoilmakuva_2025_5cm",
        "zoom": 16,
        "status": "candidate",
        "class": ""
      }
    },
    {
      "type": "Feature",
      "geometry": {
        "type": "Polygon",
        "coordinates": [
          [
            [
              24.92103651672856,
              60.16151563655162
            ],
            [
              24.921135123087343,
              60.16153683769424
            ],
            [
              24.921117473829135,
              60.161557227051894
            ],
            [
              24.92101886742067,
              60.161536025896204
            ],
            [
              24.92103651672856,
              60.16151563655162
            ]
          ]
        ]
      },
      "properties": {
        "confidence": 0.7843,
        "length_m": 5.96,
        "width_m": 2.47,
        "heading_deg": 66.7,
        "aoi": "jatkasaari",
        "source_layer": "Ortoilmakuva_2025_5cm",
        "zoom": 16,
        "status": "candidate",
        "class": ""
      }
    },
    {
      "type": "Feature",
      "geometry": {
        "type": "Polygon",
        "coordinates": [
          [
            [
              24.922034860521087,
              60.161127993845554
            ],
            [
              24.922088579181345,
              60.161130766581906
            ],
            [
              24.92205756932112,
              60.16127999787453
            ],
            [
              24.922003850419973,
              60.16127722512561
            ],
            [
              24.922034860521087,
              60.161127993845554
            ]
          ]
        ]
      },
      "properties": {
        "confidence": 0.7818,
        "length_m": 16.72,
        "width_m": 3.0,
        "heading_deg": 174.2,
        "aoi": "jatkasaari",
        "source_layer": "Ortoilmakuva_2025_5cm",
        "zoom": 16,
        "status": "candidate",
        "class": ""
      }
    },
    {
      "type": "Feature",
      "geometry": {
        "type": "Polygon",
        "coordinates": [
          [
            [
              24.922176373387625,
              60.160953442206576
            ],
            [
              24.92228878247758,
              60.16095818872644
            ],
            [
              24.922285144561254,
              60.160979588894996
            ],
            [
              24.922172735398753,
              60.16097484237204
            ],
            [
              24.922176373387625,
              60.160953442206576
            ]
          ]
        ]
      },
      "properties": {
        "confidence": 0.7669,
        "length_m": 6.26,
        "width_m": 2.39,
        "heading_deg": 85.2,
        "aoi": "jatkasaari",
        "source_layer": "Ortoilmakuva_2025_5cm",
        "zoom": 16,
        "status": "candidate",
        "class": ""
      }
    },
    {
      "type": "Feature",
      "geometry": {
        "type": "Polygon",
        "coordinates": [
          [
            [
              24.920518253569945,
              60.162406508351765
            ],
            [
              24.92056460740886,
              60.1624076278755
            ],
            [
              24.92055923072183,
              60.16246292347373
            ],
            [
              24.920512876805237,
              60.16246180394809
            ],
            [
              24.920518253569945,
              60.162406508351765
            ]
          ]
        ]
      },
      "properties": {
        "confidence": 0.7647,
        "length_m": 6.17,
        "width_m": 2.58,
        "heading_deg": 177.3,
        "aoi": "jatkasaari",
        "source_layer": "Ortoilmakuva_2025_5cm",
        "zoom": 16,
        "status": "candidate",
        "class": ""
      }
    },
    {
      "type": "Feature",
      "geometry": {
        "type": "Polygon",
        "coordinates": [
          [
            [
              24.919427561127538,
              60.160635894032715
            ],
            [
              24.919551732600834,
              60.160681382920366
            ],
            [
              24.919517125443395,
              60.16070484893458
            ],
            [
              24.919392953912286,
              60.160659360014655
            ],
            [
              24.919427561127538,
              60.160635894032715
            ]
          ]
        ]
      },
      "properties": {
        "confidence": 0.76,
        "length_m": 8.56,
        "width_m": 3.24,
        "heading_deg": 53.8,
        "aoi": "jatkasaari",
        "source_layer": "Ortoilmakuva_2025_5cm",
        "zoom": 16,
        "status": "candidate",
        "class": ""
      }
    },
    {
      "type": "Feature",
      "geometry": {
        "type": "Polygon",
        "coordinates": [
          [
            [
              24.92153389685366,
              60.161499630704576
            ],
            [
              24.921544573796897,
              60.1615501757237
            ],
            [
              24.92150104870568,
              60.16155245941562
            ],
            [
              24.921490371828533,
              60.161501914393035
            ],
            [
              24.92153389685366,
              60.161499630704576
            ]
          ]
        ]
      },
      "properties": {
        "confidence": 0.7532,
        "length_m": 5.66,
        "width_m": 2.43,
        "heading_deg": 6.1,
        "aoi": "jatkasaari",
        "source_layer": "Ortoilmakuva_2025_5cm",
        "zoom": 16,
        "status": "candidate",
        "class": ""
      }
    },
    {
      "type": "Feature",
      "geometry": {
        "type": "Polygon",
        "coordinates": [
          [
            [
              24.923852609485312,
              60.162059671926514
            ],
            [
              24.92388958189009,
              60.16207157561428
            ],
            [
              24.923835366492103,
              60.162113400790815
            ],
            [
              24.923798394059975,
              60.16210149708804
            ],
            [
              24.923852609485312,
              60.162059671926514
            ]
          ]
        ]
      },
      "properties": {
        "confidence": 0.738,
        "length_m": 5.55,
        "width_m": 2.44,
        "heading_deg": 147.2,
        "aoi": "jatkasaari",
        "source_layer": "Ortoilmakuva_2025_5cm",
        "zoom": 16,
        "status": "candidate",
        "class": ""
      }
    },
    {
      "type": "Feature",
      "geometry": {
        "type": "Polygon",
        "coordinates": [
          [
            [
              24.92155983415731,
              60.161509849960645
            ],
            [
              24.921658891468223,
              60.161519358690185
            ],
            [
              24.921650992181252,
              60.161539798871345
            ],
            [
              24.921551934811127,
              60.16153029013593
            ],
            [
              24.92155983415731,
              60.161509849960645
            ]
          ]
        ]
      },
      "properties": {
        "confidence": 0.7252,
        "length_m": 5.6,
        "width_m": 2.32,
        "heading_deg": 79.2,
        "aoi": "jatkasaari",
        "source_layer": "Ortoilmakuva_2025_5cm",
        "zoom": 16,
        "status": "candidate",
        "class": ""
      }
    },
    {
      "type": "Feature",
      "geometry": {
        "type": "Polygon",
        "coordinates": [
          [
            [
              24.921949643774084,
              60.16155603307943
            ],
            [
              24.922004458565482,
              60.161557776596666
            ],
            [
              24.92199548615173,
              60.16162784247267
            ],
            [
              24.921940671244148,
              60.1616260989517
            ],
            [
              24.921949643774084,
              60.16155603307943
            ]
          ]
        ]
      },
      "properties": {
        "confidence": 0.7226,
        "length_m": 7.82,
        "width_m": 3.05,
        "heading_deg": 176.4,
        "aoi": "jatkasaari",
        "source_layer": "Ortoilmakuva_2025_5cm",
        "zoom": 16,
        "status": "candidate",
        "class": ""
      }
    },
    {
      "type": "Feature",
      "geometry": {
        "type": "Polygon",
        "coordinates": [
          [
            [
              24.922456142479607,
              60.161975553972155
            ],
            [
              24.922562401963724,
              60.16201538787545
            ],
            [
              24.922532704478773,
              60.16203506473846
            ],
            [
              24.92242644496712,
              60.16199523081148
            ],
            [
              24.922456142479607,
              60.161975553972155
            ]
          ]
        ]
      },
      "properties": {
        "confidence": 0.6895,
        "length_m": 7.38,
        "width_m": 2.74,
        "heading_deg": 53.1,
        "aoi": "jatkasaari",
        "source_layer": "Ortoilmakuva_2025_5cm",
        "zoom": 16,
        "status": "candidate",
        "class": ""
      }
    },
    {
      "type": "Feature",
      "geometry": {
        "type": "Polygon",
        "coordinates": [
          [
            [
              24.922192718841938,
              60.1617032592108
            ],
            [
              24.92223557733776,
              60.16174861988403
            ],
            [
              24.922196621301882,
              60.161757762293334
            ],
            [
              24.922153762847852,
              60.161712401607545
            ],
            [
              24.922192718841938,
              60.1617032592108
            ]
          ]
        ]
      },
      "properties": {
        "confidence": 0.6855,
        "length_m": 5.59,
        "width_m": 2.39,
        "heading_deg": 25.3,
        "aoi": "jatkasaari",
        "source_layer": "Ortoilmakuva_2025_5cm",
        "zoom": 16,
        "status": "candidate",
        "class": ""
      }
    },
    {
      "type": "Feature",
      "geometry": {
        "type": "Polygon",
        "coordinates": [
          [
            [
              24.922256324460236,
              60.160907445414466
            ],
            [
              24.92225533844523,
              60.16092806882512
            ],
            [
              24.922157617067477,
              60.16092690829494
            ],
            [
              24.922158603143664,
              60.160906284885
            ],
            [
              24.922256324460236,
              60.160907445414466
            ]
          ]
        ]
      },
      "properties": {
        "confidence": 0.6379,
        "length_m": 5.43,
        "width_m": 2.3,
        "heading_deg": 88.7,
        "aoi": "jatkasaari",
        "source_layer": "Ortoilmakuva_2025_5cm",
        "zoom": 16,
        "status": "candidate",
        "class": ""
      }
    },
    {
      "type": "Feature",
      "geometry": {
        "type": "Polygon",
        "coordinates": [
          [
            [
              24.92209825228146,
              60.16078626119358
            ],
            [
              24.92215171131206,
              60.1607887225913
            ],
            [
              24.92213034149288,
              60.16090401394182
            ],
            [
              24.922076882276674,
              60.160901552535485
            ],
            [
              24.92209825228146,
              60.16078626119358
            ]
          ]
        ]
      },
      "properties": {
        "confidence": 0.6241,
        "length_m": 12.9,
        "width_m": 2.98,
        "heading_deg": 174.8,
        "aoi": "jatkasaari",
        "source_layer": "Ortoilmakuva_2025_5cm",
        "zoom": 16,
        "status": "candidate",
        "class": ""
      }
    },
    {
      "type": "Feature",
      "geometry": {
        "type": "Polygon",
        "coordinates": [
          [
            [
              24.92073578505522,
              60.160432372499464
            ],
            [
              24.92078668430601,
              60.1604343265961
            ],
            [
              24.92077654870516,
              60.160499908909784
            ],
            [
              24.920725649353585,
              60.160497954809266
            ],
            [
              24.92073578505522,
              60.160432372499464
            ]
          ]
        ]
      },
      "properties": {
        "confidence": 0.5827,
        "length_m": 7.33,
        "width_m": 2.83,
        "heading_deg": 175.7,
        "aoi": "jatkasaari",
        "source_layer": "Ortoilmakuva_2025_5cm",
        "zoom": 16,
        "status": "candidate",
        "class": ""
      }
    },
    {
      "type": "Feature",
      "geometry": {
        "type": "Polygon",
        "coordinates": [
          [
            [
              24.921750067052603,
              60.16076039838465
            ],
            [
              24.921798787339792,
              60.160762889105676
            ],
            [
              24.92178240695586,
              60.16084248038306
            ],
            [
              24.92173368655213,
              60.16083998965603
            ],
            [
              24.921750067052603,
              60.16076039838465
            ]
          ]
        ]
      },
      "properties": {
        "confidence": 0.5686,
        "length_m": 8.91,
        "width_m": 2.72,
        "heading_deg": 174.2,
        "aoi": "jatkasaari",
        "source_layer": "Ortoilmakuva_2025_5cm",
        "zoom": 16,
        "status": "candidate",
        "class": ""
      }
    },
    {
      "type": "Feature",
      "geometry": {
        "type": "Polygon",
        "coordinates": [
          [
            [
              24.922752650876934,
              60.16171885129722
            ],
            [
              24.922791759323236,
              60.161766257674174
            ],
            [
              24.922753186544604,
              60.161774161579345
            ],
            [
              24.922714078144484,
              60.16172675519111
            ],
            [
              24.922752650876934,
              60.16171885129722
            ]
          ]
        ]
      },
      "properties": {
        "confidence": 0.5594,
        "length_m": 5.71,
        "width_m": 2.32,
        "heading_deg": 22.4,
        "aoi": "jatkasaari",
        "source_layer": "Ortoilmakuva_2025_5cm",
        "zoom": 16,
        "status": "candidate",
        "class": ""
      }
    },
    {
      "type": "Feature",
      "geometry": {
        "type": "Polygon",
        "coordinates": [
          [
            [
              24.919477806128015,
              60.160231010047205
            ],
            [
              24.919575865912552,
              60.16023452481789
            ],
            [
              24.91957275131694,
              60.160256110806024
            ],
            [
              24.91947469146844,
              60.16025259603305
            ],
            [
              24.919477806128015,
              60.160231010047205
            ]
          ]
        ]
      },
      "properties": {
        "confidence": 0.554,
        "length_m": 5.46,
        "width_m": 2.41,
        "heading_deg": 86.0,
        "aoi": "jatkasaari",
        "source_layer": "Ortoilmakuva_2025_5cm",
        "zoom": 16,
        "status": "candidate",
        "class": ""
      }
    },
    {
      "type": "Feature",
      "geometry": {
        "type": "Polygon",
        "coordinates": [
          [
            [
              24.922185387096714,
              60.16093216160878
            ],
            [
              24.922289777734434,
              60.16093375812092
            ],
            [
              24.922288538160895,
              60.16095389327695
            ],
            [
              24.922184147459387,
              60.16095229676385
            ],
            [
              24.922185387096714,
              60.16093216160878
            ]
          ]
        ]
      },
      "properties": {
        "confidence": 0.5279,
        "length_m": 5.8,
        "width_m": 2.24,
        "heading_deg": 88.3,
        "aoi": "jatkasaari",
        "source_layer": "Ortoilmakuva_2025_5cm",
        "zoom": 16,
        "status": "candidate",
        "class": ""
      }
    },
    {
      "type": "Feature",
      "geometry": {
        "type": "Polygon",
        "coordinates": [
          [
            [
              24.92210680029099,
              60.16051990599768
            ],
            [
              24.92211492092791,
              60.16057618718779
            ],
            [
              24.92206703109766,
              60.160577903562626
            ],
            [
              24.9220589105422,
              60.160521622369615
            ],
            [
              24.92210680029099,
              60.16051990599768
            ]
          ]
        ]
      },
      "properties": {
        "confidence": 0.5171,
        "length_m": 6.29,
        "width_m": 2.67,
        "heading_deg": 4.2,
        "aoi": "jatkasaari",
        "source_layer": "Ortoilmakuva_2025_5cm",
        "zoom": 16,
        "status": "candidate",
        "class": ""
      }
    },
    {
      "type": "Feature",
      "geometry": {
        "type": "Polygon",
        "coordinates": [
          [
            [
              24.922147153391148,
              60.16163601642262
            ],
            [
              24.922188336123465,
              60.16168528782328
            ],
            [
              24.922149830234527,
              60.161693282050734
            ],
            [
              24.922108647549862,
              60.16164401063815
            ],
            [
              24.922147153391148,
              60.16163601642262
            ]
          ]
        ]
      },
      "properties": {
        "confidence": 0.5101,
        "length_m": 5.95,
        "width_m": 2.32,
        "heading_deg": 22.7,
        "aoi": "jatkasaari",
        "source_layer": "Ortoilmakuva_2025_5cm",
        "zoom": 16,
        "status": "candidate",
        "class": ""
      }
    },
    {
      "type": "Feature",
      "geometry": {
        "type": "Polygon",
        "coordinates": [
          [
            [
              24.921680318240945,
              60.16114527794016
            ],
            [
              24.921723674380946,
              60.16114733691905
            ],
            [
              24.921714556705652,
              60.16119502650975
            ],
            [
              24.921671200503418,
              60.161192967527896
            ],
            [
              24.921680318240945,
              60.16114527794016
            ]
          ]
        ]
      },
      "properties": {
        "confidence": 0.4913,
        "length_m": 5.34,
        "width_m": 2.42,
        "heading_deg": 174.6,
        "aoi": "jatkasaari",
        "source_layer": "Ortoilmakuva_2025_5cm",
        "zoom": 16,
        "status": "candidate",
        "class": ""
      }
    },
    {
      "type": "Feature",
      "geometry": {
        "type": "Polygon",
        "coordinates": [
          [
            [
              24.924783872028538,
              60.16140858532522
            ],
            [
              24.924821595182173,
              60.16142145525781
            ],
            [
              24.924760962606687,
              60.16146559951442
            ],
            [
              24.924723239288795,
              60.161452729564594
            ],
            [
              24.924783872028538,
              60.16140858532522
            ]
          ]
        ]
      },
      "properties": {
        "confidence": 0.4866,
        "length_m": 5.96,
        "width_m": 2.54,
        "heading_deg": 145.7,
        "aoi": "jatkasaari",
        "source_layer": "Ortoilmakuva_2025_5cm",
        "zoom": 16,
        "status": "candidate",
        "class": ""
      }
    },
    {
      "type": "Feature",
      "geometry": {
        "type": "Polygon",
        "coordinates": [
          [
            [
              24.92255274555675,
              60.16168959710367
            ],
            [
              24.922569674873518,
              60.16171008930254
            ],
            [
              24.922465248414934,
              60.16173151765399
            ],
            [
              24.92244831915217,
              60.161711025441875
            ],
            [
              24.92255274555675,
              60.16168959710367
            ]
          ]
        ]
      },
      "properties": {
        "confidence": 0.4356,
        "length_m": 6.27,
        "width_m": 2.47,
        "heading_deg": 112.4,
        "aoi": "jatkasaari",
        "source_layer": "Ortoilmakuva_2025_5cm",
        "zoom": 16,
        "status": "candidate",
        "class": ""
      }
    },
    {
      "type": "Feature",
      "geometry": {
        "type": "Polygon",
        "coordinates": [
          [
            [
              24.92205204086584,
              60.16033320354105
            ],
            [
              24.922196758476872,
              60.16047161982979
            ],
            [
              24.92213634558505,
              60.16048730988567
            ],
            [
              24.92199162815915,
              60.16034889353133
            ],
            [
              24.92205204086584,
              60.16033320354105
            ]
          ]
        ]
      },
      "properties": {
        "confidence": 0.3968,
        "length_m": 17.39,
        "width_m": 3.78,
        "heading_deg": 27.6,
        "aoi": "jatkasaari",
        "source_layer": "Ortoilmakuva_2025_5cm",
        "zoom": 16,
        "status": "candidate",
        "class": ""
      }
    },
    {
      "type": "Feature",
      "geometry": {
        "type": "Polygon",
        "coordinates": [
          [
            [
              24.922492725740277,
              60.16194679598206
            ],
            [
              24.922573290817983,
              60.16197884976243
            ],
            [
              24.92254009979127,
              60.16199957076488
            ],
            [
              24.9224595346952,
              60.161967516964424
            ],
            [
              24.922492725740277,
              60.16194679598206
            ]
          ]
        ]
      },
      "properties": {
        "confidence": 0.3875,
        "length_m": 5.72,
        "width_m": 2.95,
        "heading_deg": 51.5,
        "aoi": "jatkasaari",
        "source_layer": "Ortoilmakuva_2025_5cm",
        "zoom": 16,
        "status": "candidate",
        "class": ""
      }
    },
    {
      "type": "Feature",
      "geometry": {
        "type": "Polygon",
        "coordinates": [
          [
            [
              24.920093364439058,
              60.16209702524153
            ],
            [
              24.920193503068464,
              60.16210277631442
            ],
            [
              24.92018862282514,
              60.16212388272842
            ],
            [
              24.920088484132386,
              60.16211813165182
            ],
            [
              24.920093364439058,
              60.16209702524153
            ]
          ]
        ]
      },
      "properties": {
        "confidence": 0.3572,
        "length_m": 5.6,
        "width_m": 2.37,
        "heading_deg": 83.5,
        "aoi": "jatkasaari",
        "source_layer": "Ortoilmakuva_2025_5cm",
        "zoom": 16,
        "status": "candidate",
        "class": ""
      }
    },
    {
      "type": "Feature",
      "geometry": {
        "type": "Polygon",
        "coordinates": [
          [
            [
              24.922250539344635,
              60.16186108762748
            ],
            [
              24.922583828383658,
              60.16197939798423
            ],
            [
              24.922550779618394,
              60.16200252283023
            ],
            [
              24.922217490464146,
              60.16188421239077
            ],
            [
              24.922250539344635,
              60.16186108762748
            ]
          ]
        ]
      },
      "properties": {
        "confidence": 0.3468,
        "length_m": 22.72,
        "width_m": 3.16,
        "heading_deg": 54.6,
        "aoi": "jatkasaari",
        "source_layer": "Ortoilmakuva_2025_5cm",
        "zoom": 16,
        "status": "candidate",
        "class": ""
      }
    },
    {
      "type": "Feature",
      "geometry": {
        "type": "Polygon",
        "coordinates": [
          [
            [
              24.922393750664348,
              60.16187750491798
            ],
            [
              24.922506203147986,
              60.16191863541063
            ],
            [
              24.922474108876404,
              60.16194043025666
            ],
            [
              24.922361656358436,
              60.161899299745485
            ],
            [
              24.922393750664348,
              60.16187750491798
            ]
          ]
        ]
      },
      "properties": {
        "confidence": 0.3044,
        "length_m": 7.75,
        "width_m": 3.01,
        "heading_deg": 53.8,
        "aoi": "jatkasaari",
        "source_layer": "Ortoilmakuva_2025_5cm",
        "zoom": 16,
        "status": "candidate",
        "class": ""
      }
    }
  ]
}
