{
  "type": "FeatureCollection",
  "features": [
    {
      "type": "Feature",
      "geometry": {
        "type": "Polygon",
        "coordinates": [
          [
            [
              24.944155430864495,
              60.17086878271785
            ],
            [
              24.944273097566633,
              60.170871383901606
            ],
            [
              24.94427086617196,
              60.1708964425252
            ],
            [
              24.944153199380395,
              60.170893841339435
            ],
            [
              24.944155430864495,
              60.17086878271785
            ]
          ]
        ]
      },
      "properties": {
        "confidence": 0.8088,
        "length_m": 6.54,
        "width_m": 2.79,
        "heading_deg": 87.5,
        "aoi": "kamppi",
        "source_layer": "Ortoilmakuva_2025_5cm",
        "zoom": 16,
        "status": "candidate",
        "class": ""
      }
    },
    {
      "type": "Feature",
      "geometry": {
        "type": "Polygon",
        "coordinates": [
          [
            [
              24.945149160151303,
              60.17150795340441
            ],
            [
              24.94514896682694,
              60.171560773729425
            ],
            [
              24.94510253644988,
              60.171560731569265
            ],
            [
              24.945102729848767,
              60.17150791124434
            ],
            [
              24.945149160151303,
              60.17150795340441
            ]
          ]
        ]
      },
      "properties": {
        "confidence": 0.7821,
        "length_m": 5.88,
        "width_m": 2.58,
        "heading_deg": 179.9,
        "aoi": "kamppi",
        "source_layer": "Ortoilmakuva_2025_5cm",
        "zoom": 16,
        "status": "candidate",
        "class": ""
      }
    },
    {
      "type": "Feature",
      "geometry": {
        "type": "Polygon",
        "coordinates": [
          [
            [
              24.94429084562769,
              60.17253967592743
            ],
            [
              24.94433417428748,
              60.17254070971381
            ],
            [
              24.94432942768496,
              60.172590090153825
            ],
            [
              24.944286098960294,
              60.1725890563659
            ],
            [
              24.94429084562769,
              60.17253967592743
            ]
          ]
        ]
      },
      "properties": {
        "confidence": 0.7762,
        "length_m": 5.51,
        "width_m": 2.41,
        "heading_deg": 177.3,
        "aoi": "kamppi",
        "source_layer": "Ortoilmakuva_2025_5cm",
        "zoom": 16,
        "status": "candidate",
        "class": ""
      }
    },
    {
      "type": "Feature",
      "geometry": {
        "type": "Polygon",
        "coordinates": [
          [
            [
              24.944773667948656,
              60.17106219770343
            ],
            [
              24.94483197838246,
              60.17106447662881
            ],
            [
              24.94481753570062,
              60.17115621311221
            ],
            [
              24.94475922510529,
              60.17115393416338
            ],
            [
              24.944773667948656,
              60.17106219770343
            ]
          ]
        ]
      },
      "properties": {
        "confidence": 0.7714,
        "length_m": 10.25,
        "width_m": 3.25,
        "heading_deg": 175.6,
        "aoi": "kamppi",
        "source_layer": "Ortoilmakuva_2025_5cm",
        "zoom": 16,
        "status": "candidate",
        "class": ""
      }
    },
    {
      "type": "Feature",
      "geometry": {
        "type": "Polygon",
        "coordinates": [
          [
            [
              24.942776073111837,
              60.17152140557546
            ],
            [
              24.942831087860682,
              60.171522266241
            ],
            [
              24.942822763565367,
              60.17165435509346
            ],
            [
              24.94276774859591,
              60.17165349442446
            ],
            [
              24.942776073111837,
              60.17152140557546
            ]
          ]
        ]
      },
      "properties": {
        "confidence": 0.7705,
        "length_m": 14.72,
        "width_m": 3.06,
        "heading_deg": 178.3,
        "aoi": "kamppi",
        "source_layer": "Ortoilmakuva_2025_5cm",
        "zoom": 16,
        "status": "candidate",
        "class": ""
      }
    },
    {
      "type": "Feature",
      "geometry": {
        "type": "Polygon",
        "coordinates": [
          [
            [
              24.94518297703447,
              60.17126026245798
            ],
            [
              24.945240404134054,
              60.17126203605881
            ],
            [
              24.945228576267457,
              60.17135710500096
            ],
            [
              24.945171149002604,
              60.171355331395006
            ],
            [
              24.94518297703447,
              60.17126026245798
            ]
          ]
        ]
      },
      "properties": {
        "confidence": 0.7545,
        "length_m": 10.61,
        "width_m": 3.19,
        "heading_deg": 176.5,
        "aoi": "kamppi",
        "source_layer": "Ortoilmakuva_2025_5cm",
        "zoom": 16,
        "status": "candidate",
        "class": ""
      }
    },
    {
      "type": "Feature",
      "geometry": {
        "type": "Polygon",
        "coordinates": [
          [
            [
              24.942903954301936,
              60.17146910314906
            ],
            [
              24.94296049156369,
              60.17147104868406
            ],
            [
              24.942942348994368,
              60.1716019256566
            ],
            [
              24.942885811508834,
              60.171599980113875
            ],
            [
              24.942903954301936,
              60.17146910314906
            ]
          ]
        ]
      },
      "properties": {
        "confidence": 0.7515,
        "length_m": 14.62,
        "width_m": 3.15,
        "heading_deg": 176.1,
        "aoi": "kamppi",
        "source_layer": "Ortoilmakuva_2025_5cm",
        "zoom": 16,
        "status": "candidate",
        "class": ""
      }
    },
    {
      "type": "Feature",
      "geometry": {
        "type": "Polygon",
        "coordinates": [
          [
            [
              24.940323756714122,
              60.17185426970919
            ],
            [
              24.940325768420553,
              60.17190471623142
            ],
            [
              24.940282478081418,
              60.17190514471405
            ],
            [
              24.94028046644133,
              60.171854698191176
            ],
            [
              24.940323756714122,
              60.17185426970919
            ]
          ]
        ]
      },
      "properties": {
        "confidence": 0.7444,
        "length_m": 5.62,
        "width_m": 2.4,
        "heading_deg": 1.2,
        "aoi": "kamppi",
        "source_layer": "Ortoilmakuva_2025_5cm",
        "zoom": 16,
        "status": "candidate",
        "class": ""
      }
    },
    {
      "type": "Feature",
      "geometry": {
        "type": "Polygon",
        "coordinates": [
          [
            [
              24.942687433118714,
              60.170708404591
            ],
            [
              24.94273808124677,
              60.17071061411976
            ],
            [
              24.942718477217255,
              60.170822172420046
            ],
            [
              24.942667828918815,
              60.17081996288379
            ],
            [
              24.942687433118714,
              60.170708404591
            ]
          ]
        ]
      },
      "properties": {
        "confidence": 0.7396,
        "length_m": 12.48,
        "width_m": 2.82,
        "heading_deg": 175,
        "aoi": "kamppi",
        "source_layer": "Ortoilmakuva_2025_5cm",
        "zoom": 16,
        "status": "candidate",
        "class": ""
      }
    },
    {
      "type": "Feature",
      "geometry": {
        "type": "Polygon",
        "coordinates": [
          [
            [
              24.94301312055006,
              60.17154278584141
            ],
            [
              24.943064921137122,
              60.17154374856557
            ],
            [
              24.943054961571683,
              60.171676777331825
            ],
            [
              24.9430031607755,
              60.17167581460377
            ],
            [
              24.94301312055006,
              60.17154278584141
            ]
          ]
        ]
      },
      "properties": {
        "confidence": 0.7208,
        "length_m": 14.83,
        "width_m": 2.88,
        "heading_deg": 177.9,
        "aoi": "kamppi",
        "source_layer": "Ortoilmakuva_2025_5cm",
        "zoom": 16,
        "status": "candidate",
        "class": ""
      }
    },
    {
      "type": "Feature",
      "geometry": {
        "type": "Polygon",
        "coordinates": [
          [
            [
              24.942955919666062,
              60.17100604020779
            ],
            [
              24.94301301181455,
              60.17100805375193
            ],
            [
              24.94299476551039,
              60.171136484007
            ],
            [
              24.94293767314021,
              60.171134470454994
            ],
            [
              24.942955919666062,
              60.17100604020779
            ]
          ]
        ]
      },
      "properties": {
        "confidence": 0.6976,
        "length_m": 14.34,
        "width_m": 3.18,
        "heading_deg": 176,
        "aoi": "kamppi",
        "source_layer": "Ortoilmakuva_2025_5cm",
        "zoom": 16,
        "status": "candidate",
        "class": ""
      }
    },
    {
      "type": "Feature",
      "geometry": {
        "type": "Polygon",
        "coordinates": [
          [
            [
              24.94475839211679,
              60.17116382640397
            ],
            [
              24.944810460770316,
              60.1711656555644
            ],
            [
              24.944802399023246,
              60.171222624537975
            ],
            [
              24.944750330280034,
              60.17122079537222
            ],
            [
              24.94475839211679,
              60.17116382640397
            ]
          ]
        ]
      },
      "properties": {
        "confidence": 0.6698,
        "length_m": 6.36,
        "width_m": 2.9,
        "heading_deg": 176,
        "aoi": "kamppi",
        "source_layer": "Ortoilmakuva_2025_5cm",
        "zoom": 16,
        "status": "candidate",
        "class": ""
      }
    },
    {
      "type": "Feature",
      "geometry": {
        "type": "Polygon",
        "coordinates": [
          [
            [
              24.94313043436169,
              60.17157866785542
            ],
            [
              24.94318494466162,
              60.17158009275183
            ],
            [
              24.943169606050482,
              60.171725754848175
            ],
            [
              24.943115095509928,
              60.171724329945455
            ],
            [
              24.94313043436169,
              60.17157866785542
            ]
          ]
        ]
      },
      "properties": {
        "confidence": 0.6613,
        "length_m": 16.25,
        "width_m": 3.03,
        "heading_deg": 177,
        "aoi": "kamppi",
        "source_layer": "Ortoilmakuva_2025_5cm",
        "zoom": 16,
        "status": "candidate",
        "class": ""
      }
    },
    {
      "type": "Feature",
      "geometry": {
        "type": "Polygon",
        "coordinates": [
          [
            [
              24.94303616290634,
              60.171314937748704
            ],
            [
              24.94308876247601,
              60.17131669692249
            ],
            [
              24.94306909282472,
              60.17146269068876
            ],
            [
              24.943016493022864,
              60.17146093143867
            ],
            [
              24.94303616290634,
              60.171314937748704
            ]
          ]
        ]
      },
      "properties": {
        "confidence": 0.6437,
        "length_m": 16.3,
        "width_m": 2.93,
        "heading_deg": 176.2,
        "aoi": "kamppi",
        "source_layer": "Ortoilmakuva_2025_5cm",
        "zoom": 16,
        "status": "candidate",
        "class": ""
      }
    },
    {
      "type": "Feature",
      "geometry": {
        "type": "Polygon",
        "coordinates": [
          [
            [
              24.945143201855938,
              60.1712580752777
            ],
            [
              24.945183831402204,
              60.17126039743737
            ],
            [
              24.94517350126047,
              60.17130526542798
            ],
            [
              24.94513287165954,
              60.17130294326515
            ],
            [
              24.945143201855938,
              60.1712580752777
            ]
          ]
        ]
      },
      "properties": {
        "confidence": 0.6302,
        "length_m": 5.03,
        "width_m": 2.27,
        "heading_deg": 173.5,
        "aoi": "kamppi",
        "source_layer": "Ortoilmakuva_2025_5cm",
        "zoom": 16,
        "status": "candidate",
        "class": ""
      }
    },
    {
      "type": "Feature",
      "geometry": {
        "type": "Polygon",
        "coordinates": [
          [
            [
              24.94028890790798,
              60.172360339031115
            ],
            [
              24.940400606410005,
              60.17236460351858
            ],
            [
              24.940396952263495,
              60.17238836173611
            ],
            [
              24.9402852536813,
              60.17238409724553
            ],
            [
              24.94028890790798,
              60.172360339031115
            ]
          ]
        ]
      },
      "properties": {
        "confidence": 0.5679,
        "length_m": 6.22,
        "width_m": 2.65,
        "heading_deg": 85.7,
        "aoi": "kamppi",
        "source_layer": "Ortoilmakuva_2025_5cm",
        "zoom": 16,
        "status": "candidate",
        "class": ""
      }
    },
    {
      "type": "Feature",
      "geometry": {
        "type": "Polygon",
        "coordinates": [
          [
            [
              24.94239936736238,
              60.17030686750533
            ],
            [
              24.94239969142027,
              60.17032834948348
            ],
            [
              24.94228382160124,
              60.170328783353824
            ],
            [
              24.942283497618988,
              60.17030730137542
            ],
            [
              24.94239936736238,
              60.17030686750533
            ]
          ]
        ]
      },
      "properties": {
        "confidence": 0.5616,
        "length_m": 6.43,
        "width_m": 2.39,
        "heading_deg": 90.5,
        "aoi": "kamppi",
        "source_layer": "Ortoilmakuva_2025_5cm",
        "zoom": 16,
        "status": "candidate",
        "class": ""
      }
    },
    {
      "type": "Feature",
      "geometry": {
        "type": "Polygon",
        "coordinates": [
          [
            [
              24.944315116161206,
              60.17270933108832
            ],
            [
              24.94431551964075,
              60.172755415530844
            ],
            [
              24.94427362756539,
              60.17275550656596
            ],
            [
              24.94427322414452,
              60.172709422123305
            ],
            [
              24.944315116161206,
              60.17270933108832
            ]
          ]
        ]
      },
      "properties": {
        "confidence": 0.5393,
        "length_m": 5.13,
        "width_m": 2.33,
        "heading_deg": 0.3,
        "aoi": "kamppi",
        "source_layer": "Ortoilmakuva_2025_5cm",
        "zoom": 16,
        "status": "candidate",
        "class": ""
      }
    },
    {
      "type": "Feature",
      "geometry": {
        "type": "Polygon",
        "coordinates": [
          [
            [
              24.943160529911204,
              60.17077172051831
            ],
            [
              24.94318855057073,
              60.17078837220849
            ],
            [
              24.94302228658916,
              60.17085782694841
            ],
            [
              24.9429942660921,
              60.17084117522331
            ],
            [
              24.943160529911204,
              60.17077172051831
            ]
          ]
        ]
      },
      "properties": {
        "confidence": 0.4864,
        "length_m": 12.04,
        "width_m": 2.42,
        "heading_deg": 130,
        "aoi": "kamppi",
        "source_layer": "Ortoilmakuva_2025_5cm",
        "zoom": 16,
        "status": "candidate",
        "class": ""
      }
    },
    {
      "type": "Feature",
      "geometry": {
        "type": "Polygon",
        "coordinates": [
          [
            [
              24.945100601600462,
              60.1726585049687
            ],
            [
              24.945150397403552,
              60.17265949802578
            ],
            [
              24.945144027165483,
              60.17273879000945
            ],
            [
              24.945094231242592,
              60.172737796949974
            ],
            [
              24.945100601600462,
              60.1726585049687
            ]
          ]
        ]
      },
      "properties": {
        "confidence": 0.4693,
        "length_m": 8.84,
        "width_m": 2.77,
        "heading_deg": 177.8,
        "aoi": "kamppi",
        "source_layer": "Ortoilmakuva_2025_5cm",
        "zoom": 16,
        "status": "candidate",
        "class": ""
      }
    },
    {
      "type": "Feature",
      "geometry": {
        "type": "Polygon",
        "coordinates": [
          [
            [
              24.944053399826664,
              60.17266045593505
            ],
            [
              24.944144103281356,
              60.17266340415517
            ],
            [
              24.944141220674606,
              60.17268541827531
            ],
            [
              24.94405051712513,
              60.17268247005319
            ],
            [
              24.944053399826664,
              60.17266045593505
            ]
          ]
        ]
      },
      "properties": {
        "confidence": 0.3574,
        "length_m": 5.05,
        "width_m": 2.46,
        "heading_deg": 86.3,
        "aoi": "kamppi",
        "source_layer": "Ortoilmakuva_2025_5cm",
        "zoom": 16,
        "status": "candidate",
        "class": ""
      }
    },
    {
      "type": "Feature",
      "geometry": {
        "type": "Polygon",
        "coordinates": [
          [
            [
              24.94336967936478,
              60.171559709386976
            ],
            [
              24.94342213917819,
              60.17156137503425
            ],
            [
              24.943404849593332,
              60.171696549510536
            ],
            [
              24.9433523895653,
              60.17169488385642
            ],
            [
              24.94336967936478,
              60.171559709386976
            ]
          ]
        ]
      },
      "properties": {
        "confidence": 0.348,
        "length_m": 15.09,
        "width_m": 2.92,
        "heading_deg": 176.4,
        "aoi": "kamppi",
        "source_layer": "Ortoilmakuva_2025_5cm",
        "zoom": 16,
        "status": "candidate",
        "class": ""
      }
    },
    {
      "type": "Feature",
      "geometry": {
        "type": "Polygon",
        "coordinates": [
          [
            [
              24.94339742526424,
              60.171281507738406
            ],
            [
              24.943455814571664,
              60.17128428708324
            ],
            [
              24.943428888917246,
              60.17142470568419
            ],
            [
              24.943370499362953,
              60.171421926327525
            ],
            [
              24.94339742526424,
              60.171281507738406
            ]
          ]
        ]
      },
      "properties": {
        "confidence": 0.3383,
        "length_m": 15.72,
        "width_m": 3.26,
        "heading_deg": 174.6,
        "aoi": "kamppi",
        "source_layer": "Ortoilmakuva_2025_5cm",
        "zoom": 16,
        "status": "candidate",
        "class": ""
      }
    },
    {
      "type": "Feature",
      "geometry": {
        "type": "Polygon",
        "coordinates": [
          [
            [
              24.942924594531465,
              60.17132984181508
            ],
            [
              24.942974671547745,
              60.1713315329773
            ],
            [
              24.942961629002532,
              60.17142740456955
            ],
            [
              24.94291155184103,
              60.17142571340239
            ],
            [
              24.942924594531465,
              60.17132984181508
            ]
          ]
        ]
      },
      "properties": {
        "confidence": 0.3292,
        "length_m": 10.71,
        "width_m": 2.79,
        "heading_deg": 176.2,
        "aoi": "kamppi",
        "source_layer": "Ortoilmakuva_2025_5cm",
        "zoom": 16,
        "status": "candidate",
        "class": ""
      }
    },
    {
      "type": "Feature",
      "geometry": {
        "type": "Polygon",
        "coordinates": [
          [
            [
              24.944004554245602,
              60.17151672768279
            ],
            [
              24.94408642146756,
              60.171542731655016
            ],
            [
              24.944062776475015,
              60.171561210649635
            ],
            [
              24.943980909225782,
              60.17153520666289
            ],
            [
              24.944004554245602,
              60.17151672768279
            ]
          ]
        ]
      },
      "properties": {
        "confidence": 0.2715,
        "length_m": 5.39,
        "width_m": 2.44,
        "heading_deg": 57.5,
        "aoi": "kamppi",
        "source_layer": "Ortoilmakuva_2025_5cm",
        "zoom": 16,
        "status": "candidate",
        "class": ""
      }
    }
  ]
}
