{
  "type": "FeatureCollection",
  "crs": {
    "type": "name",
    "properties": {
      "name": "urn:ogc:def:crs:EPSG::3879"
    }
  },
  "features": [
    {
      "type": "Feature",
      "geometry": {
        "type": "Polygon",
        "coordinates": [
          [
            [
              25503457.089,
              6681417.737
            ],
            [
              25503458.825,
              6681420.295
            ],
            [
              25503446.551,
              6681428.628
            ],
            [
              25503444.814,
              6681426.07
            ],
            [
              25503457.089,
              6681417.737
            ]
          ]
        ]
      },
      "properties": {
        "confidence": 0.8583,
        "length_m": 14.84,
        "width_m": 3.09,
        "heading_deg": 124.2,
        "aoi": "kivikko",
        "source_layer": "Ortoilmakuva_2025_5cm",
        "zoom": 16,
        "status": "confirmed",
        "class": "bus"
      }
    },
    {
      "type": "Feature",
      "geometry": {
        "type": "Polygon",
        "coordinates": [
          [
            [
              25503461.223,
              6681423.494
            ],
            [
              25503462.89,
              6681425.978
            ],
            [
              25503450.661,
              6681434.188
            ],
            [
              25503448.994,
              6681431.704
            ],
            [
              25503461.223,
              6681423.494
            ]
          ]
        ]
      },
      "properties": {
        "confidence": 0.8529,
        "length_m": 14.73,
        "width_m": 2.99,
        "heading_deg": 123.9,
        "aoi": "kivikko",
        "source_layer": "Ortoilmakuva_2025_5cm",
        "zoom": 16,
        "status": "confirmed",
        "class": "bus"
      }
    },
    {
      "type": "Feature",
      "geometry": {
        "type": "Polygon",
        "coordinates": [
          [
            [
              25503466.289,
              6681433.226
            ],
            [
              25503468.122,
              6681435.818
            ],
            [
              25503456.061,
              6681444.349
            ],
            [
              25503454.228,
              6681441.757
            ],
            [
              25503466.289,
              6681433.226
            ]
          ]
        ]
      },
      "properties": {
        "confidence": 0.8505,
        "length_m": 14.77,
        "width_m": 3.17,
        "heading_deg": 125.3,
        "aoi": "kivikko",
        "source_layer": "Ortoilmakuva_2025_5cm",
        "zoom": 16,
        "status": "confirmed",
        "class": "bus"
      }
    },
    {
      "type": "Feature",
      "geometry": {
        "type": "Polygon",
        "coordinates": [
          [
            [
              25503462.181,
              6681427.092
            ],
            [
              25503463.903,
              6681429.53
            ],
            [
              25503451.775,
              6681438.098
            ],
            [
              25503450.053,
              6681435.661
            ],
            [
              25503462.181,
              6681427.092
            ]
          ]
        ]
      },
      "properties": {
        "confidence": 0.84,
        "length_m": 14.85,
        "width_m": 2.98,
        "heading_deg": 125.2,
        "aoi": "kivikko",
        "source_layer": "Ortoilmakuva_2025_5cm",
        "zoom": 16,
        "status": "confirmed",
        "class": "bus"
      }
    },
    {
      "type": "Feature",
      "geometry": {
        "type": "Polygon",
        "coordinates": [
          [
            [
              25503508.842,
              6681513.937
            ],
            [
              25503511.286,
              6681519.692
            ],
            [
              25503508.771,
              6681520.76
            ],
            [
              25503506.327,
              6681515.005
            ],
            [
              25503508.842,
              6681513.937
            ]
          ]
        ]
      },
      "properties": {
        "confidence": 0.8256,
        "length_m": 6.25,
        "width_m": 2.73,
        "heading_deg": 23,
        "aoi": "kivikko",
        "source_layer": "Ortoilmakuva_2025_5cm",
        "zoom": 16,
        "status": "confirmed",
        "class": "van"
      }
    },
    {
      "type": "Feature",
      "geometry": {
        "type": "Polygon",
        "coordinates": [
          [
            [
              25503433.653,
              6681454.127
            ],
            [
              25503446.457,
              6681461.642
            ],
            [
              25503444.878,
              6681464.332
            ],
            [
              25503432.074,
              6681456.817
            ],
            [
              25503433.653,
              6681454.127
            ]
          ]
        ]
      },
      "properties": {
        "confidence": 0.8058,
        "length_m": 14.85,
        "width_m": 3.12,
        "heading_deg": 59.6,
        "aoi": "kivikko",
        "source_layer": "Ortoilmakuva_2025_5cm",
        "zoom": 16,
        "status": "confirmed",
        "class": "bus"
      }
    },
    {
      "type": "Feature",
      "geometry": {
        "type": "Polygon",
        "coordinates": [
          [
            [
              25503505.368,
              6681547.009
            ],
            [
              25503508.18,
              6681553.763
            ],
            [
              25503505.495,
              6681554.881
            ],
            [
              25503502.683,
              6681548.127
            ],
            [
              25503505.368,
              6681547.009
            ]
          ]
        ]
      },
      "properties": {
        "confidence": 0.7997,
        "length_m": 7.32,
        "width_m": 2.91,
        "heading_deg": 22.6,
        "aoi": "kivikko",
        "source_layer": "Ortoilmakuva_2025_5cm",
        "zoom": 16,
        "status": "confirmed",
        "class": "truck"
      }
    },
    {
      "type": "Feature",
      "geometry": {
        "type": "Polygon",
        "coordinates": [
          [
            [
              25503471.795,
              6681530.226
            ],
            [
              25503478.442,
              6681534.062
            ],
            [
              25503477.242,
              6681536.141
            ],
            [
              25503470.596,
              6681532.305
            ],
            [
              25503471.795,
              6681530.226
            ]
          ]
        ]
      },
      "properties": {
        "confidence": 0.7786,
        "length_m": 7.67,
        "width_m": 2.4,
        "heading_deg": 60,
        "aoi": "kivikko",
        "source_layer": "Ortoilmakuva_2025_5cm",
        "zoom": 16,
        "status": "confirmed",
        "class": "truck"
      }
    },
    {
      "type": "Feature",
      "geometry": {
        "type": "Polygon",
        "coordinates": [
          [
            [
              25503452.966,
              6681498.131
            ],
            [
              25503454.967,
              6681502.839
            ],
            [
              25503452.88,
              6681503.726
            ],
            [
              25503450.879,
              6681499.018
            ],
            [
              25503452.966,
              6681498.131
            ]
          ]
        ]
      },
      "properties": {
        "confidence": 0.7697,
        "length_m": 5.12,
        "width_m": 2.27,
        "heading_deg": 23,
        "aoi": "kivikko",
        "source_layer": "Ortoilmakuva_2025_5cm",
        "zoom": 16,
        "status": "confirmed",
        "class": "van"
      }
    },
    {
      "type": "Feature",
      "geometry": {
        "type": "Polygon",
        "coordinates": [
          [
            [
              25503527.954,
              6681586.691
            ],
            [
              25503529.23,
              6681588.765
            ],
            [
              25503524.723,
              6681591.538
            ],
            [
              25503523.447,
              6681589.465
            ],
            [
              25503527.954,
              6681586.691
            ]
          ]
        ]
      },
      "properties": {
        "confidence": 0.7666,
        "length_m": 5.29,
        "width_m": 2.44,
        "heading_deg": 121.6,
        "aoi": "kivikko",
        "source_layer": "Ortoilmakuva_2025_5cm",
        "zoom": 16,
        "status": "confirmed",
        "class": "van"
      }
    },
    {
      "type": "Feature",
      "geometry": {
        "type": "Polygon",
        "coordinates": [
          [
            [
              25503488.17,
              6681524.915
            ],
            [
              25503493.044,
              6681527.328
            ],
            [
              25503492.025,
              6681529.387
            ],
            [
              25503487.15,
              6681526.974
            ],
            [
              25503488.17,
              6681524.915
            ]
          ]
        ]
      },
      "properties": {
        "confidence": 0.7657,
        "length_m": 5.44,
        "width_m": 2.3,
        "heading_deg": 63.7,
        "aoi": "kivikko",
        "source_layer": "Ortoilmakuva_2025_5cm",
        "zoom": 16,
        "status": "confirmed",
        "class": "van"
      }
    },
    {
      "type": "Feature",
      "geometry": {
        "type": "Polygon",
        "coordinates": [
          [
            [
              25503372.081,
              6681322.241
            ],
            [
              25503377.24,
              6681327.345
            ],
            [
              25503375.155,
              6681329.452
            ],
            [
              25503369.996,
              6681324.348
            ],
            [
              25503372.081,
              6681322.241
            ]
          ]
        ]
      },
      "properties": {
        "confidence": 0.7495,
        "length_m": 7.26,
        "width_m": 2.96,
        "heading_deg": 45.3,
        "aoi": "kivikko",
        "source_layer": "Ortoilmakuva_2025_5cm",
        "zoom": 16,
        "status": "confirmed",
        "class": "truck"
      }
    },
    {
      "type": "Feature",
      "geometry": {
        "type": "Polygon",
        "coordinates": [
          [
            [
              25503475.648,
              6681522.137
            ],
            [
              25503476.642,
              6681524.353
            ],
            [
              25503471.244,
              6681526.776
            ],
            [
              25503470.25,
              6681524.559
            ],
            [
              25503475.648,
              6681522.137
            ]
          ]
        ]
      },
      "properties": {
        "confidence": 0.7494,
        "length_m": 5.92,
        "width_m": 2.43,
        "heading_deg": 114.2,
        "aoi": "kivikko",
        "source_layer": "Ortoilmakuva_2025_5cm",
        "zoom": 16,
        "status": "confirmed",
        "class": "van"
      }
    },
    {
      "type": "Feature",
      "geometry": {
        "type": "Polygon",
        "coordinates": [
          [
            [
              25503341.143,
              6681483.616
            ],
            [
              25503343.981,
              6681484.175
            ],
            [
              25503342.298,
              6681492.719
            ],
            [
              25503339.46,
              6681492.16
            ],
            [
              25503341.143,
              6681483.616
            ]
          ]
        ]
      },
      "properties": {
        "confidence": 0.749,
        "length_m": 8.71,
        "width_m": 2.89,
        "heading_deg": 168.9,
        "aoi": "kivikko",
        "source_layer": "Ortoilmakuva_2025_5cm",
        "zoom": 16,
        "status": "confirmed",
        "class": "truck"
      }
    },
    {
      "type": "Feature",
      "geometry": {
        "type": "Polygon",
        "coordinates": [
          [
            [
              25503345.914,
              6681480.041
            ],
            [
              25503349.031,
              6681480.639
            ],
            [
              25503346.643,
              6681493.092
            ],
            [
              25503343.527,
              6681492.494
            ],
            [
              25503345.914,
              6681480.041
            ]
          ]
        ]
      },
      "properties": {
        "confidence": 0.7229,
        "length_m": 12.68,
        "width_m": 3.17,
        "heading_deg": 169.1,
        "aoi": "kivikko",
        "source_layer": "Ortoilmakuva_2025_5cm",
        "zoom": 16,
        "status": "confirmed",
        "class": "truck"
      }
    },
    {
      "type": "Feature",
      "geometry": {
        "type": "Polygon",
        "coordinates": [
          [
            [
              25503468.719,
              6681489.023
            ],
            [
              25503470.751,
              6681494.721
            ],
            [
              25503468.534,
              6681495.512
            ],
            [
              25503466.502,
              6681489.814
            ],
            [
              25503468.719,
              6681489.023
            ]
          ]
        ]
      },
      "properties": {
        "confidence": 0.7141,
        "length_m": 6.05,
        "width_m": 2.35,
        "heading_deg": 19.6,
        "aoi": "kivikko",
        "source_layer": "Ortoilmakuva_2025_5cm",
        "zoom": 16,
        "status": "confirmed",
        "class": "van"
      }
    },
    {
      "type": "Feature",
      "geometry": {
        "type": "Polygon",
        "coordinates": [
          [
            [
              25503297.926,
              6681367.565
            ],
            [
              25503302.217,
              6681375.385
            ],
            [
              25503299.622,
              6681376.809
            ],
            [
              25503295.331,
              6681368.989
            ],
            [
              25503297.926,
              6681367.565
            ]
          ]
        ]
      },
      "properties": {
        "confidence": 0.6845,
        "length_m": 8.92,
        "width_m": 2.96,
        "heading_deg": 28.8,
        "aoi": "kivikko",
        "source_layer": "Ortoilmakuva_2025_5cm",
        "zoom": 16,
        "status": "confirmed",
        "class": "truck"
      }
    },
    {
      "type": "Feature",
      "geometry": {
        "type": "Polygon",
        "coordinates": [
          [
            [
              25503463.716,
              6681491.476
            ],
            [
              25503466.243,
              6681496.674
            ],
            [
              25503463.997,
              6681497.766
            ],
            [
              25503461.471,
              6681492.567
            ],
            [
              25503463.716,
              6681491.476
            ]
          ]
        ]
      },
      "properties": {
        "confidence": 0.6319,
        "length_m": 5.78,
        "width_m": 2.5,
        "heading_deg": 25.9,
        "aoi": "kivikko",
        "source_layer": "Ortoilmakuva_2025_5cm",
        "zoom": 16,
        "status": "confirmed",
        "class": "van"
      }
    },
    {
      "type": "Feature",
      "geometry": {
        "type": "Polygon",
        "coordinates": [
          [
            [
              25503490.509,
              6681522.932
            ],
            [
              25503495.485,
              6681526.018
            ],
            [
              25503494.206,
              6681528.079
            ],
            [
              25503489.23,
              6681524.993
            ],
            [
              25503490.509,
              6681522.932
            ]
          ]
        ]
      },
      "properties": {
        "confidence": 0.6201,
        "length_m": 5.86,
        "width_m": 2.43,
        "heading_deg": 58.2,
        "aoi": "kivikko",
        "source_layer": "Ortoilmakuva_2025_5cm",
        "zoom": 16,
        "status": "confirmed",
        "class": "truck"
      }
    },
    {
      "type": "Feature",
      "geometry": {
        "type": "Polygon",
        "coordinates": [
          [
            [
              25503508.779,
              6681555.027
            ],
            [
              25503510.719,
              6681560.685
            ],
            [
              25503508.158,
              6681561.563
            ],
            [
              25503506.218,
              6681555.905
            ],
            [
              25503508.779,
              6681555.027
            ]
          ]
        ]
      },
      "properties": {
        "confidence": 0.6186,
        "length_m": 5.98,
        "width_m": 2.71,
        "heading_deg": 18.9,
        "aoi": "kivikko",
        "source_layer": "Ortoilmakuva_2025_5cm",
        "zoom": 16,
        "status": "confirmed",
        "class": "truck"
      }
    },
    {
      "type": "Feature",
      "geometry": {
        "type": "Polygon",
        "coordinates": [
          [
            [
              25503476.313,
              6681581.019
            ],
            [
              25503478.571,
              6681586.062
            ],
            [
              25503476.424,
              6681587.024
            ],
            [
              25503474.165,
              6681581.981
            ],
            [
              25503476.313,
              6681581.019
            ]
          ]
        ]
      },
      "properties": {
        "confidence": 0.5665,
        "length_m": 5.53,
        "width_m": 2.35,
        "heading_deg": 24.1,
        "aoi": "kivikko",
        "source_layer": "Ortoilmakuva_2025_5cm",
        "zoom": 16,
        "status": "confirmed",
        "class": "truck"
      }
    },
    {
      "type": "Feature",
      "geometry": {
        "type": "Polygon",
        "coordinates": [
          [
            [
              25503485.919,
              6681526.262
            ],
            [
              25503490.421,
              6681528.935
            ],
            [
              25503489.27,
              6681530.873
            ],
            [
              25503484.768,
              6681528.199
            ],
            [
              25503485.919,
              6681526.262
            ]
          ]
        ]
      },
      "properties": {
        "confidence": 0.5634,
        "length_m": 5.24,
        "width_m": 2.25,
        "heading_deg": 59.3,
        "aoi": "kivikko",
        "source_layer": "Ortoilmakuva_2025_5cm",
        "zoom": 16,
        "status": "confirmed",
        "class": "truck"
      }
    },
    {
      "type": "Feature",
      "geometry": {
        "type": "Polygon",
        "coordinates": [
          [
            [
              25503450.08,
              6681499.74
            ],
            [
              25503451.49,
              6681501.937
            ],
            [
              25503445.902,
              6681505.526
            ],
            [
              25503444.491,
              6681503.33
            ],
            [
              25503450.08,
              6681499.74
            ]
          ]
        ]
      },
      "properties": {
        "confidence": 0.5344,
        "length_m": 6.64,
        "width_m": 2.61,
        "heading_deg": 122.7,
        "aoi": "kivikko",
        "source_layer": "Ortoilmakuva_2025_5cm",
        "zoom": 16,
        "status": "confirmed",
        "class": "truck"
      }
    },
    {
      "type": "Feature",
      "geometry": {
        "type": "Polygon",
        "coordinates": [
          [
            [
              25503375.085,
              6681549.567
            ],
            [
              25503379.578,
              6681552.956
            ],
            [
              25503378.066,
              6681554.96
            ],
            [
              25503373.573,
              6681551.571
            ],
            [
              25503375.085,
              6681549.567
            ]
          ]
        ]
      },
      "properties": {
        "confidence": 0.5316,
        "length_m": 5.63,
        "width_m": 2.51,
        "heading_deg": 53,
        "aoi": "kivikko",
        "source_layer": "Ortoilmakuva_2025_5cm",
        "zoom": 16,
        "status": "confirmed",
        "class": "van"
      }
    },
    {
      "type": "Feature",
      "geometry": {
        "type": "Polygon",
        "coordinates": [
          [
            [
              25503379.736,
              6681555.617
            ],
            [
              25503381.37,
              6681557.576
            ],
            [
              25503376.695,
              6681561.476
            ],
            [
              25503375.06,
              6681559.517
            ],
            [
              25503379.736,
              6681555.617
            ]
          ]
        ]
      },
      "properties": {
        "confidence": 0.4338,
        "length_m": 6.09,
        "width_m": 2.55,
        "heading_deg": 129.8,
        "aoi": "kivikko",
        "source_layer": "Ortoilmakuva_2025_5cm",
        "zoom": 16,
        "status": "confirmed",
        "class": "truck"
      }
    },
    {
      "type": "Feature",
      "geometry": {
        "type": "Polygon",
        "coordinates": [
          [
            [
              25503335.092,
              6681342.487
            ],
            [
              25503338.559,
              6681347.667
            ],
            [
              25503336.609,
              6681348.972
            ],
            [
              25503333.142,
              6681343.792
            ],
            [
              25503335.092,
              6681342.487
            ]
          ]
        ]
      },
      "properties": {
        "confidence": 0.4138,
        "length_m": 6.23,
        "width_m": 2.35,
        "heading_deg": 33.8,
        "aoi": "kivikko",
        "source_layer": "Ortoilmakuva_2025_5cm",
        "zoom": 16,
        "status": "confirmed",
        "class": "van"
      }
    },
    {
      "type": "Feature",
      "geometry": {
        "type": "Polygon",
        "coordinates": [
          [
            [
              25503361.525,
              6681513.613
            ],
            [
              25503362.835,
              6681515.775
            ],
            [
              25503358.057,
              6681518.672
            ],
            [
              25503356.746,
              6681516.51
            ],
            [
              25503361.525,
              6681513.613
            ]
          ]
        ]
      },
      "properties": {
        "confidence": 0.3332,
        "length_m": 5.59,
        "width_m": 2.53,
        "heading_deg": 121.2,
        "aoi": "kivikko",
        "source_layer": "Ortoilmakuva_2025_5cm",
        "zoom": 16,
        "status": "confirmed",
        "class": "van"
      }
    },
    {
      "type": "Feature",
      "geometry": {
        "type": "Polygon",
        "coordinates": [
          [
            [
              25503417.736,
              6681521.544
            ],
            [
              25503420.288,
              6681526.671
            ],
            [
              25503422.078,
              6681525.779
            ],
            [
              25503419.526,
              6681520.653
            ],
            [
              25503417.736,
              6681521.544
            ]
          ]
        ]
      },
      "properties": {
        "class": "van",
        "status": "added",
        "confidence": null,
        "aoi": "kivikko",
        "source_layer": "Ortoilmakuva_2025_5cm",
        "zoom": 16,
        "length_m": 5.73,
        "width_m": 2,
        "heading_deg": 26.5
      }
    },
    {
      "type": "Feature",
      "geometry": {
        "type": "Polygon",
        "coordinates": [
          [
            [
              25503512.879,
              6681559.564
            ],
            [
              25503510.844,
              6681554.555
            ],
            [
              25503508.991,
              6681555.307
            ],
            [
              25503511.026,
              6681560.317
            ],
            [
              25503512.879,
              6681559.564
            ]
          ]
        ]
      },
      "properties": {
        "class": "truck",
        "status": "added",
        "confidence": null,
        "aoi": "kivikko",
        "source_layer": "Ortoilmakuva_2025_5cm",
        "zoom": 16,
        "length_m": 5.41,
        "width_m": 2,
        "heading_deg": 22.1
      }
    },
    {
      "type": "Feature",
      "geometry": {
        "type": "Polygon",
        "coordinates": [
          [
            [
              25503483.656,
              6681465.295
            ],
            [
              25503481.145,
              6681461.102
            ],
            [
              25503479.429,
              6681462.129
            ],
            [
              25503481.94,
              6681466.323
            ],
            [
              25503483.656,
              6681465.295
            ]
          ]
        ]
      },
      "properties": {
        "class": "van",
        "status": "added",
        "confidence": null,
        "aoi": "kivikko",
        "source_layer": "Ortoilmakuva_2025_5cm",
        "zoom": 16,
        "length_m": 4.89,
        "width_m": 2,
        "heading_deg": 30.9
      }
    },
    {
      "type": "Feature",
      "geometry": {
        "type": "Polygon",
        "coordinates": [
          [
            [
              25503504.489,
              6681516.939
            ],
            [
              25503506.481,
              6681521.596
            ],
            [
              25503508.32,
              6681520.81
            ],
            [
              25503506.328,
              6681516.152
            ],
            [
              25503504.489,
              6681516.939
            ]
          ]
        ]
      },
      "properties": {
        "class": "van",
        "status": "added",
        "confidence": null,
        "aoi": "kivikko",
        "source_layer": "Ortoilmakuva_2025_5cm",
        "zoom": 16,
        "length_m": 5.07,
        "width_m": 2,
        "heading_deg": 23.2
      }
    },
    {
      "type": "Feature",
      "geometry": {
        "type": "Polygon",
        "coordinates": [
          [
            [
              25503350.91,
              6681476.908
            ],
            [
              25503349.411,
              6681484.964
            ],
            [
              25503352.36,
              6681485.513
            ],
            [
              25503353.859,
              6681477.456
            ],
            [
              25503350.91,
              6681476.908
            ]
          ]
        ]
      },
      "properties": {
        "class": "truck",
        "status": "added",
        "confidence": null,
        "aoi": "kivikko",
        "source_layer": "Ortoilmakuva_2025_5cm",
        "zoom": 16,
        "length_m": 8.19,
        "width_m": 3,
        "heading_deg": 169.5
      }
    }
  ]
}
