{
  "type": "FeatureCollection",
  "crs": {
    "type": "name",
    "properties": {
      "name": "urn:ogc:def:crs:EPSG::3879"
    }
  },
  "features": [
    {
      "type": "Feature",
      "geometry": {
        "type": "Polygon",
        "coordinates": [
          [
            [
              25498460.234,
              6676157.95
            ],
            [
              25498462.012,
              6676159.745
            ],
            [
              25498457.412,
              6676164.301
            ],
            [
              25498455.634,
              6676162.506
            ],
            [
              25498460.234,
              6676157.95
            ]
          ]
        ]
      },
      "properties": {
        "confidence": 0.8554,
        "length_m": 6.47,
        "width_m": 2.53,
        "heading_deg": 134.7,
        "aoi": "kylasaari",
        "source_layer": "Ortoilmakuva_2025_5cm",
        "zoom": 16,
        "status": "candidate",
        "class": ""
      }
    },
    {
      "type": "Feature",
      "geometry": {
        "type": "Polygon",
        "coordinates": [
          [
            [
              25498400.382,
              6676236.215
            ],
            [
              25498403.33,
              6676237.086
            ],
            [
              25498400.857,
              6676245.459
            ],
            [
              25498397.909,
              6676244.588
            ],
            [
              25498400.382,
              6676236.215
            ]
          ]
        ]
      },
      "properties": {
        "confidence": 0.8367,
        "length_m": 8.73,
        "width_m": 3.07,
        "heading_deg": 163.5,
        "aoi": "kylasaari",
        "source_layer": "Ortoilmakuva_2025_5cm",
        "zoom": 16,
        "status": "candidate",
        "class": ""
      }
    },
    {
      "type": "Feature",
      "geometry": {
        "type": "Polygon",
        "coordinates": [
          [
            [
              25498494.384,
              6676177.326
            ],
            [
              25498503.251,
              6676184.273
            ],
            [
              25498501.3,
              6676186.764
            ],
            [
              25498492.433,
              6676179.816
            ],
            [
              25498494.384,
              6676177.326
            ]
          ]
        ]
      },
      "properties": {
        "confidence": 0.8234,
        "length_m": 11.26,
        "width_m": 3.16,
        "heading_deg": 51.9,
        "aoi": "kylasaari",
        "source_layer": "Ortoilmakuva_2025_5cm",
        "zoom": 16,
        "status": "candidate",
        "class": ""
      }
    },
    {
      "type": "Feature",
      "geometry": {
        "type": "Polygon",
        "coordinates": [
          [
            [
              25498417.24,
              6676231.929
            ],
            [
              25498418.887,
              6676241.497
            ],
            [
              25498415.694,
              6676242.046
            ],
            [
              25498414.046,
              6676232.478
            ],
            [
              25498417.24,
              6676231.929
            ]
          ]
        ]
      },
      "properties": {
        "confidence": 0.8011,
        "length_m": 9.71,
        "width_m": 3.24,
        "heading_deg": 9.8,
        "aoi": "kylasaari",
        "source_layer": "Ortoilmakuva_2025_5cm",
        "zoom": 16,
        "status": "candidate",
        "class": ""
      }
    },
    {
      "type": "Feature",
      "geometry": {
        "type": "Polygon",
        "coordinates": [
          [
            [
              25498394.685,
              6676210.297
            ],
            [
              25498402.168,
              6676216.28
            ],
            [
              25498400.152,
              6676218.803
            ],
            [
              25498392.668,
              6676212.82
            ],
            [
              25498394.685,
              6676210.297
            ]
          ]
        ]
      },
      "properties": {
        "confidence": 0.7878,
        "length_m": 9.58,
        "width_m": 3.23,
        "heading_deg": 51.4,
        "aoi": "kylasaari",
        "source_layer": "Ortoilmakuva_2025_5cm",
        "zoom": 16,
        "status": "candidate",
        "class": ""
      }
    },
    {
      "type": "Feature",
      "geometry": {
        "type": "Polygon",
        "coordinates": [
          [
            [
              25498346.966,
              6676202.49
            ],
            [
              25498349.251,
              6676204.504
            ],
            [
              25498339.783,
              6676215.251
            ],
            [
              25498337.498,
              6676213.237
            ],
            [
              25498346.966,
              6676202.49
            ]
          ]
        ]
      },
      "properties": {
        "confidence": 0.7803,
        "length_m": 14.32,
        "width_m": 3.05,
        "heading_deg": 138.6,
        "aoi": "kylasaari",
        "source_layer": "Ortoilmakuva_2025_5cm",
        "zoom": 16,
        "status": "candidate",
        "class": ""
      }
    },
    {
      "type": "Feature",
      "geometry": {
        "type": "Polygon",
        "coordinates": [
          [
            [
              25498485.76,
              6676295.388
            ],
            [
              25498492.514,
              6676296.929
            ],
            [
              25498491.981,
              6676299.264
            ],
            [
              25498485.227,
              6676297.723
            ],
            [
              25498485.76,
              6676295.388
            ]
          ]
        ]
      },
      "properties": {
        "confidence": 0.7645,
        "length_m": 6.93,
        "width_m": 2.39,
        "heading_deg": 77.1,
        "aoi": "kylasaari",
        "source_layer": "Ortoilmakuva_2025_5cm",
        "zoom": 16,
        "status": "candidate",
        "class": ""
      }
    },
    {
      "type": "Feature",
      "geometry": {
        "type": "Polygon",
        "coordinates": [
          [
            [
              25498397.748,
              6676208.306
            ],
            [
              25498405.54,
              6676214.219
            ],
            [
              25498403.708,
              6676216.633
            ],
            [
              25498395.916,
              6676210.72
            ],
            [
              25498397.748,
              6676208.306
            ]
          ]
        ]
      },
      "properties": {
        "confidence": 0.7644,
        "length_m": 9.78,
        "width_m": 3.03,
        "heading_deg": 52.8,
        "aoi": "kylasaari",
        "source_layer": "Ortoilmakuva_2025_5cm",
        "zoom": 16,
        "status": "candidate",
        "class": ""
      }
    },
    {
      "type": "Feature",
      "geometry": {
        "type": "Polygon",
        "coordinates": [
          [
            [
              25498406.389,
              6676225.036
            ],
            [
              25498409.226,
              6676226.078
            ],
            [
              25498405.852,
              6676235.264
            ],
            [
              25498403.015,
              6676234.222
            ],
            [
              25498406.389,
              6676225.036
            ]
          ]
        ]
      },
      "properties": {
        "confidence": 0.7576,
        "length_m": 9.79,
        "width_m": 3.02,
        "heading_deg": 159.8,
        "aoi": "kylasaari",
        "source_layer": "Ortoilmakuva_2025_5cm",
        "zoom": 16,
        "status": "candidate",
        "class": ""
      }
    },
    {
      "type": "Feature",
      "geometry": {
        "type": "Polygon",
        "coordinates": [
          [
            [
              25498446.809,
              6676240.736
            ],
            [
              25498449.069,
              6676245.197
            ],
            [
              25498446.961,
              6676246.265
            ],
            [
              25498444.701,
              6676241.805
            ],
            [
              25498446.809,
              6676240.736
            ]
          ]
        ]
      },
      "properties": {
        "confidence": 0.7126,
        "length_m": 5,
        "width_m": 2.36,
        "heading_deg": 26.9,
        "aoi": "kylasaari",
        "source_layer": "Ortoilmakuva_2025_5cm",
        "zoom": 16,
        "status": "candidate",
        "class": ""
      }
    },
    {
      "type": "Feature",
      "geometry": {
        "type": "Polygon",
        "coordinates": [
          [
            [
              25498371.84,
              6676335.743
            ],
            [
              25498374.477,
              6676336.517
            ],
            [
              25498372.375,
              6676343.677
            ],
            [
              25498369.738,
              6676342.903
            ],
            [
              25498371.84,
              6676335.743
            ]
          ]
        ]
      },
      "properties": {
        "confidence": 0.7053,
        "length_m": 7.46,
        "width_m": 2.75,
        "heading_deg": 163.6,
        "aoi": "kylasaari",
        "source_layer": "Ortoilmakuva_2025_5cm",
        "zoom": 16,
        "status": "candidate",
        "class": ""
      }
    },
    {
      "type": "Feature",
      "geometry": {
        "type": "Polygon",
        "coordinates": [
          [
            [
              25498361.539,
              6676173.489
            ],
            [
              25498363.517,
              6676175.653
            ],
            [
              25498353.059,
              6676185.214
            ],
            [
              25498351.081,
              6676183.05
            ],
            [
              25498361.539,
              6676173.489
            ]
          ]
        ]
      },
      "properties": {
        "confidence": 0.693,
        "length_m": 14.17,
        "width_m": 2.93,
        "heading_deg": 132.4,
        "aoi": "kylasaari",
        "source_layer": "Ortoilmakuva_2025_5cm",
        "zoom": 16,
        "status": "candidate",
        "class": ""
      }
    },
    {
      "type": "Feature",
      "geometry": {
        "type": "Polygon",
        "coordinates": [
          [
            [
              25498400.892,
              6676206.541
            ],
            [
              25498407.697,
              6676211.058
            ],
            [
              25498406.183,
              6676213.338
            ],
            [
              25498399.378,
              6676208.821
            ],
            [
              25498400.892,
              6676206.541
            ]
          ]
        ]
      },
      "properties": {
        "confidence": 0.688,
        "length_m": 8.17,
        "width_m": 2.74,
        "heading_deg": 56.4,
        "aoi": "kylasaari",
        "source_layer": "Ortoilmakuva_2025_5cm",
        "zoom": 16,
        "status": "candidate",
        "class": ""
      }
    },
    {
      "type": "Feature",
      "geometry": {
        "type": "Polygon",
        "coordinates": [
          [
            [
              25498453.355,
              6676158.589
            ],
            [
              25498455.733,
              6676159.495
            ],
            [
              25498453.53,
              6676165.276
            ],
            [
              25498451.152,
              6676164.37
            ],
            [
              25498453.355,
              6676158.589
            ]
          ]
        ]
      },
      "properties": {
        "confidence": 0.6827,
        "length_m": 6.19,
        "width_m": 2.54,
        "heading_deg": 159.1,
        "aoi": "kylasaari",
        "source_layer": "Ortoilmakuva_2025_5cm",
        "zoom": 16,
        "status": "candidate",
        "class": ""
      }
    },
    {
      "type": "Feature",
      "geometry": {
        "type": "Polygon",
        "coordinates": [
          [
            [
              25498349.158,
              6676205.62
            ],
            [
              25498351.431,
              6676207.521
            ],
            [
              25498346.184,
              6676213.793
            ],
            [
              25498343.911,
              6676211.891
            ],
            [
              25498349.158,
              6676205.62
            ]
          ]
        ]
      },
      "properties": {
        "confidence": 0.6675,
        "length_m": 8.18,
        "width_m": 2.96,
        "heading_deg": 140.1,
        "aoi": "kylasaari",
        "source_layer": "Ortoilmakuva_2025_5cm",
        "zoom": 16,
        "status": "candidate",
        "class": ""
      }
    },
    {
      "type": "Feature",
      "geometry": {
        "type": "Polygon",
        "coordinates": [
          [
            [
              25498346.9,
              6676202.914
            ],
            [
              25498349.04,
              6676204.815
            ],
            [
              25498346.095,
              6676208.129
            ],
            [
              25498343.956,
              6676206.229
            ],
            [
              25498346.9,
              6676202.914
            ]
          ]
        ]
      },
      "properties": {
        "confidence": 0.5769,
        "length_m": 4.43,
        "width_m": 2.86,
        "heading_deg": 138.4,
        "aoi": "kylasaari",
        "source_layer": "Ortoilmakuva_2025_5cm",
        "zoom": 16,
        "status": "candidate",
        "class": ""
      }
    },
    {
      "type": "Feature",
      "geometry": {
        "type": "Polygon",
        "coordinates": [
          [
            [
              25498470.392,
              6676169.301
            ],
            [
              25498472.202,
              6676171.25
            ],
            [
              25498468.014,
              6676175.141
            ],
            [
              25498466.203,
              6676173.192
            ],
            [
              25498470.392,
              6676169.301
            ]
          ]
        ]
      },
      "properties": {
        "confidence": 0.5587,
        "length_m": 5.72,
        "width_m": 2.66,
        "heading_deg": 132.9,
        "aoi": "kylasaari",
        "source_layer": "Ortoilmakuva_2025_5cm",
        "zoom": 16,
        "status": "candidate",
        "class": ""
      }
    },
    {
      "type": "Feature",
      "geometry": {
        "type": "Polygon",
        "coordinates": [
          [
            [
              25498355.908,
              6676167.7
            ],
            [
              25498358.014,
              6676169.651
            ],
            [
              25498348.355,
              6676180.073
            ],
            [
              25498346.249,
              6676178.122
            ],
            [
              25498355.908,
              6676167.7
            ]
          ]
        ]
      },
      "properties": {
        "confidence": 0.4891,
        "length_m": 14.21,
        "width_m": 2.87,
        "heading_deg": 137.2,
        "aoi": "kylasaari",
        "source_layer": "Ortoilmakuva_2025_5cm",
        "zoom": 16,
        "status": "candidate",
        "class": ""
      }
    },
    {
      "type": "Feature",
      "geometry": {
        "type": "Polygon",
        "coordinates": [
          [
            [
              25498494.871,
              6676060.796
            ],
            [
              25498496.583,
              6676062.314
            ],
            [
              25498493.159,
              6676066.174
            ],
            [
              25498491.447,
              6676064.656
            ],
            [
              25498494.871,
              6676060.796
            ]
          ]
        ]
      },
      "properties": {
        "confidence": 0.4536,
        "length_m": 5.16,
        "width_m": 2.29,
        "heading_deg": 138.4,
        "aoi": "kylasaari",
        "source_layer": "Ortoilmakuva_2025_5cm",
        "zoom": 16,
        "status": "candidate",
        "class": ""
      }
    },
    {
      "type": "Feature",
      "geometry": {
        "type": "Polygon",
        "coordinates": [
          [
            [
              25498467.385,
              6676092.581
            ],
            [
              25498469.236,
              6676094.14
            ],
            [
              25498465.19,
              6676098.943
            ],
            [
              25498463.339,
              6676097.385
            ],
            [
              25498467.385,
              6676092.581
            ]
          ]
        ]
      },
      "properties": {
        "confidence": 0.3776,
        "length_m": 6.28,
        "width_m": 2.42,
        "heading_deg": 139.9,
        "aoi": "kylasaari",
        "source_layer": "Ortoilmakuva_2025_5cm",
        "zoom": 16,
        "status": "candidate",
        "class": ""
      }
    },
    {
      "type": "Feature",
      "geometry": {
        "type": "Polygon",
        "coordinates": [
          [
            [
              25498372.735,
              6676181.227
            ],
            [
              25498374.219,
              6676182.87
            ],
            [
              25498370.725,
              6676186.026
            ],
            [
              25498369.241,
              6676184.383
            ],
            [
              25498372.735,
              6676181.227
            ]
          ]
        ]
      },
      "properties": {
        "confidence": 0.3763,
        "length_m": 4.71,
        "width_m": 2.21,
        "heading_deg": 132.1,
        "aoi": "kylasaari",
        "source_layer": "Ortoilmakuva_2025_5cm",
        "zoom": 16,
        "status": "candidate",
        "class": ""
      }
    },
    {
      "type": "Feature",
      "geometry": {
        "type": "Polygon",
        "coordinates": [
          [
            [
              25498467.965,
              6676058.648
            ],
            [
              25498471.908,
              6676061.792
            ],
            [
              25498470.428,
              6676063.648
            ],
            [
              25498466.485,
              6676060.504
            ],
            [
              25498467.965,
              6676058.648
            ]
          ]
        ]
      },
      "properties": {
        "confidence": 0.3759,
        "length_m": 5.04,
        "width_m": 2.37,
        "heading_deg": 51.4,
        "aoi": "kylasaari",
        "source_layer": "Ortoilmakuva_2025_5cm",
        "zoom": 16,
        "status": "candidate",
        "class": ""
      }
    },
    {
      "type": "Feature",
      "geometry": {
        "type": "Polygon",
        "coordinates": [
          [
            [
              25498359.672,
              6676169.701
            ],
            [
              25498361.616,
              6676171.615
            ],
            [
              25498349.734,
              6676183.685
            ],
            [
              25498347.79,
              6676181.771
            ],
            [
              25498359.672,
              6676169.701
            ]
          ]
        ]
      },
      "properties": {
        "confidence": 0.3356,
        "length_m": 16.94,
        "width_m": 2.73,
        "heading_deg": 135.5,
        "aoi": "kylasaari",
        "source_layer": "Ortoilmakuva_2025_5cm",
        "zoom": 16,
        "status": "candidate",
        "class": ""
      }
    },
    {
      "type": "Feature",
      "geometry": {
        "type": "Polygon",
        "coordinates": [
          [
            [
              25498508.071,
              6676079.492
            ],
            [
              25498512.023,
              6676083.404
            ],
            [
              25498510.278,
              6676085.166
            ],
            [
              25498506.327,
              6676081.254
            ],
            [
              25498508.071,
              6676079.492
            ]
          ]
        ]
      },
      "properties": {
        "confidence": 0.311,
        "length_m": 5.56,
        "width_m": 2.48,
        "heading_deg": 45.3,
        "aoi": "kylasaari",
        "source_layer": "Ortoilmakuva_2025_5cm",
        "zoom": 16,
        "status": "candidate",
        "class": ""
      }
    }
  ]
}
