{
  "type": "FeatureCollection",
  "features": [
    {
      "type": "Feature",
      "geometry": {
        "type": "Polygon",
        "coordinates": [
          [
            [
              25.05264511392225,
              60.23137209777414
            ],
            [
              25.05266686259942,
              60.23139714193683
            ],
            [
              25.052521911961566,
              60.231428275124266
            ],
            [
              25.052500163374333,
              60.231403230937936
            ],
            [
              25.05264511392225,
              60.23137209777414
            ]
          ]
        ]
      },
      "properties": {
        "confidence": 0.8548,
        "length_m": 8.75,
        "width_m": 3.04,
        "heading_deg": 113.3,
        "aoi": "myllypuro",
        "source_layer": "Ortoilmakuva_2025_5cm",
        "zoom": 16,
        "status": "candidate",
        "class": ""
      }
    },
    {
      "type": "Feature",
      "geometry": {
        "type": "Polygon",
        "coordinates": [
          [
            [
              25.052939199732286,
              60.231170178610576
            ],
            [
              25.05296825204822,
              60.23119545026903
            ],
            [
              25.05283408931657,
              60.23123359724238
            ],
            [
              25.05280503707013,
              60.231208325554704
            ],
            [
              25.052939199732286,
              60.231170178610576
            ]
          ]
        ]
      },
      "properties": {
        "confidence": 0.8284,
        "length_m": 8.56,
        "width_m": 3.24,
        "heading_deg": 119.7,
        "aoi": "myllypuro",
        "source_layer": "Ortoilmakuva_2025_5cm",
        "zoom": 16,
        "status": "candidate",
        "class": ""
      }
    },
    {
      "type": "Feature",
      "geometry": {
        "type": "Polygon",
        "coordinates": [
          [
            [
              25.052999155124155,
              60.23125297784257
            ],
            [
              25.053026816344367,
              60.23127833570758
            ],
            [
              25.052867032156012,
              60.23132144530785
            ],
            [
              25.05283937088518,
              60.231296087409774
            ],
            [
              25.052999155124155,
              60.23125297784257
            ]
          ]
        ]
      },
      "properties": {
        "confidence": 0.8279,
        "length_m": 10.07,
        "width_m": 3.21,
        "heading_deg": 118.4,
        "aoi": "myllypuro",
        "source_layer": "Ortoilmakuva_2025_5cm",
        "zoom": 16,
        "status": "candidate",
        "class": ""
      }
    },
    {
      "type": "Feature",
      "geometry": {
        "type": "Polygon",
        "coordinates": [
          [
            [
              25.05329607886609,
              60.2310761419495
            ],
            [
              25.053319303325747,
              60.231099495036254
            ],
            [
              25.05317741879652,
              60.23113439494651
            ],
            [
              25.053154194413082,
              60.23111104183504
            ],
            [
              25.05329607886609,
              60.2310761419495
            ]
          ]
        ]
      },
      "properties": {
        "confidence": 0.8253,
        "length_m": 8.77,
        "width_m": 2.9,
        "heading_deg": 116.3,
        "aoi": "myllypuro",
        "source_layer": "Ortoilmakuva_2025_5cm",
        "zoom": 16,
        "status": "candidate",
        "class": ""
      }
    },
    {
      "type": "Feature",
      "geometry": {
        "type": "Polygon",
        "coordinates": [
          [
            [
              25.053091067761613,
              60.231126304912124
            ],
            [
              25.053117929584864,
              60.23114948881131
            ],
            [
              25.052989256072852,
              60.23118636302576
            ],
            [
              25.052962394310278,
              60.23116317910063
            ],
            [
              25.053091067761613,
              60.231126304912124
            ]
          ]
        ]
      },
      "properties": {
        "confidence": 0.8242,
        "length_m": 8.23,
        "width_m": 2.98,
        "heading_deg": 119.9,
        "aoi": "myllypuro",
        "source_layer": "Ortoilmakuva_2025_5cm",
        "zoom": 16,
        "status": "candidate",
        "class": ""
      }
    },
    {
      "type": "Feature",
      "geometry": {
        "type": "Polygon",
        "coordinates": [
          [
            [
              25.053199714285913,
              60.23122116684224
            ],
            [
              25.053227949621128,
              60.23124658435232
            ],
            [
              25.05306559127252,
              60.23129119266923
            ],
            [
              25.053037356024614,
              60.23126577512475
            ],
            [
              25.053199714285913,
              60.23122116684224
            ]
          ]
        ]
      },
      "properties": {
        "confidence": 0.824,
        "length_m": 10.28,
        "width_m": 3.24,
        "heading_deg": 118.9,
        "aoi": "myllypuro",
        "source_layer": "Ortoilmakuva_2025_5cm",
        "zoom": 16,
        "status": "candidate",
        "class": ""
      }
    },
    {
      "type": "Feature",
      "geometry": {
        "type": "Polygon",
        "coordinates": [
          [
            [
              25.05277451714599,
              60.231212501272815
            ],
            [
              25.052807332640437,
              60.2312378196774
            ],
            [
              25.052665978361844,
              60.2312831336993
            ],
            [
              25.052633162931084,
              60.231257815259944
            ],
            [
              25.05277451714599,
              60.231212501272815
            ]
          ]
        ]
      },
      "properties": {
        "confidence": 0.818,
        "length_m": 9.32,
        "width_m": 3.36,
        "heading_deg": 122.8,
        "aoi": "myllypuro",
        "source_layer": "Ortoilmakuva_2025_5cm",
        "zoom": 16,
        "status": "candidate",
        "class": ""
      }
    },
    {
      "type": "Feature",
      "geometry": {
        "type": "Polygon",
        "coordinates": [
          [
            [
              25.05249602661475,
              60.23129896823151
            ],
            [
              25.05252904728159,
              60.23132472007987
            ],
            [
              25.05237175461112,
              60.2313746043298
            ],
            [
              25.052338734086298,
              60.231348852442466
            ],
            [
              25.05249602661475,
              60.23129896823151
            ]
          ]
        ]
      },
      "properties": {
        "confidence": 0.8074,
        "length_m": 10.34,
        "width_m": 3.4,
        "heading_deg": 122.5,
        "aoi": "myllypuro",
        "source_layer": "Ortoilmakuva_2025_5cm",
        "zoom": 16,
        "status": "candidate",
        "class": ""
      }
    },
    {
      "type": "Feature",
      "geometry": {
        "type": "Polygon",
        "coordinates": [
          [
            [
              25.05222525350741,
              60.23161024650166
            ],
            [
              25.05225087005288,
              60.23163101480166
            ],
            [
              25.052104440292705,
              60.23167568510279
            ],
            [
              25.0520788238222,
              60.23165491677468
            ],
            [
              25.05222525350741,
              60.23161024650166
            ]
          ]
        ]
      },
      "properties": {
        "confidence": 0.8003,
        "length_m": 9.52,
        "width_m": 2.71,
        "heading_deg": 121.5,
        "aoi": "myllypuro",
        "source_layer": "Ortoilmakuva_2025_5cm",
        "zoom": 16,
        "status": "candidate",
        "class": ""
      }
    },
    {
      "type": "Feature",
      "geometry": {
        "type": "Polygon",
        "coordinates": [
          [
            [
              25.053421994950003,
              60.23116331020264
            ],
            [
              25.053448100238285,
              60.23118713466357
            ],
            [
              25.05327333396955,
              60.23123449838605
            ],
            [
              25.053247228770406,
              60.23121067389091
            ],
            [
              25.053421994950003,
              60.23116331020264
            ]
          ]
        ]
      },
      "properties": {
        "confidence": 0.7942,
        "length_m": 11.03,
        "width_m": 3.02,
        "heading_deg": 118.5,
        "aoi": "myllypuro",
        "source_layer": "Ortoilmakuva_2025_5cm",
        "zoom": 16,
        "status": "candidate",
        "class": ""
      }
    },
    {
      "type": "Feature",
      "geometry": {
        "type": "Polygon",
        "coordinates": [
          [
            [
              25.052796532818633,
              60.23133361304545
            ],
            [
              25.052817989108014,
              60.23135581822842
            ],
            [
              25.052689653813417,
              60.23138648889817
            ],
            [
              25.052668197590776,
              60.23136428369452
            ],
            [
              25.052796532818633,
              60.23133361304545
            ]
          ]
        ]
      },
      "properties": {
        "confidence": 0.7892,
        "length_m": 7.89,
        "width_m": 2.74,
        "heading_deg": 115.6,
        "aoi": "myllypuro",
        "source_layer": "Ortoilmakuva_2025_5cm",
        "zoom": 16,
        "status": "candidate",
        "class": ""
      }
    },
    {
      "type": "Feature",
      "geometry": {
        "type": "Polygon",
        "coordinates": [
          [
            [
              25.051896726920596,
              60.23171035767834
            ],
            [
              25.05193863623076,
              60.23173411866473
            ],
            [
              25.05177914982539,
              60.23180369109682
            ],
            [
              25.051737240541794,
              60.23177993006031
            ],
            [
              25.051896726920596,
              60.23171035767834
            ]
          ]
        ]
      },
      "properties": {
        "confidence": 0.642,
        "length_m": 11.75,
        "width_m": 3.52,
        "heading_deg": 131.2,
        "aoi": "myllypuro",
        "source_layer": "Ortoilmakuva_2025_5cm",
        "zoom": 16,
        "status": "candidate",
        "class": ""
      }
    },
    {
      "type": "Feature",
      "geometry": {
        "type": "Polygon",
        "coordinates": [
          [
            [
              25.05287179222361,
              60.23146095476707
            ],
            [
              25.05288952443205,
              60.23148395342117
            ],
            [
              25.052761723969986,
              60.23150832398571
            ],
            [
              25.052743991837904,
              60.2314853253146
            ],
            [
              25.05287179222361,
              60.23146095476707
            ]
          ]
        ]
      },
      "properties": {
        "confidence": 0.5459,
        "length_m": 7.58,
        "width_m": 2.74,
        "heading_deg": 110.9,
        "aoi": "myllypuro",
        "source_layer": "Ortoilmakuva_2025_5cm",
        "zoom": 16,
        "status": "candidate",
        "class": ""
      }
    },
    {
      "type": "Feature",
      "geometry": {
        "type": "Polygon",
        "coordinates": [
          [
            [
              25.05411378628895,
              60.23091544531134
            ],
            [
              25.054118248569985,
              60.23096560653006
            ],
            [
              25.054087854958947,
              60.23096627533596
            ],
            [
              25.054083392724262,
              60.230916114116205
            ],
            [
              25.05411378628895,
              60.23091544531134
            ]
          ]
        ]
      },
      "properties": {
        "confidence": 0.3594,
        "length_m": 5.59,
        "width_m": 1.69,
        "heading_deg": 2.5,
        "aoi": "myllypuro",
        "source_layer": "Ortoilmakuva_2025_5cm",
        "zoom": 16,
        "status": "candidate",
        "class": ""
      }
    }
  ]
}
