{
  "type": "FeatureCollection",
  "features": [
    {
      "type": "Feature",
      "geometry": {
        "type": "Polygon",
        "coordinates": [
          [
            [
              24.9781590187704,
              60.237912060271114
            ],
            [
              24.978195841103787,
              60.2379324097211
            ],
            [
              24.978042392161676,
              60.23800105754643
            ],
            [
              24.978005569708717,
              60.237980708054124
            ],
            [
              24.9781590187704,
              60.237912060271114
            ]
          ]
        ]
      },
      "properties": {
        "confidence": 0.8188,
        "length_m": 11.44,
        "width_m": 3.05,
        "heading_deg": 132,
        "aoi": "patola",
        "source_layer": "Ortoilmakuva_2025_5cm",
        "zoom": 16,
        "status": "candidate",
        "class": ""
      }
    },
    {
      "type": "Feature",
      "geometry": {
        "type": "Polygon",
        "coordinates": [
          [
            [
              24.97825655468541,
              60.236547715216005
            ],
            [
              24.97834971547304,
              60.23659885483927
            ],
            [
              24.97830570173184,
              60.23661867939726
            ],
            [
              24.97821254095653,
              60.236567539743255
            ],
            [
              24.97825655468541,
              60.236547715216005
            ]
          ]
        ]
      },
      "properties": {
        "confidence": 0.8008,
        "length_m": 7.69,
        "width_m": 3.29,
        "heading_deg": 42.2,
        "aoi": "patola",
        "source_layer": "Ortoilmakuva_2025_5cm",
        "zoom": 16,
        "status": "candidate",
        "class": ""
      }
    },
    {
      "type": "Feature",
      "geometry": {
        "type": "Polygon",
        "coordinates": [
          [
            [
              24.980862022949065,
              60.236650837583454
            ],
            [
              24.980937596713467,
              60.23668844368263
            ],
            [
              24.98090723475232,
              60.23670352988899
            ],
            [
              24.980831660987977,
              60.236665923772605
            ],
            [
              24.980862022949065,
              60.236650837583454
            ]
          ]
        ]
      },
      "properties": {
        "confidence": 0.7925,
        "length_m": 5.92,
        "width_m": 2.38,
        "heading_deg": 45,
        "aoi": "patola",
        "source_layer": "Ortoilmakuva_2025_5cm",
        "zoom": 16,
        "status": "candidate",
        "class": ""
      }
    },
    {
      "type": "Feature",
      "geometry": {
        "type": "Polygon",
        "coordinates": [
          [
            [
              24.980882527174842,
              60.236700048892324
            ],
            [
              24.98097135064784,
              60.23674625930431
            ],
            [
              24.980936080559186,
              60.236763021528226
            ],
            [
              24.980847257090492,
              60.23671681109273
            ],
            [
              24.980882527174842,
              60.236700048892324
            ]
          ]
        ]
      },
      "properties": {
        "confidence": 0.7845,
        "length_m": 7.12,
        "width_m": 2.7,
        "heading_deg": 43.7,
        "aoi": "patola",
        "source_layer": "Ortoilmakuva_2025_5cm",
        "zoom": 16,
        "status": "candidate",
        "class": ""
      }
    },
    {
      "type": "Feature",
      "geometry": {
        "type": "Polygon",
        "coordinates": [
          [
            [
              24.978122113298244,
              60.23788902990969
            ],
            [
              24.97815345757626,
              60.23790754398425
            ],
            [
              24.978016632760283,
              60.237964813385766
            ],
            [
              24.977985288642493,
              60.2379462992791
            ],
            [
              24.978122113298244,
              60.23788902990969
            ]
          ]
        ]
      },
      "properties": {
        "confidence": 0.784,
        "length_m": 9.91,
        "width_m": 2.7,
        "heading_deg": 130.1,
        "aoi": "patola",
        "source_layer": "Ortoilmakuva_2025_5cm",
        "zoom": 16,
        "status": "candidate",
        "class": ""
      }
    },
    {
      "type": "Feature",
      "geometry": {
        "type": "Polygon",
        "coordinates": [
          [
            [
              24.980741693176604,
              60.23666850436474
            ],
            [
              24.980833078419785,
              60.236716691198126
            ],
            [
              24.980798768749896,
              60.23673277916806
            ],
            [
              24.9807073835123,
              60.23668459231115
            ],
            [
              24.980741693176604,
              60.23666850436474
            ]
          ]
        ]
      },
      "properties": {
        "confidence": 0.7742,
        "length_m": 7.38,
        "width_m": 2.61,
        "heading_deg": 43.3,
        "aoi": "patola",
        "source_layer": "Ortoilmakuva_2025_5cm",
        "zoom": 16,
        "status": "candidate",
        "class": ""
      }
    },
    {
      "type": "Feature",
      "geometry": {
        "type": "Polygon",
        "coordinates": [
          [
            [
              24.98079841853615,
              60.23665382821489
            ],
            [
              24.98088246722122,
              60.23669989611269
            ],
            [
              24.98084767851523,
              60.23671558919098
            ],
            [
              24.980763629838812,
              60.236669521271274
            ],
            [
              24.98079841853615,
              60.23665382821489
            ]
          ]
        ]
      },
      "properties": {
        "confidence": 0.7528,
        "length_m": 6.93,
        "width_m": 2.6,
        "heading_deg": 42.2,
        "aoi": "patola",
        "source_layer": "Ortoilmakuva_2025_5cm",
        "zoom": 16,
        "status": "candidate",
        "class": ""
      }
    },
    {
      "type": "Feature",
      "geometry": {
        "type": "Polygon",
        "coordinates": [
          [
            [
              24.980692157645514,
              60.236879599092326
            ],
            [
              24.98078692356039,
              60.23692611161598
            ],
            [
              24.980753457862544,
              60.23694296991915
            ],
            [
              24.980658691946434,
              60.236896457371714
            ],
            [
              24.980692157645514,
              60.236879599092326
            ]
          ]
        ]
      },
      "properties": {
        "confidence": 0.7521,
        "length_m": 7.38,
        "width_m": 2.64,
        "heading_deg": 45.4,
        "aoi": "patola",
        "source_layer": "Ortoilmakuva_2025_5cm",
        "zoom": 16,
        "status": "candidate",
        "class": ""
      }
    },
    {
      "type": "Feature",
      "geometry": {
        "type": "Polygon",
        "coordinates": [
          [
            [
              24.980415746987156,
              60.23685706585944
            ],
            [
              24.980492852453605,
              60.236897066100006
            ],
            [
              24.980459362517678,
              60.2369130274208
            ],
            [
              24.980382257054558,
              60.236873027160875
            ],
            [
              24.980415746987156,
              60.23685706585944
            ]
          ]
        ]
      },
      "properties": {
        "confidence": 0.7515,
        "length_m": 6.17,
        "width_m": 2.57,
        "heading_deg": 43.8,
        "aoi": "patola",
        "source_layer": "Ortoilmakuva_2025_5cm",
        "zoom": 16,
        "status": "candidate",
        "class": ""
      }
    },
    {
      "type": "Feature",
      "geometry": {
        "type": "Polygon",
        "coordinates": [
          [
            [
              24.980840709650476,
              60.236719705538334
            ],
            [
              24.980931624522192,
              60.23676527095642
            ],
            [
              24.98089820720363,
              60.236781756654466
            ],
            [
              24.980807292332653,
              60.23673619121362
            ],
            [
              24.980840709650476,
              60.236719705538334
            ]
          ]
        ]
      },
      "properties": {
        "confidence": 0.7498,
        "length_m": 7.15,
        "width_m": 2.61,
        "heading_deg": 44.8,
        "aoi": "patola",
        "source_layer": "Ortoilmakuva_2025_5cm",
        "zoom": 16,
        "status": "candidate",
        "class": ""
      }
    },
    {
      "type": "Feature",
      "geometry": {
        "type": "Polygon",
        "coordinates": [
          [
            [
              24.9807093591343,
              60.236692381659594
            ],
            [
              24.980795326155327,
              60.236735345852786
            ],
            [
              24.980761296598896,
              60.236752181068724
            ],
            [
              24.98067532957832,
              60.23670921685358
            ],
            [
              24.9807093591343,
              60.236692381659594
            ]
          ]
        ]
      },
      "properties": {
        "confidence": 0.7311,
        "length_m": 6.75,
        "width_m": 2.66,
        "heading_deg": 44.9,
        "aoi": "patola",
        "source_layer": "Ortoilmakuva_2025_5cm",
        "zoom": 16,
        "status": "candidate",
        "class": ""
      }
    },
    {
      "type": "Feature",
      "geometry": {
        "type": "Polygon",
        "coordinates": [
          [
            [
              24.98066898407592,
              60.23671743721437
            ],
            [
              24.980752205528493,
              60.236755124238876
            ],
            [
              24.98072243772305,
              60.23677137691711
            ],
            [
              24.98063921626345,
              60.236733689874015
            ],
            [
              24.98066898407592,
              60.23671743721437
            ]
          ]
        ]
      },
      "properties": {
        "confidence": 0.7152,
        "length_m": 6.24,
        "width_m": 2.45,
        "heading_deg": 47.7,
        "aoi": "patola",
        "source_layer": "Ortoilmakuva_2025_5cm",
        "zoom": 16,
        "status": "candidate",
        "class": ""
      }
    },
    {
      "type": "Feature",
      "geometry": {
        "type": "Polygon",
        "coordinates": [
          [
            [
              24.980633544609223,
              60.236744127667855
            ],
            [
              24.98071416588719,
              60.23677755893508
            ],
            [
              24.980684658149972,
              60.23679515309658
            ],
            [
              24.98060403685885,
              60.23676172181151
            ],
            [
              24.980633544609223,
              60.236744127667855
            ]
          ]
        ]
      },
      "properties": {
        "confidence": 0.7006,
        "length_m": 5.82,
        "width_m": 2.55,
        "heading_deg": 50.2,
        "aoi": "patola",
        "source_layer": "Ortoilmakuva_2025_5cm",
        "zoom": 16,
        "status": "candidate",
        "class": ""
      }
    },
    {
      "type": "Feature",
      "geometry": {
        "type": "Polygon",
        "coordinates": [
          [
            [
              24.980735960816165,
              60.236864495782
            ],
            [
              24.98083178206944,
              60.23691037971022
            ],
            [
              24.980799072852335,
              60.23692726867464
            ],
            [
              24.980703251595486,
              60.23688138472296
            ],
            [
              24.980735960816165,
              60.236864495782
            ]
          ]
        ]
      },
      "properties": {
        "confidence": 0.7005,
        "length_m": 7.37,
        "width_m": 2.61,
        "heading_deg": 46.1,
        "aoi": "patola",
        "source_layer": "Ortoilmakuva_2025_5cm",
        "zoom": 16,
        "status": "candidate",
        "class": ""
      }
    },
    {
      "type": "Feature",
      "geometry": {
        "type": "Polygon",
        "coordinates": [
          [
            [
              24.98081027883049,
              60.23674067630622
            ],
            [
              24.980894952470457,
              60.23678334525095
            ],
            [
              24.98086162387968,
              60.23679969797123
            ],
            [
              24.980776950240863,
              60.23675702900534
            ],
            [
              24.98081027883049,
              60.23674067630622
            ]
          ]
        ]
      },
      "properties": {
        "confidence": 0.6998,
        "length_m": 6.68,
        "width_m": 2.59,
        "heading_deg": 44.6,
        "aoi": "patola",
        "source_layer": "Ortoilmakuva_2025_5cm",
        "zoom": 16,
        "status": "candidate",
        "class": ""
      }
    },
    {
      "type": "Feature",
      "geometry": {
        "type": "Polygon",
        "coordinates": [
          [
            [
              24.98078827247716,
              60.236613788487084
            ],
            [
              24.980814504356967,
              60.23662779804724
            ],
            [
              24.980745157108046,
              60.23665990319569
            ],
            [
              24.980718925232182,
              60.23664589362191
            ],
            [
              24.98078827247716,
              60.236613788487084
            ]
          ]
        ]
      },
      "properties": {
        "confidence": 0.6789,
        "length_m": 5.25,
        "width_m": 2.13,
        "heading_deg": 133,
        "aoi": "patola",
        "source_layer": "Ortoilmakuva_2025_5cm",
        "zoom": 16,
        "status": "candidate",
        "class": ""
      }
    },
    {
      "type": "Feature",
      "geometry": {
        "type": "Polygon",
        "coordinates": [
          [
            [
              24.980449010047856,
              60.23683707378587
            ],
            [
              24.980527811349194,
              60.23687816481218
            ],
            [
              24.98049463622733,
              60.236893894874605
            ],
            [
              24.980415834929772,
              60.236852803828675
            ],
            [
              24.980449010047856,
              60.23683707378587
            ]
          ]
        ]
      },
      "properties": {
        "confidence": 0.6414,
        "length_m": 6.33,
        "width_m": 2.54,
        "heading_deg": 43.7,
        "aoi": "patola",
        "source_layer": "Ortoilmakuva_2025_5cm",
        "zoom": 16,
        "status": "candidate",
        "class": ""
      }
    },
    {
      "type": "Feature",
      "geometry": {
        "type": "Polygon",
        "coordinates": [
          [
            [
              24.980941765322783,
              60.23669143067696
            ],
            [
              24.981021751075804,
              60.236732531715525
            ],
            [
              24.980990792100524,
              60.23674742817569
            ],
            [
              24.980910806349975,
              60.23670632711858
            ],
            [
              24.980941765322783,
              60.23669143067696
            ]
          ]
        ]
      },
      "properties": {
        "confidence": 0.6278,
        "length_m": 6.37,
        "width_m": 2.39,
        "heading_deg": 44.1,
        "aoi": "patola",
        "source_layer": "Ortoilmakuva_2025_5cm",
        "zoom": 16,
        "status": "candidate",
        "class": ""
      }
    },
    {
      "type": "Feature",
      "geometry": {
        "type": "Polygon",
        "coordinates": [
          [
            [
              24.980679178922312,
              60.236799912372284
            ],
            [
              24.98076710082179,
              60.23684427543092
            ],
            [
              24.980735184220958,
              60.23685991507304
            ],
            [
              24.980647262322734,
              60.23681555199337
            ],
            [
              24.980679178922312,
              60.236799912372284
            ]
          ]
        ]
      },
      "properties": {
        "confidence": 0.6218,
        "length_m": 6.94,
        "width_m": 2.48,
        "heading_deg": 44.6,
        "aoi": "patola",
        "source_layer": "Ortoilmakuva_2025_5cm",
        "zoom": 16,
        "status": "candidate",
        "class": ""
      }
    },
    {
      "type": "Feature",
      "geometry": {
        "type": "Polygon",
        "coordinates": [
          [
            [
              24.980554115248747,
              60.23677898755937
            ],
            [
              24.980636455019766,
              60.23682005699047
            ],
            [
              24.98060488052102,
              60.236835708703076
            ],
            [
              24.98052254075025,
              60.23679463925247
            ],
            [
              24.980554115248747,
              60.23677898755937
            ]
          ]
        ]
      },
      "properties": {
        "confidence": 0.6213,
        "length_m": 6.46,
        "width_m": 2.47,
        "heading_deg": 44.9,
        "aoi": "patola",
        "source_layer": "Ortoilmakuva_2025_5cm",
        "zoom": 16,
        "status": "candidate",
        "class": ""
      }
    },
    {
      "type": "Feature",
      "geometry": {
        "type": "Polygon",
        "coordinates": [
          [
            [
              24.98048558134484,
              60.23681887757478
            ],
            [
              24.98056321462551,
              60.236856990229995
            ],
            [
              24.980529311860014,
              60.236874064661514
            ],
            [
              24.98045167857834,
              60.23683595198654
            ],
            [
              24.98048558134484,
              60.23681887757478
            ]
          ]
        ]
      },
      "properties": {
        "confidence": 0.6057,
        "length_m": 6.04,
        "width_m": 2.67,
        "heading_deg": 45.4,
        "aoi": "patola",
        "source_layer": "Ortoilmakuva_2025_5cm",
        "zoom": 16,
        "status": "candidate",
        "class": ""
      }
    },
    {
      "type": "Feature",
      "geometry": {
        "type": "Polygon",
        "coordinates": [
          [
            [
              24.978434840270157,
              60.236562099365784
            ],
            [
              24.97853066416201,
              60.23661073538395
            ],
            [
              24.97849405687617,
              60.23662856826293
            ],
            [
              24.97839823298651,
              60.23657993221848
            ],
            [
              24.978434840270157,
              60.236562099365784
            ]
          ]
        ]
      },
      "properties": {
        "confidence": 0.6017,
        "length_m": 7.59,
        "width_m": 2.84,
        "heading_deg": 44.4,
        "aoi": "patola",
        "source_layer": "Ortoilmakuva_2025_5cm",
        "zoom": 16,
        "status": "candidate",
        "class": ""
      }
    },
    {
      "type": "Feature",
      "geometry": {
        "type": "Polygon",
        "coordinates": [
          [
            [
              24.98065197537228,
              60.236900994122834
            ],
            [
              24.98074471527641,
              60.23694699479345
            ],
            [
              24.98071194130183,
              60.23696333139579
            ],
            [
              24.980619201397484,
              60.23691733070239
            ],
            [
              24.98065197537228,
              60.236900994122834
            ]
          ]
        ]
      },
      "properties": {
        "confidence": 0.5979,
        "length_m": 7.26,
        "width_m": 2.57,
        "heading_deg": 45.1,
        "aoi": "patola",
        "source_layer": "Ortoilmakuva_2025_5cm",
        "zoom": 16,
        "status": "candidate",
        "class": ""
      }
    },
    {
      "type": "Feature",
      "geometry": {
        "type": "Polygon",
        "coordinates": [
          [
            [
              24.98064135793882,
              60.23681895728879
            ],
            [
              24.980723486387003,
              60.23686179360157
            ],
            [
              24.980689276415617,
              60.23687801043005
            ],
            [
              24.980607147971504,
              60.23683517409622
            ],
            [
              24.98064135793882,
              60.23681895728879
            ]
          ]
        ]
      },
      "properties": {
        "confidence": 0.5936,
        "length_m": 6.59,
        "width_m": 2.62,
        "heading_deg": 43.6,
        "aoi": "patola",
        "source_layer": "Ortoilmakuva_2025_5cm",
        "zoom": 16,
        "status": "candidate",
        "class": ""
      }
    },
    {
      "type": "Feature",
      "geometry": {
        "type": "Polygon",
        "coordinates": [
          [
            [
              24.980519962458676,
              60.236798869624145
            ],
            [
              24.980598259298677,
              60.2368376576713
            ],
            [
              24.98056810184341,
              60.2368527090436
            ],
            [
              24.98048980498594,
              60.23681392097879
            ],
            [
              24.980519962458676,
              60.236798869624145
            ]
          ]
        ]
      },
      "properties": {
        "confidence": 0.5512,
        "length_m": 6.12,
        "width_m": 2.37,
        "heading_deg": 45.1,
        "aoi": "patola",
        "source_layer": "Ortoilmakuva_2025_5cm",
        "zoom": 16,
        "status": "candidate",
        "class": ""
      }
    },
    {
      "type": "Feature",
      "geometry": {
        "type": "Polygon",
        "coordinates": [
          [
            [
              24.980951211305246,
              60.23800430735957
            ],
            [
              24.981002481813732,
              60.238044641312726
            ],
            [
              24.98096225419401,
              60.23805728349279
            ],
            [
              24.980910983715223,
              60.23801694952415
            ],
            [
              24.980951211305246,
              60.23800430735957
            ]
          ]
        ]
      },
      "properties": {
        "confidence": 0.5508,
        "length_m": 5.32,
        "width_m": 2.64,
        "heading_deg": 32.3,
        "aoi": "patola",
        "source_layer": "Ortoilmakuva_2025_5cm",
        "zoom": 16,
        "status": "candidate",
        "class": ""
      }
    },
    {
      "type": "Feature",
      "geometry": {
        "type": "Polygon",
        "coordinates": [
          [
            [
              24.98106703973787,
              60.23671696752443
            ],
            [
              24.98115689990911,
              60.23676491438625
            ],
            [
              24.98112126950789,
              60.236781425025626
            ],
            [
              24.981031409343508,
              60.23673347813978
            ],
            [
              24.98106703973787,
              60.23671696752443
            ]
          ]
        ]
      },
      "properties": {
        "confidence": 0.5346,
        "length_m": 7.3,
        "width_m": 2.7,
        "heading_deg": 43,
        "aoi": "patola",
        "source_layer": "Ortoilmakuva_2025_5cm",
        "zoom": 16,
        "status": "candidate",
        "class": ""
      }
    },
    {
      "type": "Feature",
      "geometry": {
        "type": "Polygon",
        "coordinates": [
          [
            [
              24.980985021174245,
              60.236672454929646
            ],
            [
              24.98106004241558,
              60.23671615432679
            ],
            [
              24.981025977619147,
              60.23673061374607
            ],
            [
              24.98095095639012,
              60.23668691432977
            ],
            [
              24.980985021174245,
              60.236672454929646
            ]
          ]
        ]
      },
      "properties": {
        "confidence": 0.5335,
        "length_m": 6.4,
        "width_m": 2.48,
        "heading_deg": 40.5,
        "aoi": "patola",
        "source_layer": "Ortoilmakuva_2025_5cm",
        "zoom": 16,
        "status": "candidate",
        "class": ""
      }
    },
    {
      "type": "Feature",
      "geometry": {
        "type": "Polygon",
        "coordinates": [
          [
            [
              24.98079021906105,
              60.2368490248825
            ],
            [
              24.98088141114036,
              60.236895809803066
            ],
            [
              24.98084856128667,
              60.236911641072
            ],
            [
              24.98075736921021,
              60.23686485612898
            ],
            [
              24.98079021906105,
              60.2368490248825
            ]
          ]
        ]
      },
      "properties": {
        "confidence": 0.5152,
        "length_m": 7.26,
        "width_m": 2.53,
        "heading_deg": 44.1,
        "aoi": "patola",
        "source_layer": "Ortoilmakuva_2025_5cm",
        "zoom": 16,
        "status": "candidate",
        "class": ""
      }
    },
    {
      "type": "Feature",
      "geometry": {
        "type": "Polygon",
        "coordinates": [
          [
            [
              24.97700576394045,
              60.23731966841798
            ],
            [
              24.977033716292627,
              60.23733277075013
            ],
            [
              24.97696675248234,
              60.23736809135827
            ],
            [
              24.976938800122518,
              60.23735498901209
            ],
            [
              24.97700576394045,
              60.23731966841798
            ]
          ]
        ]
      },
      "properties": {
        "confidence": 0.4972,
        "length_m": 5.41,
        "width_m": 2.13,
        "heading_deg": 136.7,
        "aoi": "patola",
        "source_layer": "Ortoilmakuva_2025_5cm",
        "zoom": 16,
        "status": "candidate",
        "class": ""
      }
    },
    {
      "type": "Feature",
      "geometry": {
        "type": "Polygon",
        "coordinates": [
          [
            [
              24.98061942233348,
              60.236920871173346
            ],
            [
              24.980702769521265,
              60.23696647737802
            ],
            [
              24.980666077135545,
              60.23698305697004
            ],
            [
              24.980582729956677,
              60.23693745070822
            ],
            [
              24.98061942233348,
              60.236920871173346
            ]
          ]
        ]
      },
      "properties": {
        "confidence": 0.4926,
        "length_m": 6.87,
        "width_m": 2.75,
        "heading_deg": 42.3,
        "aoi": "patola",
        "source_layer": "Ortoilmakuva_2025_5cm",
        "zoom": 16,
        "status": "candidate",
        "class": ""
      }
    },
    {
      "type": "Feature",
      "geometry": {
        "type": "Polygon",
        "coordinates": [
          [
            [
              24.978464415020984,
              60.236267398279495
            ],
            [
              24.97855465813366,
              60.23632054912649
            ],
            [
              24.978512797958878,
              60.236338122321555
            ],
            [
              24.978422554865684,
              60.236284971446224
            ],
            [
              24.978464415020984,
              60.236267398279495
            ]
          ]
        ]
      },
      "properties": {
        "confidence": 0.4901,
        "length_m": 7.75,
        "width_m": 3.04,
        "heading_deg": 40.2,
        "aoi": "patola",
        "source_layer": "Ortoilmakuva_2025_5cm",
        "zoom": 16,
        "status": "candidate",
        "class": ""
      }
    },
    {
      "type": "Feature",
      "geometry": {
        "type": "Polygon",
        "coordinates": [
          [
            [
              24.980733807436945,
              60.23678583935972
            ],
            [
              24.980821052880884,
              60.23682886644562
            ],
            [
              24.980786932329195,
              60.236845972547655
            ],
            [
              24.980699686884524,
              60.23680294543944
            ],
            [
              24.980733807436945,
              60.23678583935972
            ]
          ]
        ]
      },
      "properties": {
        "confidence": 0.4508,
        "length_m": 6.81,
        "width_m": 2.68,
        "heading_deg": 45.3,
        "aoi": "patola",
        "source_layer": "Ortoilmakuva_2025_5cm",
        "zoom": 16,
        "status": "candidate",
        "class": ""
      }
    },
    {
      "type": "Feature",
      "geometry": {
        "type": "Polygon",
        "coordinates": [
          [
            [
              24.978771831319342,
              60.23788514189148
            ],
            [
              24.978797792654177,
              60.23790482631114
            ],
            [
              24.978701478832853,
              60.23793623124555
            ],
            [
              24.978675517530956,
              60.237916546807156
            ],
            [
              24.978771831319342,
              60.23788514189148
            ]
          ]
        ]
      },
      "properties": {
        "confidence": 0.4487,
        "length_m": 6.38,
        "width_m": 2.62,
        "heading_deg": 123.3,
        "aoi": "patola",
        "source_layer": "Ortoilmakuva_2025_5cm",
        "zoom": 16,
        "status": "candidate",
        "class": ""
      }
    },
    {
      "type": "Feature",
      "geometry": {
        "type": "Polygon",
        "coordinates": [
          [
            [
              24.98112450680609,
              60.23766290703248
            ],
            [
              24.981201923996856,
              60.23769797810187
            ],
            [
              24.98116998577647,
              60.23771540863981
            ],
            [
              24.981092568578724,
              60.23768033755189
            ],
            [
              24.98112450680609,
              60.23766290703248
            ]
          ]
        ]
      },
      "properties": {
        "confidence": 0.4429,
        "length_m": 5.8,
        "width_m": 2.63,
        "heading_deg": 47.7,
        "aoi": "patola",
        "source_layer": "Ortoilmakuva_2025_5cm",
        "zoom": 16,
        "status": "candidate",
        "class": ""
      }
    },
    {
      "type": "Feature",
      "geometry": {
        "type": "Polygon",
        "coordinates": [
          [
            [
              24.978411142132007,
              60.23659098217536
            ],
            [
              24.97849659408721,
              60.236632977736896
            ],
            [
              24.978459824646805,
              60.236651476582246
            ],
            [
              24.978374372690496,
              60.23660948099716
            ],
            [
              24.978411142132007,
              60.23659098217536
            ]
          ]
        ]
      },
      "properties": {
        "confidence": 0.4094,
        "length_m": 6.66,
        "width_m": 2.9,
        "heading_deg": 45.4,
        "aoi": "patola",
        "source_layer": "Ortoilmakuva_2025_5cm",
        "zoom": 16,
        "status": "candidate",
        "class": ""
      }
    },
    {
      "type": "Feature",
      "geometry": {
        "type": "Polygon",
        "coordinates": [
          [
            [
              24.980771148280542,
              60.23676605788282
            ],
            [
              24.980856827208044,
              60.23680334995125
            ],
            [
              24.980828867728768,
              60.236819232456334
            ],
            [
              24.980743188791582,
              60.23678194036996
            ],
            [
              24.980771148280542,
              60.23676605788282
            ]
          ]
        ]
      },
      "properties": {
        "confidence": 0.3868,
        "length_m": 6.31,
        "width_m": 2.35,
        "heading_deg": 48.8,
        "aoi": "patola",
        "source_layer": "Ortoilmakuva_2025_5cm",
        "zoom": 16,
        "status": "candidate",
        "class": ""
      }
    },
    {
      "type": "Feature",
      "geometry": {
        "type": "Polygon",
        "coordinates": [
          [
            [
              24.98002420722572,
              60.23660196240704
            ],
            [
              24.980103263958505,
              60.23664401174546
            ],
            [
              24.98007279452394,
              60.23665817557238
            ],
            [
              24.979993737796082,
              60.23661612621591
            ],
            [
              24.98002420722572,
              60.23660196240704
            ]
          ]
        ]
      },
      "properties": {
        "confidence": 0.3632,
        "length_m": 6.41,
        "width_m": 2.31,
        "heading_deg": 43.1,
        "aoi": "patola",
        "source_layer": "Ortoilmakuva_2025_5cm",
        "zoom": 16,
        "status": "candidate",
        "class": ""
      }
    },
    {
      "type": "Feature",
      "geometry": {
        "type": "Polygon",
        "coordinates": [
          [
            [
              24.980990430753092,
              60.236753235065336
            ],
            [
              24.981058333562842,
              60.23678996596274
            ],
            [
              24.981025179258012,
              60.23680511999993
            ],
            [
              24.980957276454028,
              60.236768389085654
            ],
            [
              24.980990430753092,
              60.236753235065336
            ]
          ]
        ]
      },
      "properties": {
        "confidence": 0.357,
        "length_m": 5.56,
        "width_m": 2.49,
        "heading_deg": 42.6,
        "aoi": "patola",
        "source_layer": "Ortoilmakuva_2025_5cm",
        "zoom": 16,
        "status": "candidate",
        "class": ""
      }
    },
    {
      "type": "Feature",
      "geometry": {
        "type": "Polygon",
        "coordinates": [
          [
            [
              24.981026917650624,
              60.236735487419125
            ],
            [
              24.981110371561154,
              60.23677743924041
            ],
            [
              24.981082099794218,
              60.2367913447019
            ],
            [
              24.980998645884476,
              60.236749392862905
            ],
            [
              24.981026917650624,
              60.236735487419125
            ]
          ]
        ]
      },
      "properties": {
        "confidence": 0.3464,
        "length_m": 6.57,
        "width_m": 2.2,
        "heading_deg": 44.7,
        "aoi": "patola",
        "source_layer": "Ortoilmakuva_2025_5cm",
        "zoom": 16,
        "status": "candidate",
        "class": ""
      }
    },
    {
      "type": "Feature",
      "geometry": {
        "type": "Polygon",
        "coordinates": [
          [
            [
              24.98056073023651,
              60.23685822867393
            ],
            [
              24.98064442960792,
              60.236898086950006
            ],
            [
              24.980616608920908,
              60.23691253142466
            ],
            [
              24.98053290954645,
              60.23687267313111
            ],
            [
              24.98056073023651,
              60.23685822867393
            ]
          ]
        ]
      },
      "properties": {
        "confidence": 0.3299,
        "length_m": 6.42,
        "width_m": 2.23,
        "heading_deg": 46.3,
        "aoi": "patola",
        "source_layer": "Ortoilmakuva_2025_5cm",
        "zoom": 16,
        "status": "candidate",
        "class": ""
      }
    },
    {
      "type": "Feature",
      "geometry": {
        "type": "Polygon",
        "coordinates": [
          [
            [
              24.980463288127595,
              60.237761799215995
            ],
            [
              24.98052674779332,
              60.237796317799045
            ],
            [
              24.980494165850743,
              60.237811126937935
            ],
            [
              24.980430706190656,
              60.237776608339395
            ],
            [
              24.980463288127595,
              60.237761799215995
            ]
          ]
        ]
      },
      "properties": {
        "confidence": 0.3291,
        "length_m": 5.21,
        "width_m": 2.45,
        "heading_deg": 42.4,
        "aoi": "patola",
        "source_layer": "Ortoilmakuva_2025_5cm",
        "zoom": 16,
        "status": "candidate",
        "class": ""
      }
    },
    {
      "type": "Feature",
      "geometry": {
        "type": "Polygon",
        "coordinates": [
          [
            [
              24.98102536282748,
              60.236655776137184
            ],
            [
              24.98109689180463,
              60.23669450745745
            ],
            [
              24.981066182525392,
              60.23670852993722
            ],
            [
              24.98099465355393,
              60.23666979860048
            ],
            [
              24.98102536282748,
              60.236655776137184
            ]
          ]
        ]
      },
      "properties": {
        "confidence": 0.324,
        "length_m": 5.86,
        "width_m": 2.31,
        "heading_deg": 42.6,
        "aoi": "patola",
        "source_layer": "Ortoilmakuva_2025_5cm",
        "zoom": 16,
        "status": "candidate",
        "class": ""
      }
    },
    {
      "type": "Feature",
      "geometry": {
        "type": "Polygon",
        "coordinates": [
          [
            [
              24.98091123301121,
              60.23679021338621
            ],
            [
              24.981004842260912,
              60.236837672789264
            ],
            [
              24.980971460830457,
              60.23685395212266
            ],
            [
              24.980877851582598,
              60.236806492696175
            ],
            [
              24.98091123301121,
              60.23679021338621
            ]
          ]
        ]
      },
      "properties": {
        "confidence": 0.3026,
        "length_m": 7.41,
        "width_m": 2.59,
        "heading_deg": 44.5,
        "aoi": "patola",
        "source_layer": "Ortoilmakuva_2025_5cm",
        "zoom": 16,
        "status": "candidate",
        "class": ""
      }
    },
    {
      "type": "Feature",
      "geometry": {
        "type": "Polygon",
        "coordinates": [
          [
            [
              24.978044495913235,
              60.23784825309406
            ],
            [
              24.97807486465774,
              60.23786470430963
            ],
            [
              24.977993985934244,
              60.237901616444205
            ],
            [
              24.977963617196135,
              60.237885165210216
            ],
            [
              24.978044495913235,
              60.23784825309406
            ]
          ]
        ]
      },
      "properties": {
        "confidence": 0.3016,
        "length_m": 6.08,
        "width_m": 2.49,
        "heading_deg": 132.6,
        "aoi": "patola",
        "source_layer": "Ortoilmakuva_2025_5cm",
        "zoom": 16,
        "status": "candidate",
        "class": ""
      }
    },
    {
      "type": "Feature",
      "geometry": {
        "type": "Polygon",
        "coordinates": [
          [
            [
              24.980949367470128,
              60.236773142888154
            ],
            [
              24.981045360122753,
              60.23682060438522
            ],
            [
              24.981011202253047,
              60.23683768561416
            ],
            [
              24.980915209737578,
              60.23679022409253
            ],
            [
              24.980949367470128,
              60.236773142888154
            ]
          ]
        ]
      },
      "properties": {
        "confidence": 0.2939,
        "length_m": 7.5,
        "width_m": 2.68,
        "heading_deg": 45.2,
        "aoi": "patola",
        "source_layer": "Ortoilmakuva_2025_5cm",
        "zoom": 16,
        "status": "candidate",
        "class": ""
      }
    },
    {
      "type": "Feature",
      "geometry": {
        "type": "Polygon",
        "coordinates": [
          [
            [
              24.980597264436316,
              60.236837697653094
            ],
            [
              24.98067195719117,
              60.236875384712846
            ],
            [
              24.98064178143745,
              60.23689017164303
            ],
            [
              24.9805670886836,
              60.236852484566384
            ],
            [
              24.980597264436316,
              60.236837697653094
            ]
          ]
        ]
      },
      "properties": {
        "confidence": 0.2721,
        "length_m": 5.9,
        "width_m": 2.35,
        "heading_deg": 44.6,
        "aoi": "patola",
        "source_layer": "Ortoilmakuva_2025_5cm",
        "zoom": 16,
        "status": "candidate",
        "class": ""
      }
    }
  ]
}
