{
  "type": "FeatureCollection",
  "crs": {
    "type": "name",
    "properties": {
      "name": "urn:ogc:def:crs:EPSG::3879"
    }
  },
  "features": [
    {
      "type": "Feature",
      "geometry": {
        "type": "Polygon",
        "coordinates": [
          [
            [
              25510559.852,
              6677466.443
            ],
            [
              25510568.525,
              6677481.91
            ],
            [
              25510565.486,
              6677483.614
            ],
            [
              25510556.814,
              6677468.146
            ],
            [
              25510559.852,
              6677466.443
            ]
          ]
        ]
      },
      "properties": {
        "confidence": 0.8786,
        "length_m": 17.73,
        "width_m": 3.48,
        "heading_deg": 29.3,
        "aoi": "r1-vuosaari-channel-road",
        "source_layer": "Ortoilmakuva_2025_5cm",
        "zoom": 16,
        "status": "confirmed",
        "class": "truck"
      }
    },
    {
      "type": "Feature",
      "geometry": {
        "type": "Polygon",
        "coordinates": [
          [
            [
              25510578.018,
              6677498.686
            ],
            [
              25510586.383,
              6677513.858
            ],
            [
              25510583.323,
              6677515.545
            ],
            [
              25510574.958,
              6677500.374
            ],
            [
              25510578.018,
              6677498.686
            ]
          ]
        ]
      },
      "properties": {
        "confidence": 0.873,
        "length_m": 17.33,
        "width_m": 3.49,
        "heading_deg": 28.9,
        "aoi": "r1-vuosaari-channel-road",
        "source_layer": "Ortoilmakuva_2025_5cm",
        "zoom": 16,
        "status": "confirmed",
        "class": "truck"
      }
    },
    {
      "type": "Feature",
      "geometry": {
        "type": "Polygon",
        "coordinates": [
          [
            [
              25510642.348,
              6677392.543
            ],
            [
              25510645.321,
              6677393.861
            ],
            [
              25510638.501,
              6677409.251
            ],
            [
              25510635.528,
              6677407.933
            ],
            [
              25510642.348,
              6677392.543
            ]
          ]
        ]
      },
      "properties": {
        "confidence": 0.8665,
        "length_m": 16.83,
        "width_m": 3.25,
        "heading_deg": 156.1,
        "aoi": "r1-vuosaari-channel-road",
        "source_layer": "Ortoilmakuva_2025_5cm",
        "zoom": 16,
        "status": "confirmed",
        "class": "truck"
      }
    },
    {
      "type": "Feature",
      "geometry": {
        "type": "Polygon",
        "coordinates": [
          [
            [
              25510583.4,
              6677494.168
            ],
            [
              25510591.978,
              6677510.09
            ],
            [
              25510588.761,
              6677511.823
            ],
            [
              25510580.183,
              6677495.901
            ],
            [
              25510583.4,
              6677494.168
            ]
          ]
        ]
      },
      "properties": {
        "confidence": 0.8655,
        "length_m": 18.09,
        "width_m": 3.65,
        "heading_deg": 28.3,
        "aoi": "r1-vuosaari-channel-road",
        "source_layer": "Ortoilmakuva_2025_5cm",
        "zoom": 16,
        "status": "confirmed",
        "class": "truck"
      }
    },
    {
      "type": "Feature",
      "geometry": {
        "type": "Polygon",
        "coordinates": [
          [
            [
              25510652.97,
              6677402.448
            ],
            [
              25510655.802,
              6677403.626
            ],
            [
              25510649.377,
              6677419.063
            ],
            [
              25510646.545,
              6677417.885
            ],
            [
              25510652.97,
              6677402.448
            ]
          ]
        ]
      },
      "properties": {
        "confidence": 0.8637,
        "length_m": 16.72,
        "width_m": 3.07,
        "heading_deg": 157.4,
        "aoi": "r1-vuosaari-channel-road",
        "source_layer": "Ortoilmakuva_2025_5cm",
        "zoom": 16,
        "status": "confirmed",
        "class": "truck"
      }
    },
    {
      "type": "Feature",
      "geometry": {
        "type": "Polygon",
        "coordinates": [
          [
            [
              25510650.847,
              6677398.602
            ],
            [
              25510653.637,
              6677399.767
            ],
            [
              25510647.291,
              6677414.97
            ],
            [
              25510644.501,
              6677413.805
            ],
            [
              25510650.847,
              6677398.602
            ]
          ]
        ]
      },
      "properties": {
        "confidence": 0.8604,
        "length_m": 16.47,
        "width_m": 3.02,
        "heading_deg": 157.3,
        "aoi": "r1-vuosaari-channel-road",
        "source_layer": "Ortoilmakuva_2025_5cm",
        "zoom": 16,
        "status": "confirmed",
        "class": "truck"
      }
    },
    {
      "type": "Feature",
      "geometry": {
        "type": "Polygon",
        "coordinates": [
          [
            [
              25510579.447,
              6677473.876
            ],
            [
              25510587.849,
              6677488.476
            ],
            [
              25510585.028,
              6677490.099
            ],
            [
              25510576.626,
              6677475.499
            ],
            [
              25510579.447,
              6677473.876
            ]
          ]
        ]
      },
      "properties": {
        "confidence": 0.8561,
        "length_m": 16.84,
        "width_m": 3.25,
        "heading_deg": 29.9,
        "aoi": "r1-vuosaari-channel-road",
        "source_layer": "Ortoilmakuva_2025_5cm",
        "zoom": 16,
        "status": "confirmed",
        "class": "truck"
      }
    },
    {
      "type": "Feature",
      "geometry": {
        "type": "Polygon",
        "coordinates": [
          [
            [
              25510569.259,
              6677483.081
            ],
            [
              25510577.566,
              6677498.002
            ],
            [
              25510574.505,
              6677499.706
            ],
            [
              25510566.198,
              6677484.786
            ],
            [
              25510569.259,
              6677483.081
            ]
          ]
        ]
      },
      "properties": {
        "confidence": 0.8523,
        "length_m": 17.08,
        "width_m": 3.5,
        "heading_deg": 29.1,
        "aoi": "r1-vuosaari-channel-road",
        "source_layer": "Ortoilmakuva_2025_5cm",
        "zoom": 16,
        "status": "confirmed",
        "class": "truck"
      }
    },
    {
      "type": "Feature",
      "geometry": {
        "type": "Polygon",
        "coordinates": [
          [
            [
              25510660.298,
              6677384.825
            ],
            [
              25510663.263,
              6677386.094
            ],
            [
              25510656.524,
              6677401.837
            ],
            [
              25510653.559,
              6677400.568
            ],
            [
              25510660.298,
              6677384.825
            ]
          ]
        ]
      },
      "properties": {
        "confidence": 0.8512,
        "length_m": 17.12,
        "width_m": 3.23,
        "heading_deg": 156.8,
        "aoi": "r1-vuosaari-channel-road",
        "source_layer": "Ortoilmakuva_2025_5cm",
        "zoom": 16,
        "status": "confirmed",
        "class": "truck"
      }
    },
    {
      "type": "Feature",
      "geometry": {
        "type": "Polygon",
        "coordinates": [
          [
            [
              25510643.884,
              6677415.581
            ],
            [
              25510646.774,
              6677416.764
            ],
            [
              25510640.192,
              6677432.832
            ],
            [
              25510637.303,
              6677431.648
            ],
            [
              25510643.884,
              6677415.581
            ]
          ]
        ]
      },
      "properties": {
        "confidence": 0.8502,
        "length_m": 17.36,
        "width_m": 3.12,
        "heading_deg": 157.7,
        "aoi": "r1-vuosaari-channel-road",
        "source_layer": "Ortoilmakuva_2025_5cm",
        "zoom": 16,
        "status": "confirmed",
        "class": "truck"
      }
    },
    {
      "type": "Feature",
      "geometry": {
        "type": "Polygon",
        "coordinates": [
          [
            [
              25510649.212,
              6677375.976
            ],
            [
              25510652.113,
              6677377.206
            ],
            [
              25510645.586,
              6677392.6
            ],
            [
              25510642.686,
              6677391.37
            ],
            [
              25510649.212,
              6677375.976
            ]
          ]
        ]
      },
      "properties": {
        "confidence": 0.848,
        "length_m": 16.72,
        "width_m": 3.15,
        "heading_deg": 157,
        "aoi": "r1-vuosaari-channel-road",
        "source_layer": "Ortoilmakuva_2025_5cm",
        "zoom": 16,
        "status": "confirmed",
        "class": "truck"
      }
    },
    {
      "type": "Feature",
      "geometry": {
        "type": "Polygon",
        "coordinates": [
          [
            [
              25510634.626,
              6677427.895
            ],
            [
              25510637.955,
              6677429.205
            ],
            [
              25510631.619,
              6677445.31
            ],
            [
              25510628.29,
              6677444
            ],
            [
              25510634.626,
              6677427.895
            ]
          ]
        ]
      },
      "properties": {
        "confidence": 0.8477,
        "length_m": 17.31,
        "width_m": 3.58,
        "heading_deg": 158.5,
        "aoi": "r1-vuosaari-channel-road",
        "source_layer": "Ortoilmakuva_2025_5cm",
        "zoom": 16,
        "status": "confirmed",
        "class": "truck"
      }
    },
    {
      "type": "Feature",
      "geometry": {
        "type": "Polygon",
        "coordinates": [
          [
            [
              25510573.43,
              6677477.277
            ],
            [
              25510582.019,
              6677492.559
            ],
            [
              25510579.34,
              6677494.065
            ],
            [
              25510570.751,
              6677478.782
            ],
            [
              25510573.43,
              6677477.277
            ]
          ]
        ]
      },
      "properties": {
        "confidence": 0.8472,
        "length_m": 17.53,
        "width_m": 3.07,
        "heading_deg": 29.3,
        "aoi": "r1-vuosaari-channel-road",
        "source_layer": "Ortoilmakuva_2025_5cm",
        "zoom": 16,
        "status": "confirmed",
        "class": "truck"
      }
    },
    {
      "type": "Feature",
      "geometry": {
        "type": "Polygon",
        "coordinates": [
          [
            [
              25510564.583,
              6677460.988
            ],
            [
              25510573.03,
              6677476.239
            ],
            [
              25510570.078,
              6677477.874
            ],
            [
              25510561.631,
              6677462.623
            ],
            [
              25510564.583,
              6677460.988
            ]
          ]
        ]
      },
      "properties": {
        "confidence": 0.8449,
        "length_m": 17.43,
        "width_m": 3.37,
        "heading_deg": 29,
        "aoi": "r1-vuosaari-channel-road",
        "source_layer": "Ortoilmakuva_2025_5cm",
        "zoom": 16,
        "status": "confirmed",
        "class": "truck"
      }
    },
    {
      "type": "Feature",
      "geometry": {
        "type": "Polygon",
        "coordinates": [
          [
            [
              25510683.854,
              6677322.832
            ],
            [
              25510686.78,
              6677324.103
            ],
            [
              25510681.039,
              6677337.312
            ],
            [
              25510678.114,
              6677336.041
            ],
            [
              25510683.854,
              6677322.832
            ]
          ]
        ]
      },
      "properties": {
        "confidence": 0.8444,
        "length_m": 14.4,
        "width_m": 3.19,
        "heading_deg": 156.5,
        "aoi": "r1-vuosaari-channel-road",
        "source_layer": "Ortoilmakuva_2025_5cm",
        "zoom": 16,
        "status": "confirmed",
        "class": "truck"
      }
    },
    {
      "type": "Feature",
      "geometry": {
        "type": "Polygon",
        "coordinates": [
          [
            [
              25510674.015,
              6677332.354
            ],
            [
              25510679.563,
              6677319.348
            ],
            [
              25510677.079,
              6677318.288
            ],
            [
              25510671.531,
              6677331.294
            ],
            [
              25510674.015,
              6677332.354
            ]
          ]
        ]
      },
      "properties": {
        "confidence": 0.8426,
        "length_m": 14.14,
        "width_m": 2.7,
        "heading_deg": 156.9,
        "aoi": "r1-vuosaari-channel-road",
        "source_layer": "Ortoilmakuva_2025_5cm",
        "zoom": 16,
        "status": "confirmed",
        "class": "truck"
      }
    },
    {
      "type": "Feature",
      "geometry": {
        "type": "Polygon",
        "coordinates": [
          [
            [
              25510568.182,
              6677460.936
            ],
            [
              25510576.584,
              6677475.808
            ],
            [
              25510573.757,
              6677477.405
            ],
            [
              25510565.355,
              6677462.533
            ],
            [
              25510568.182,
              6677460.936
            ]
          ]
        ]
      },
      "properties": {
        "confidence": 0.8414,
        "length_m": 17.08,
        "width_m": 3.25,
        "heading_deg": 29.5,
        "aoi": "r1-vuosaari-channel-road",
        "source_layer": "Ortoilmakuva_2025_5cm",
        "zoom": 16,
        "status": "confirmed",
        "class": "truck"
      }
    },
    {
      "type": "Feature",
      "geometry": {
        "type": "Polygon",
        "coordinates": [
          [
            [
              25510664.762,
              6677336.49
            ],
            [
              25510651.453,
              6677332.97
            ],
            [
              25510650.654,
              6677335.993
            ],
            [
              25510663.962,
              6677339.514
            ],
            [
              25510664.762,
              6677336.49
            ]
          ]
        ]
      },
      "properties": {
        "confidence": 0.8406,
        "length_m": 13.77,
        "width_m": 3.13,
        "heading_deg": 75.2,
        "aoi": "r1-vuosaari-channel-road",
        "source_layer": "Ortoilmakuva_2025_5cm",
        "zoom": 16,
        "status": "confirmed",
        "class": "truck"
      }
    },
    {
      "type": "Feature",
      "geometry": {
        "type": "Polygon",
        "coordinates": [
          [
            [
              25510644.7,
              6677395.796
            ],
            [
              25510647.49,
              6677396.941
            ],
            [
              25510641.081,
              6677412.559
            ],
            [
              25510638.291,
              6677411.415
            ],
            [
              25510644.7,
              6677395.796
            ]
          ]
        ]
      },
      "properties": {
        "confidence": 0.8405,
        "length_m": 16.88,
        "width_m": 3.02,
        "heading_deg": 157.7,
        "aoi": "r1-vuosaari-channel-road",
        "source_layer": "Ortoilmakuva_2025_5cm",
        "zoom": 16,
        "status": "confirmed",
        "class": "truck"
      }
    },
    {
      "type": "Feature",
      "geometry": {
        "type": "Polygon",
        "coordinates": [
          [
            [
              25510577.534,
              6677477.297
            ],
            [
              25510586.092,
              6677492.204
            ],
            [
              25510583.134,
              6677493.903
            ],
            [
              25510574.575,
              6677478.996
            ],
            [
              25510577.534,
              6677477.297
            ]
          ]
        ]
      },
      "properties": {
        "confidence": 0.8405,
        "length_m": 17.19,
        "width_m": 3.41,
        "heading_deg": 29.9,
        "aoi": "r1-vuosaari-channel-road",
        "source_layer": "Ortoilmakuva_2025_5cm",
        "zoom": 16,
        "status": "confirmed",
        "class": "truck"
      }
    },
    {
      "type": "Feature",
      "geometry": {
        "type": "Polygon",
        "coordinates": [
          [
            [
              25510652.524,
              6677326.35
            ],
            [
              25510668.351,
              6677333.421
            ],
            [
              25510666.991,
              6677336.464
            ],
            [
              25510651.165,
              6677329.392
            ],
            [
              25510652.524,
              6677326.35
            ]
          ]
        ]
      },
      "properties": {
        "confidence": 0.8398,
        "length_m": 17.33,
        "width_m": 3.33,
        "heading_deg": 65.9,
        "aoi": "r1-vuosaari-channel-road",
        "source_layer": "Ortoilmakuva_2025_5cm",
        "zoom": 16,
        "status": "confirmed",
        "class": "truck"
      }
    },
    {
      "type": "Feature",
      "geometry": {
        "type": "Polygon",
        "coordinates": [
          [
            [
              25510677.551,
              6677333.578
            ],
            [
              25510684.308,
              6677318.019
            ],
            [
              25510681.526,
              6677316.811
            ],
            [
              25510674.77,
              6677332.37
            ],
            [
              25510677.551,
              6677333.578
            ]
          ]
        ]
      },
      "properties": {
        "confidence": 0.8383,
        "length_m": 16.96,
        "width_m": 3.03,
        "heading_deg": 156.5,
        "aoi": "r1-vuosaari-channel-road",
        "source_layer": "Ortoilmakuva_2025_5cm",
        "zoom": 16,
        "status": "confirmed",
        "class": "truck"
      }
    },
    {
      "type": "Feature",
      "geometry": {
        "type": "Polygon",
        "coordinates": [
          [
            [
              25510652.197,
              6677377.704
            ],
            [
              25510654.951,
              6677378.857
            ],
            [
              25510648.17,
              6677395.051
            ],
            [
              25510645.416,
              6677393.897
            ],
            [
              25510652.197,
              6677377.704
            ]
          ]
        ]
      },
      "properties": {
        "confidence": 0.8379,
        "length_m": 17.56,
        "width_m": 2.99,
        "heading_deg": 157.3,
        "aoi": "r1-vuosaari-channel-road",
        "source_layer": "Ortoilmakuva_2025_5cm",
        "zoom": 16,
        "status": "confirmed",
        "class": "truck"
      }
    },
    {
      "type": "Feature",
      "geometry": {
        "type": "Polygon",
        "coordinates": [
          [
            [
              25510574.264,
              6677457.793
            ],
            [
              25510582.847,
              6677472.616
            ],
            [
              25510579.972,
              6677474.281
            ],
            [
              25510571.389,
              6677459.457
            ],
            [
              25510574.264,
              6677457.793
            ]
          ]
        ]
      },
      "properties": {
        "confidence": 0.8367,
        "length_m": 17.13,
        "width_m": 3.32,
        "heading_deg": 30.1,
        "aoi": "r1-vuosaari-channel-road",
        "source_layer": "Ortoilmakuva_2025_5cm",
        "zoom": 16,
        "status": "confirmed",
        "class": "truck"
      }
    },
    {
      "type": "Feature",
      "geometry": {
        "type": "Polygon",
        "coordinates": [
          [
            [
              25510648.709,
              6677395.093
            ],
            [
              25510651.529,
              6677396.258
            ],
            [
              25510644.919,
              6677412.261
            ],
            [
              25510642.099,
              6677411.096
            ],
            [
              25510648.709,
              6677395.093
            ]
          ]
        ]
      },
      "properties": {
        "confidence": 0.8358,
        "length_m": 17.31,
        "width_m": 3.05,
        "heading_deg": 157.6,
        "aoi": "r1-vuosaari-channel-road",
        "source_layer": "Ortoilmakuva_2025_5cm",
        "zoom": 16,
        "status": "confirmed",
        "class": "truck"
      }
    },
    {
      "type": "Feature",
      "geometry": {
        "type": "Polygon",
        "coordinates": [
          [
            [
              25510570.65,
              6677458.032
            ],
            [
              25510579.191,
              6677473.224
            ],
            [
              25510576.37,
              6677474.81
            ],
            [
              25510567.828,
              6677459.618
            ],
            [
              25510570.65,
              6677458.032
            ]
          ]
        ]
      },
      "properties": {
        "confidence": 0.8345,
        "length_m": 17.43,
        "width_m": 3.24,
        "heading_deg": 29.3,
        "aoi": "r1-vuosaari-channel-road",
        "source_layer": "Ortoilmakuva_2025_5cm",
        "zoom": 16,
        "status": "confirmed",
        "class": "truck"
      }
    },
    {
      "type": "Feature",
      "geometry": {
        "type": "Polygon",
        "coordinates": [
          [
            [
              25510563.545,
              6677466.412
            ],
            [
              25510571.15,
              6677479.874
            ],
            [
              25510568.495,
              6677481.373
            ],
            [
              25510560.891,
              6677467.911
            ],
            [
              25510563.545,
              6677466.412
            ]
          ]
        ]
      },
      "properties": {
        "confidence": 0.8332,
        "length_m": 15.46,
        "width_m": 3.05,
        "heading_deg": 29.5,
        "aoi": "r1-vuosaari-channel-road",
        "source_layer": "Ortoilmakuva_2025_5cm",
        "zoom": 16,
        "status": "confirmed",
        "class": "truck"
      }
    },
    {
      "type": "Feature",
      "geometry": {
        "type": "Polygon",
        "coordinates": [
          [
            [
              25510655.345,
              6677378.438
            ],
            [
              25510657.922,
              6677379.517
            ],
            [
              25510651.377,
              6677395.143
            ],
            [
              25510648.8,
              6677394.063
            ],
            [
              25510655.345,
              6677378.438
            ]
          ]
        ]
      },
      "properties": {
        "confidence": 0.8332,
        "length_m": 16.94,
        "width_m": 2.79,
        "heading_deg": 157.3,
        "aoi": "r1-vuosaari-channel-road",
        "source_layer": "Ortoilmakuva_2025_5cm",
        "zoom": 16,
        "status": "confirmed",
        "class": "truck"
      }
    },
    {
      "type": "Feature",
      "geometry": {
        "type": "Polygon",
        "coordinates": [
          [
            [
              25510657.924,
              6677381.09
            ],
            [
              25510660.864,
              6677382.285
            ],
            [
              25510654.448,
              6677398.067
            ],
            [
              25510651.508,
              6677396.872
            ],
            [
              25510657.924,
              6677381.09
            ]
          ]
        ]
      },
      "properties": {
        "confidence": 0.8321,
        "length_m": 17.04,
        "width_m": 3.17,
        "heading_deg": 157.9,
        "aoi": "r1-vuosaari-channel-road",
        "source_layer": "Ortoilmakuva_2025_5cm",
        "zoom": 16,
        "status": "confirmed",
        "class": "truck"
      }
    },
    {
      "type": "Feature",
      "geometry": {
        "type": "Polygon",
        "coordinates": [
          [
            [
              25510637.858,
              6677411.927
            ],
            [
              25510640.688,
              6677413.139
            ],
            [
              25510633.722,
              6677429.408
            ],
            [
              25510630.892,
              6677428.196
            ],
            [
              25510637.858,
              6677411.927
            ]
          ]
        ]
      },
      "properties": {
        "confidence": 0.8302,
        "length_m": 17.7,
        "width_m": 3.08,
        "heading_deg": 156.8,
        "aoi": "r1-vuosaari-channel-road",
        "source_layer": "Ortoilmakuva_2025_5cm",
        "zoom": 16,
        "status": "confirmed",
        "class": "truck"
      }
    },
    {
      "type": "Feature",
      "geometry": {
        "type": "Polygon",
        "coordinates": [
          [
            [
              25510553.176,
              6677475.811
            ],
            [
              25510559.439,
              6677486.749
            ],
            [
              25510556.338,
              6677488.525
            ],
            [
              25510550.076,
              6677477.587
            ],
            [
              25510553.176,
              6677475.811
            ]
          ]
        ]
      },
      "properties": {
        "confidence": 0.827,
        "length_m": 12.6,
        "width_m": 3.57,
        "heading_deg": 29.8,
        "aoi": "r1-vuosaari-channel-road",
        "source_layer": "Ortoilmakuva_2025_5cm",
        "zoom": 16,
        "status": "confirmed",
        "class": "truck"
      }
    },
    {
      "type": "Feature",
      "geometry": {
        "type": "Polygon",
        "coordinates": [
          [
            [
              25510676.183,
              6677312.509
            ],
            [
              25510678.831,
              6677313.772
            ],
            [
              25510672.259,
              6677327.55
            ],
            [
              25510669.611,
              6677326.286
            ],
            [
              25510676.183,
              6677312.509
            ]
          ]
        ]
      },
      "properties": {
        "confidence": 0.8226,
        "length_m": 15.27,
        "width_m": 2.93,
        "heading_deg": 154.5,
        "aoi": "r1-vuosaari-channel-road",
        "source_layer": "Ortoilmakuva_2025_5cm",
        "zoom": 16,
        "status": "confirmed",
        "class": "truck"
      }
    },
    {
      "type": "Feature",
      "geometry": {
        "type": "Polygon",
        "coordinates": [
          [
            [
              25510641.791,
              6677412.077
            ],
            [
              25510644.697,
              6677413.312
            ],
            [
              25510638.001,
              6677429.069
            ],
            [
              25510635.095,
              6677427.835
            ],
            [
              25510641.791,
              6677412.077
            ]
          ]
        ]
      },
      "properties": {
        "confidence": 0.8209,
        "length_m": 17.12,
        "width_m": 3.16,
        "heading_deg": 157,
        "aoi": "r1-vuosaari-channel-road",
        "source_layer": "Ortoilmakuva_2025_5cm",
        "zoom": 16,
        "status": "confirmed",
        "class": "truck"
      }
    },
    {
      "type": "Feature",
      "geometry": {
        "type": "Polygon",
        "coordinates": [
          [
            [
              25510572.638,
              6677482.521
            ],
            [
              25510580.102,
              6677496.219
            ],
            [
              25510577.462,
              6677497.658
            ],
            [
              25510569.997,
              6677483.96
            ],
            [
              25510572.638,
              6677482.521
            ]
          ]
        ]
      },
      "properties": {
        "confidence": 0.8195,
        "length_m": 15.6,
        "width_m": 3.01,
        "heading_deg": 28.6,
        "aoi": "r1-vuosaari-channel-road",
        "source_layer": "Ortoilmakuva_2025_5cm",
        "zoom": 16,
        "status": "confirmed",
        "class": "truck"
      }
    },
    {
      "type": "Feature",
      "geometry": {
        "type": "Polygon",
        "coordinates": [
          [
            [
              25510635.539,
              6677409.027
            ],
            [
              25510638.4,
              6677410.296
            ],
            [
              25510631.45,
              6677425.968
            ],
            [
              25510628.589,
              6677424.699
            ],
            [
              25510635.539,
              6677409.027
            ]
          ]
        ]
      },
      "properties": {
        "confidence": 0.8153,
        "length_m": 17.14,
        "width_m": 3.13,
        "heading_deg": 156.1,
        "aoi": "r1-vuosaari-channel-road",
        "source_layer": "Ortoilmakuva_2025_5cm",
        "zoom": 16,
        "status": "confirmed",
        "class": "truck"
      }
    },
    {
      "type": "Feature",
      "geometry": {
        "type": "Polygon",
        "coordinates": [
          [
            [
              25510557.098,
              6677474.837
            ],
            [
              25510563.056,
              6677485.345
            ],
            [
              25510560.075,
              6677487.035
            ],
            [
              25510554.117,
              6677476.527
            ],
            [
              25510557.098,
              6677474.837
            ]
          ]
        ]
      },
      "properties": {
        "confidence": 0.8099,
        "length_m": 12.08,
        "width_m": 3.43,
        "heading_deg": 29.6,
        "aoi": "r1-vuosaari-channel-road",
        "source_layer": "Ortoilmakuva_2025_5cm",
        "zoom": 16,
        "status": "confirmed",
        "class": "truck"
      }
    },
    {
      "type": "Feature",
      "geometry": {
        "type": "Polygon",
        "coordinates": [
          [
            [
              25510652.584,
              6677337.117
            ],
            [
              25510665.722,
              6677341.186
            ],
            [
              25510664.827,
              6677344.074
            ],
            [
              25510651.689,
              6677340.005
            ],
            [
              25510652.584,
              6677337.117
            ]
          ]
        ]
      },
      "properties": {
        "confidence": 0.8089,
        "length_m": 13.75,
        "width_m": 3.02,
        "heading_deg": 72.8,
        "aoi": "r1-vuosaari-channel-road",
        "source_layer": "Ortoilmakuva_2025_5cm",
        "zoom": 16,
        "status": "confirmed",
        "class": "truck"
      }
    },
    {
      "type": "Feature",
      "geometry": {
        "type": "Polygon",
        "coordinates": [
          [
            [
              25510655.454,
              6677378.266
            ],
            [
              25510657.977,
              6677379.274
            ],
            [
              25510655.914,
              6677384.441
            ],
            [
              25510653.39,
              6677383.433
            ],
            [
              25510655.454,
              6677378.266
            ]
          ]
        ]
      },
      "properties": {
        "confidence": 0.8028,
        "length_m": 5.56,
        "width_m": 2.72,
        "heading_deg": 158.2,
        "aoi": "r1-vuosaari-channel-road",
        "source_layer": "Ortoilmakuva_2025_5cm",
        "zoom": 16,
        "status": "rejected",
        "class": ""
      }
    },
    {
      "type": "Feature",
      "geometry": {
        "type": "Polygon",
        "coordinates": [
          [
            [
              25510670.918,
              6677313.407
            ],
            [
              25510673.543,
              6677314.719
            ],
            [
              25510668.112,
              6677325.583
            ],
            [
              25510665.487,
              6677324.272
            ],
            [
              25510670.918,
              6677313.407
            ]
          ]
        ]
      },
      "properties": {
        "confidence": 0.8018,
        "length_m": 12.15,
        "width_m": 2.93,
        "heading_deg": 153.4,
        "aoi": "r1-vuosaari-channel-road",
        "source_layer": "Ortoilmakuva_2025_5cm",
        "zoom": 16,
        "status": "confirmed",
        "class": "truck"
      }
    },
    {
      "type": "Feature",
      "geometry": {
        "type": "Polygon",
        "coordinates": [
          [
            [
              25510624.423,
              6677383.754
            ],
            [
              25510627.589,
              6677385.065
            ],
            [
              25510620.21,
              6677402.895
            ],
            [
              25510617.044,
              6677401.584
            ],
            [
              25510624.423,
              6677383.754
            ]
          ]
        ]
      },
      "properties": {
        "confidence": 0.7803,
        "length_m": 19.3,
        "width_m": 3.43,
        "heading_deg": 157.5,
        "aoi": "r1-vuosaari-channel-road",
        "source_layer": "Ortoilmakuva_2025_5cm",
        "zoom": 16,
        "status": "confirmed",
        "class": "truck"
      }
    },
    {
      "type": "Feature",
      "geometry": {
        "type": "Polygon",
        "coordinates": [
          [
            [
              25510652.027,
              6677378.005
            ],
            [
              25510654.68,
              6677379.088
            ],
            [
              25510652.432,
              6677384.596
            ],
            [
              25510649.778,
              6677383.513
            ],
            [
              25510652.027,
              6677378.005
            ]
          ]
        ]
      },
      "properties": {
        "confidence": 0.7702,
        "length_m": 5.95,
        "width_m": 2.87,
        "heading_deg": 157.8,
        "aoi": "r1-vuosaari-channel-road",
        "source_layer": "Ortoilmakuva_2025_5cm",
        "zoom": 16,
        "status": "rejected",
        "class": ""
      }
    },
    {
      "type": "Feature",
      "geometry": {
        "type": "Polygon",
        "coordinates": [
          [
            [
              25510541.293,
              6677455.909
            ],
            [
              25510543.642,
              6677458.05
            ],
            [
              25510531.25,
              6677471.642
            ],
            [
              25510528.901,
              6677469.501
            ],
            [
              25510541.293,
              6677455.909
            ]
          ]
        ]
      },
      "properties": {
        "confidence": 0.7528,
        "length_m": 18.39,
        "width_m": 3.18,
        "heading_deg": 137.6,
        "aoi": "r1-vuosaari-channel-road",
        "source_layer": "Ortoilmakuva_2025_5cm",
        "zoom": 16,
        "status": "confirmed",
        "class": "truck"
      }
    },
    {
      "type": "Feature",
      "geometry": {
        "type": "Polygon",
        "coordinates": [
          [
            [
              25510632.033,
              6677374.753
            ],
            [
              25510634.791,
              6677375.915
            ],
            [
              25510631.328,
              6677384.128
            ],
            [
              25510628.57,
              6677382.966
            ],
            [
              25510632.033,
              6677374.753
            ]
          ]
        ]
      },
      "properties": {
        "confidence": 0.7397,
        "length_m": 8.91,
        "width_m": 2.99,
        "heading_deg": 157.1,
        "aoi": "r1-vuosaari-channel-road",
        "source_layer": "Ortoilmakuva_2025_5cm",
        "zoom": 16,
        "status": "confirmed",
        "class": "truck"
      }
    },
    {
      "type": "Feature",
      "geometry": {
        "type": "Polygon",
        "coordinates": [
          [
            [
              25510624.782,
              6677391.746
            ],
            [
              25510627.716,
              6677392.951
            ],
            [
              25510621.625,
              6677407.774
            ],
            [
              25510618.691,
              6677406.568
            ],
            [
              25510624.782,
              6677391.746
            ]
          ]
        ]
      },
      "properties": {
        "confidence": 0.7363,
        "length_m": 16.03,
        "width_m": 3.17,
        "heading_deg": 157.7,
        "aoi": "r1-vuosaari-channel-road",
        "source_layer": "Ortoilmakuva_2025_5cm",
        "zoom": 16,
        "status": "confirmed",
        "class": "truck"
      }
    },
    {
      "type": "Feature",
      "geometry": {
        "type": "Polygon",
        "coordinates": [
          [
            [
              25510672.294,
              6677320.658
            ],
            [
              25510674.94,
              6677321.872
            ],
            [
              25510672.398,
              6677327.413
            ],
            [
              25510669.751,
              6677326.199
            ],
            [
              25510672.294,
              6677320.658
            ]
          ]
        ]
      },
      "properties": {
        "confidence": 0.7327,
        "length_m": 6.1,
        "width_m": 2.91,
        "heading_deg": 155.4,
        "aoi": "r1-vuosaari-channel-road",
        "source_layer": "Ortoilmakuva_2025_5cm",
        "zoom": 16,
        "status": "rejected",
        "class": ""
      }
    },
    {
      "type": "Feature",
      "geometry": {
        "type": "Polygon",
        "coordinates": [
          [
            [
              25510529.053,
              6677500.102
            ],
            [
              25510530.786,
              6677501.648
            ],
            [
              25510527.316,
              6677505.538
            ],
            [
              25510525.583,
              6677503.992
            ],
            [
              25510529.053,
              6677500.102
            ]
          ]
        ]
      },
      "properties": {
        "confidence": 0.631,
        "length_m": 5.21,
        "width_m": 2.32,
        "heading_deg": 138.3,
        "aoi": "r1-vuosaari-channel-road",
        "source_layer": "Ortoilmakuva_2025_5cm",
        "zoom": 16,
        "status": "confirmed",
        "class": "car"
      }
    },
    {
      "type": "Feature",
      "geometry": {
        "type": "Polygon",
        "coordinates": [
          [
            [
              25510667.306,
              6677320.612
            ],
            [
              25510670.08,
              6677322.159
            ],
            [
              25510667.925,
              6677326.022
            ],
            [
              25510665.151,
              6677324.475
            ],
            [
              25510667.306,
              6677320.612
            ]
          ]
        ]
      },
      "properties": {
        "confidence": 0.5999,
        "length_m": 4.42,
        "width_m": 3.18,
        "heading_deg": 150.8,
        "aoi": "r1-vuosaari-channel-road",
        "source_layer": "Ortoilmakuva_2025_5cm",
        "zoom": 16,
        "status": "rejected",
        "class": ""
      }
    },
    {
      "type": "Feature",
      "geometry": {
        "type": "Polygon",
        "coordinates": [
          [
            [
              25510640.225,
              6677412.522
            ],
            [
              25510640.286,
              6677417.809
            ],
            [
              25510638.229,
              6677417.832
            ],
            [
              25510638.168,
              6677412.545
            ],
            [
              25510640.225,
              6677412.522
            ]
          ]
        ]
      },
      "properties": {
        "confidence": 0.5307,
        "length_m": 5.29,
        "width_m": 2.06,
        "heading_deg": 0.7,
        "aoi": "r1-vuosaari-channel-road",
        "source_layer": "Ortoilmakuva_2025_5cm",
        "zoom": 16,
        "status": "rejected",
        "class": ""
      }
    },
    {
      "type": "Feature",
      "geometry": {
        "type": "Polygon",
        "coordinates": [
          [
            [
              25510567.829,
              6677431.454
            ],
            [
              25510567.811,
              6677425.207
            ],
            [
              25510565.566,
              6677425.214
            ],
            [
              25510565.584,
              6677431.461
            ],
            [
              25510567.829,
              6677431.454
            ]
          ]
        ]
      },
      "properties": {
        "confidence": 0.5292,
        "length_m": 6.25,
        "width_m": 2.25,
        "heading_deg": 0.2,
        "aoi": "r1-vuosaari-channel-road",
        "source_layer": "Ortoilmakuva_2025_5cm",
        "zoom": 16,
        "status": "confirmed",
        "class": "van"
      }
    },
    {
      "type": "Feature",
      "geometry": {
        "type": "Polygon",
        "coordinates": [
          [
            [
              25510618.029,
              6677408.006
            ],
            [
              25510620.855,
              6677409.214
            ],
            [
              25510614.057,
              6677425.123
            ],
            [
              25510611.232,
              6677423.915
            ],
            [
              25510618.029,
              6677408.006
            ]
          ]
        ]
      },
      "properties": {
        "confidence": 0.4386,
        "length_m": 17.3,
        "width_m": 3.07,
        "heading_deg": 156.9,
        "aoi": "r1-vuosaari-channel-road",
        "source_layer": "Ortoilmakuva_2025_5cm",
        "zoom": 16,
        "status": "confirmed",
        "class": "truck"
      }
    },
    {
      "type": "Feature",
      "geometry": {
        "type": "Polygon",
        "coordinates": [
          [
            [
              25510530.573,
              6677502.105
            ],
            [
              25510532.304,
              6677503.525
            ],
            [
              25510529.114,
              6677507.417
            ],
            [
              25510527.382,
              6677505.997
            ],
            [
              25510530.573,
              6677502.105
            ]
          ]
        ]
      },
      "properties": {
        "confidence": 0.412,
        "length_m": 5.03,
        "width_m": 2.24,
        "heading_deg": 140.7,
        "aoi": "r1-vuosaari-channel-road",
        "source_layer": "Ortoilmakuva_2025_5cm",
        "zoom": 16,
        "status": "confirmed",
        "class": "car"
      }
    },
    {
      "type": "Feature",
      "geometry": {
        "type": "Polygon",
        "coordinates": [
          [
            [
              25510623.506,
              6677443.558
            ],
            [
              25510626.479,
              6677445.711
            ],
            [
              25510622.403,
              6677451.338
            ],
            [
              25510619.431,
              6677449.185
            ],
            [
              25510623.506,
              6677443.558
            ]
          ]
        ]
      },
      "properties": {
        "confidence": 0.3539,
        "length_m": 6.95,
        "width_m": 3.67,
        "heading_deg": 144.1,
        "aoi": "r1-vuosaari-channel-road",
        "source_layer": "Ortoilmakuva_2025_5cm",
        "zoom": 16,
        "status": "rejected",
        "class": ""
      }
    },
    {
      "type": "Feature",
      "geometry": {
        "type": "Polygon",
        "coordinates": [
          [
            [
              25510524.037,
              6677496.947
            ],
            [
              25510525.906,
              6677498.304
            ],
            [
              25510522.783,
              6677502.608
            ],
            [
              25510520.913,
              6677501.251
            ],
            [
              25510524.037,
              6677496.947
            ]
          ]
        ]
      },
      "properties": {
        "confidence": 0.3106,
        "length_m": 5.32,
        "width_m": 2.31,
        "heading_deg": 144,
        "aoi": "r1-vuosaari-channel-road",
        "source_layer": "Ortoilmakuva_2025_5cm",
        "zoom": 16,
        "status": "confirmed",
        "class": "car"
      }
    },
    {
      "type": "Feature",
      "geometry": {
        "type": "Polygon",
        "coordinates": [
          [
            [
              25510526.5,
              6677498.654
            ],
            [
              25510528.263,
              6677500.083
            ],
            [
              25510525.096,
              6677503.989
            ],
            [
              25510523.333,
              6677502.56
            ],
            [
              25510526.5,
              6677498.654
            ]
          ]
        ]
      },
      "properties": {
        "confidence": 0.2881,
        "length_m": 5.03,
        "width_m": 2.27,
        "heading_deg": 141,
        "aoi": "r1-vuosaari-channel-road",
        "source_layer": "Ortoilmakuva_2025_5cm",
        "zoom": 16,
        "status": "confirmed",
        "class": "car"
      }
    },
    {
      "type": "Feature",
      "geometry": {
        "type": "Polygon",
        "coordinates": [
          [
            [
              25510665.554,
              6677389.723
            ],
            [
              25510667.902,
              6677384.758
            ],
            [
              25510665.823,
              6677383.775
            ],
            [
              25510663.474,
              6677388.74
            ],
            [
              25510665.554,
              6677389.723
            ]
          ]
        ]
      },
      "properties": {
        "class": "van",
        "status": "added",
        "confidence": null,
        "aoi": "r1-vuosaari-channel-road",
        "source_layer": "Ortoilmakuva_2025_5cm",
        "zoom": 16,
        "length_m": 5.49,
        "width_m": 2.3,
        "heading_deg": 154.7
      }
    },
    {
      "type": "Feature",
      "geometry": {
        "type": "Polygon",
        "coordinates": [
          [
            [
              25510612.112,
              6677421.494
            ],
            [
              25510619.646,
              6677403.65
            ],
            [
              25510616.698,
              6677402.406
            ],
            [
              25510609.164,
              6677420.249
            ],
            [
              25510612.112,
              6677421.494
            ]
          ]
        ]
      },
      "properties": {
        "class": "truck",
        "status": "added",
        "confidence": null,
        "aoi": "r1-vuosaari-channel-road",
        "source_layer": "Ortoilmakuva_2025_5cm",
        "zoom": 16,
        "length_m": 19.37,
        "width_m": 3.2,
        "heading_deg": 157.1
      }
    },
    {
      "type": "Feature",
      "geometry": {
        "type": "Polygon",
        "coordinates": [
          [
            [
              25510613.765,
              6677418.482
            ],
            [
              25510616.489,
              6677419.793
            ],
            [
              25510613.135,
              6677426.762
            ],
            [
              25510610.411,
              6677425.45
            ],
            [
              25510613.765,
              6677418.482
            ]
          ]
        ]
      },
      "properties": {
        "confidence": 0.857,
        "length_m": 7.73,
        "width_m": 3.02,
        "heading_deg": 154.3,
        "aoi": "r1-vuosaari-channel-road",
        "source_layer": "Ortoilmakuva_2025_5cm",
        "zoom": 16,
        "status": "rejected",
        "class": ""
      }
    },
    {
      "type": "Feature",
      "geometry": {
        "type": "Polygon",
        "coordinates": [
          [
            [
              25510541.197,
              6677471.16
            ],
            [
              25510542.899,
              6677472.885
            ],
            [
              25510538.904,
              6677476.828
            ],
            [
              25510537.201,
              6677475.102
            ],
            [
              25510541.197,
              6677471.16
            ]
          ]
        ]
      },
      "properties": {
        "confidence": 0.751,
        "length_m": 5.61,
        "width_m": 2.42,
        "heading_deg": 134.6,
        "aoi": "r1-vuosaari-channel-road",
        "source_layer": "Ortoilmakuva_2025_5cm",
        "zoom": 16,
        "status": "confirmed",
        "class": "car"
      }
    },
    {
      "type": "Feature",
      "geometry": {
        "type": "Polygon",
        "coordinates": [
          [
            [
              25510492.068,
              6677345.58
            ],
            [
              25510490.774,
              6677347.416
            ],
            [
              25510486.88,
              6677344.671
            ],
            [
              25510488.174,
              6677342.834
            ],
            [
              25510492.068,
              6677345.58
            ]
          ]
        ]
      },
      "properties": {
        "confidence": 0.734,
        "length_m": 4.76,
        "width_m": 2.25,
        "heading_deg": 54.8,
        "aoi": "r1-vuosaari-channel-road",
        "source_layer": "Ortoilmakuva_2025_5cm",
        "zoom": 16,
        "status": "rejected",
        "class": ""
      }
    },
    {
      "type": "Feature",
      "geometry": {
        "type": "Polygon",
        "coordinates": [
          [
            [
              25510490.766,
              6677348.861
            ],
            [
              25510489.623,
              6677350.668
            ],
            [
              25510485.875,
              6677348.297
            ],
            [
              25510487.018,
              6677346.49
            ],
            [
              25510490.766,
              6677348.861
            ]
          ]
        ]
      },
      "properties": {
        "confidence": 0.676,
        "length_m": 4.43,
        "width_m": 2.14,
        "heading_deg": 57.7,
        "aoi": "r1-vuosaari-channel-road",
        "source_layer": "Ortoilmakuva_2025_5cm",
        "zoom": 16,
        "status": "rejected",
        "class": ""
      }
    },
    {
      "type": "Feature",
      "geometry": {
        "type": "Polygon",
        "coordinates": [
          [
            [
              25510637.675,
              6677412.184
            ],
            [
              25510640.43,
              6677412.738
            ],
            [
              25510639.161,
              6677419.04
            ],
            [
              25510636.406,
              6677418.485
            ],
            [
              25510637.675,
              6677412.184
            ]
          ]
        ]
      },
      "properties": {
        "confidence": 0.63,
        "length_m": 6.43,
        "width_m": 2.81,
        "heading_deg": 168.6,
        "aoi": "r1-vuosaari-channel-road",
        "source_layer": "Ortoilmakuva_2025_5cm",
        "zoom": 16,
        "status": "rejected",
        "class": ""
      }
    }
  ]
}
