{
  "type": "FeatureCollection",
  "crs": {
    "type": "name",
    "properties": {
      "name": "urn:ogc:def:crs:EPSG::3879"
    }
  },
  "features": [
    {
      "type": "Feature",
      "geometry": {
        "type": "Polygon",
        "coordinates": [
          [
            [
              25502465.803,
              6675558.465
            ],
            [
              25502466.177,
              6675560.57
            ],
            [
              25502461.969,
              6675561.317
            ],
            [
              25502461.596,
              6675559.212
            ],
            [
              25502465.803,
              6675558.465
            ]
          ]
        ]
      },
      "properties": {
        "confidence": 0.962,
        "length_m": 4.27,
        "width_m": 2.14,
        "heading_deg": 100.1,
        "aoi": "r3-herttoniemi",
        "source_layer": "Ortoilmakuva_2025_5cm",
        "zoom": 16,
        "status": "confirmed",
        "class": "car"
      }
    },
    {
      "type": "Feature",
      "geometry": {
        "type": "Polygon",
        "coordinates": [
          [
            [
              25502416.469,
              6675472.11
            ],
            [
              25502416.435,
              6675474.354
            ],
            [
              25502411.642,
              6675474.282
            ],
            [
              25502411.676,
              6675472.038
            ],
            [
              25502416.469,
              6675472.11
            ]
          ]
        ]
      },
      "properties": {
        "confidence": 0.9617,
        "length_m": 4.79,
        "width_m": 2.24,
        "heading_deg": 89.1,
        "aoi": "r3-herttoniemi",
        "source_layer": "Ortoilmakuva_2025_5cm",
        "zoom": 16,
        "status": "confirmed",
        "class": "car"
      }
    },
    {
      "type": "Feature",
      "geometry": {
        "type": "Polygon",
        "coordinates": [
          [
            [
              25502551.929,
              6675767.533
            ],
            [
              25502552.161,
              6675769.698
            ],
            [
              25502547.711,
              6675770.176
            ],
            [
              25502547.479,
              6675768.011
            ],
            [
              25502551.929,
              6675767.533
            ]
          ]
        ]
      },
      "properties": {
        "confidence": 0.9612,
        "length_m": 4.48,
        "width_m": 2.18,
        "heading_deg": 96.1,
        "aoi": "r3-herttoniemi",
        "source_layer": "Ortoilmakuva_2025_5cm",
        "zoom": 16,
        "status": "confirmed",
        "class": "car"
      }
    },
    {
      "type": "Feature",
      "geometry": {
        "type": "Polygon",
        "coordinates": [
          [
            [
              25502468.561,
              6675759.497
            ],
            [
              25502468.731,
              6675761.667
            ],
            [
              25502464.284,
              6675762.016
            ],
            [
              25502464.113,
              6675759.846
            ],
            [
              25502468.561,
              6675759.497
            ]
          ]
        ]
      },
      "properties": {
        "confidence": 0.9606,
        "length_m": 4.46,
        "width_m": 2.18,
        "heading_deg": 94.5,
        "aoi": "r3-herttoniemi",
        "source_layer": "Ortoilmakuva_2025_5cm",
        "zoom": 16,
        "status": "confirmed",
        "class": "car"
      }
    },
    {
      "type": "Feature",
      "geometry": {
        "type": "Polygon",
        "coordinates": [
          [
            [
              25502563.529,
              6675751.092
            ],
            [
              25502564.834,
              6675753.014
            ],
            [
              25502560.62,
              6675755.875
            ],
            [
              25502559.315,
              6675753.953
            ],
            [
              25502563.529,
              6675751.092
            ]
          ]
        ]
      },
      "properties": {
        "confidence": 0.9599,
        "length_m": 5.09,
        "width_m": 2.32,
        "heading_deg": 124.2,
        "aoi": "r3-herttoniemi",
        "source_layer": "Ortoilmakuva_2025_5cm",
        "zoom": 16,
        "status": "confirmed",
        "class": "car"
      }
    },
    {
      "type": "Feature",
      "geometry": {
        "type": "Polygon",
        "coordinates": [
          [
            [
              25502546.546,
              6675768.017
            ],
            [
              25502546.798,
              6675770.387
            ],
            [
              25502541.951,
              6675770.902
            ],
            [
              25502541.699,
              6675768.532
            ],
            [
              25502546.546,
              6675768.017
            ]
          ]
        ]
      },
      "properties": {
        "confidence": 0.9581,
        "length_m": 4.87,
        "width_m": 2.38,
        "heading_deg": 96.1,
        "aoi": "r3-herttoniemi",
        "source_layer": "Ortoilmakuva_2025_5cm",
        "zoom": 16,
        "status": "confirmed",
        "class": "car"
      }
    },
    {
      "type": "Feature",
      "geometry": {
        "type": "Polygon",
        "coordinates": [
          [
            [
              25502618.558,
              6675551.248
            ],
            [
              25502620.129,
              6675552.527
            ],
            [
              25502617.119,
              6675556.226
            ],
            [
              25502615.547,
              6675554.947
            ],
            [
              25502618.558,
              6675551.248
            ]
          ]
        ]
      },
      "properties": {
        "confidence": 0.9563,
        "length_m": 4.77,
        "width_m": 2.03,
        "heading_deg": 140.9,
        "aoi": "r3-herttoniemi",
        "source_layer": "Ortoilmakuva_2025_5cm",
        "zoom": 16,
        "status": "confirmed",
        "class": "car"
      }
    },
    {
      "type": "Feature",
      "geometry": {
        "type": "Polygon",
        "coordinates": [
          [
            [
              25502620.893,
              6675543.84
            ],
            [
              25502622.645,
              6675545.201
            ],
            [
              25502619.808,
              6675548.854
            ],
            [
              25502618.055,
              6675547.492
            ],
            [
              25502620.893,
              6675543.84
            ]
          ]
        ]
      },
      "properties": {
        "confidence": 0.9551,
        "length_m": 4.63,
        "width_m": 2.22,
        "heading_deg": 142.2,
        "aoi": "r3-herttoniemi",
        "source_layer": "Ortoilmakuva_2025_5cm",
        "zoom": 16,
        "status": "confirmed",
        "class": "car"
      }
    },
    {
      "type": "Feature",
      "geometry": {
        "type": "Polygon",
        "coordinates": [
          [
            [
              25502417.077,
              6675464.138
            ],
            [
              25502417.021,
              6675466.212
            ],
            [
              25502412.363,
              6675466.087
            ],
            [
              25502412.419,
              6675464.013
            ],
            [
              25502417.077,
              6675464.138
            ]
          ]
        ]
      },
      "properties": {
        "confidence": 0.9542,
        "length_m": 4.66,
        "width_m": 2.07,
        "heading_deg": 88.5,
        "aoi": "r3-herttoniemi",
        "source_layer": "Ortoilmakuva_2025_5cm",
        "zoom": 16,
        "status": "confirmed",
        "class": "car"
      }
    },
    {
      "type": "Feature",
      "geometry": {
        "type": "Polygon",
        "coordinates": [
          [
            [
              25502467.843,
              6675754.035
            ],
            [
              25502468.06,
              6675756.18
            ],
            [
              25502463.1,
              6675756.683
            ],
            [
              25502462.882,
              6675754.538
            ],
            [
              25502467.843,
              6675754.035
            ]
          ]
        ]
      },
      "properties": {
        "confidence": 0.9542,
        "length_m": 4.99,
        "width_m": 2.16,
        "heading_deg": 95.8,
        "aoi": "r3-herttoniemi",
        "source_layer": "Ortoilmakuva_2025_5cm",
        "zoom": 16,
        "status": "confirmed",
        "class": "car"
      }
    },
    {
      "type": "Feature",
      "geometry": {
        "type": "Polygon",
        "coordinates": [
          [
            [
              25502413.507,
              6675583.652
            ],
            [
              25502413.796,
              6675585.695
            ],
            [
              25502408.556,
              6675586.438
            ],
            [
              25502408.266,
              6675584.395
            ],
            [
              25502413.507,
              6675583.652
            ]
          ]
        ]
      },
      "properties": {
        "confidence": 0.9541,
        "length_m": 5.29,
        "width_m": 2.06,
        "heading_deg": 98.1,
        "aoi": "r3-herttoniemi",
        "source_layer": "Ortoilmakuva_2025_5cm",
        "zoom": 16,
        "status": "confirmed",
        "class": "car"
      }
    },
    {
      "type": "Feature",
      "geometry": {
        "type": "Polygon",
        "coordinates": [
          [
            [
              25502463.836,
              6675762.526
            ],
            [
              25502466.258,
              6675762.332
            ],
            [
              25502466.668,
              6675767.449
            ],
            [
              25502464.246,
              6675767.643
            ],
            [
              25502463.836,
              6675762.526
            ]
          ]
        ]
      },
      "properties": {
        "confidence": 0.9536,
        "length_m": 5.13,
        "width_m": 2.43,
        "heading_deg": 4.6,
        "aoi": "r3-herttoniemi",
        "source_layer": "Ortoilmakuva_2025_5cm",
        "zoom": 16,
        "status": "confirmed",
        "class": "car"
      }
    },
    {
      "type": "Feature",
      "geometry": {
        "type": "Polygon",
        "coordinates": [
          [
            [
              25502633.089,
              6675575.146
            ],
            [
              25502631.675,
              6675577.117
            ],
            [
              25502627.63,
              6675574.216
            ],
            [
              25502629.043,
              6675572.245
            ],
            [
              25502633.089,
              6675575.146
            ]
          ]
        ]
      },
      "properties": {
        "confidence": 0.9536,
        "length_m": 4.98,
        "width_m": 2.43,
        "heading_deg": 54.4,
        "aoi": "r3-herttoniemi",
        "source_layer": "Ortoilmakuva_2025_5cm",
        "zoom": 16,
        "status": "confirmed",
        "class": "car"
      }
    },
    {
      "type": "Feature",
      "geometry": {
        "type": "Polygon",
        "coordinates": [
          [
            [
              25502405.685,
              6675728.578
            ],
            [
              25502407.638,
              6675730.034
            ],
            [
              25502404.584,
              6675734.132
            ],
            [
              25502402.63,
              6675732.676
            ],
            [
              25502405.685,
              6675728.578
            ]
          ]
        ]
      },
      "properties": {
        "confidence": 0.9534,
        "length_m": 5.11,
        "width_m": 2.44,
        "heading_deg": 143.3,
        "aoi": "r3-herttoniemi",
        "source_layer": "Ortoilmakuva_2025_5cm",
        "zoom": 16,
        "status": "confirmed",
        "class": "car"
      }
    },
    {
      "type": "Feature",
      "geometry": {
        "type": "Polygon",
        "coordinates": [
          [
            [
              25502461.553,
              6675763.641
            ],
            [
              25502463.673,
              6675763.523
            ],
            [
              25502463.903,
              6675767.663
            ],
            [
              25502461.783,
              6675767.78
            ],
            [
              25502461.553,
              6675763.641
            ]
          ]
        ]
      },
      "properties": {
        "confidence": 0.9528,
        "length_m": 4.15,
        "width_m": 2.12,
        "heading_deg": 3.2,
        "aoi": "r3-herttoniemi",
        "source_layer": "Ortoilmakuva_2025_5cm",
        "zoom": 16,
        "status": "confirmed",
        "class": "car"
      }
    },
    {
      "type": "Feature",
      "geometry": {
        "type": "Polygon",
        "coordinates": [
          [
            [
              25502467.63,
              6675566.17
            ],
            [
              25502467.854,
              6675568.354
            ],
            [
              25502463.484,
              6675568.801
            ],
            [
              25502463.261,
              6675566.617
            ],
            [
              25502467.63,
              6675566.17
            ]
          ]
        ]
      },
      "properties": {
        "confidence": 0.9516,
        "length_m": 4.39,
        "width_m": 2.2,
        "heading_deg": 95.8,
        "aoi": "r3-herttoniemi",
        "source_layer": "Ortoilmakuva_2025_5cm",
        "zoom": 16,
        "status": "confirmed",
        "class": "car"
      }
    },
    {
      "type": "Feature",
      "geometry": {
        "type": "Polygon",
        "coordinates": [
          [
            [
              25502601.695,
              6675575.279
            ],
            [
              25502603.527,
              6675576.563
            ],
            [
              25502600.712,
              6675580.579
            ],
            [
              25502598.88,
              6675579.295
            ],
            [
              25502601.695,
              6675575.279
            ]
          ]
        ]
      },
      "properties": {
        "confidence": 0.9496,
        "length_m": 4.9,
        "width_m": 2.24,
        "heading_deg": 145,
        "aoi": "r3-herttoniemi",
        "source_layer": "Ortoilmakuva_2025_5cm",
        "zoom": 16,
        "status": "confirmed",
        "class": "car"
      }
    },
    {
      "type": "Feature",
      "geometry": {
        "type": "Polygon",
        "coordinates": [
          [
            [
              25502426.966,
              6675766.961
            ],
            [
              25502429.31,
              6675766.683
            ],
            [
              25502429.881,
              6675771.493
            ],
            [
              25502427.537,
              6675771.771
            ],
            [
              25502426.966,
              6675766.961
            ]
          ]
        ]
      },
      "properties": {
        "confidence": 0.9488,
        "length_m": 4.84,
        "width_m": 2.36,
        "heading_deg": 6.8,
        "aoi": "r3-herttoniemi",
        "source_layer": "Ortoilmakuva_2025_5cm",
        "zoom": 16,
        "status": "confirmed",
        "class": "car"
      }
    },
    {
      "type": "Feature",
      "geometry": {
        "type": "Polygon",
        "coordinates": [
          [
            [
              25502599.084,
              6675573.67
            ],
            [
              25502601.01,
              6675574.966
            ],
            [
              25502598.255,
              6675579.062
            ],
            [
              25502596.329,
              6675577.767
            ],
            [
              25502599.084,
              6675573.67
            ]
          ]
        ]
      },
      "properties": {
        "confidence": 0.9487,
        "length_m": 4.94,
        "width_m": 2.32,
        "heading_deg": 146.1,
        "aoi": "r3-herttoniemi",
        "source_layer": "Ortoilmakuva_2025_5cm",
        "zoom": 16,
        "status": "rejected",
        "class": ""
      }
    },
    {
      "type": "Feature",
      "geometry": {
        "type": "Polygon",
        "coordinates": [
          [
            [
              25502562.279,
              6675748.756
            ],
            [
              25502563.519,
              6675750.455
            ],
            [
              25502559.819,
              6675753.156
            ],
            [
              25502558.579,
              6675751.457
            ],
            [
              25502562.279,
              6675748.756
            ]
          ]
        ]
      },
      "properties": {
        "confidence": 0.9481,
        "length_m": 4.58,
        "width_m": 2.1,
        "heading_deg": 126.1,
        "aoi": "r3-herttoniemi",
        "source_layer": "Ortoilmakuva_2025_5cm",
        "zoom": 16,
        "status": "confirmed",
        "class": "car"
      }
    },
    {
      "type": "Feature",
      "geometry": {
        "type": "Polygon",
        "coordinates": [
          [
            [
              25502395.396,
              6675480.811
            ],
            [
              25502395.253,
              6675482.828
            ],
            [
              25502390.967,
              6675482.525
            ],
            [
              25502391.109,
              6675480.508
            ],
            [
              25502395.396,
              6675480.811
            ]
          ]
        ]
      },
      "properties": {
        "confidence": 0.9472,
        "length_m": 4.3,
        "width_m": 2.02,
        "heading_deg": 86,
        "aoi": "r3-herttoniemi",
        "source_layer": "Ortoilmakuva_2025_5cm",
        "zoom": 16,
        "status": "confirmed",
        "class": "car"
      }
    },
    {
      "type": "Feature",
      "geometry": {
        "type": "Polygon",
        "coordinates": [
          [
            [
              25502401.843,
              6675571.989
            ],
            [
              25502404.141,
              6675571.804
            ],
            [
              25502404.535,
              6675576.696
            ],
            [
              25502402.237,
              6675576.881
            ],
            [
              25502401.843,
              6675571.989
            ]
          ]
        ]
      },
      "properties": {
        "confidence": 0.9469,
        "length_m": 4.91,
        "width_m": 2.31,
        "heading_deg": 4.6,
        "aoi": "r3-herttoniemi",
        "source_layer": "Ortoilmakuva_2025_5cm",
        "zoom": 16,
        "status": "confirmed",
        "class": "car"
      }
    },
    {
      "type": "Feature",
      "geometry": {
        "type": "Polygon",
        "coordinates": [
          [
            [
              25502609.468,
              6675581.398
            ],
            [
              25502611.211,
              6675582.713
            ],
            [
              25502608.431,
              6675586.399
            ],
            [
              25502606.688,
              6675585.084
            ],
            [
              25502609.468,
              6675581.398
            ]
          ]
        ]
      },
      "properties": {
        "confidence": 0.9465,
        "length_m": 4.62,
        "width_m": 2.18,
        "heading_deg": 143,
        "aoi": "r3-herttoniemi",
        "source_layer": "Ortoilmakuva_2025_5cm",
        "zoom": 16,
        "status": "confirmed",
        "class": "car"
      }
    },
    {
      "type": "Feature",
      "geometry": {
        "type": "Polygon",
        "coordinates": [
          [
            [
              25502408.546,
              6675728.358
            ],
            [
              25502410.588,
              6675729.439
            ],
            [
              25502408.344,
              6675733.677
            ],
            [
              25502406.302,
              6675732.596
            ],
            [
              25502408.546,
              6675728.358
            ]
          ]
        ]
      },
      "properties": {
        "confidence": 0.9451,
        "length_m": 4.8,
        "width_m": 2.31,
        "heading_deg": 152.1,
        "aoi": "r3-herttoniemi",
        "source_layer": "Ortoilmakuva_2025_5cm",
        "zoom": 16,
        "status": "confirmed",
        "class": "car"
      }
    },
    {
      "type": "Feature",
      "geometry": {
        "type": "Polygon",
        "coordinates": [
          [
            [
              25502459.021,
              6675724.574
            ],
            [
              25502460.763,
              6675722.99
            ],
            [
              25502464.01,
              6675726.561
            ],
            [
              25502462.268,
              6675728.145
            ],
            [
              25502459.021,
              6675724.574
            ]
          ]
        ]
      },
      "properties": {
        "confidence": 0.944,
        "length_m": 4.83,
        "width_m": 2.35,
        "heading_deg": 42.3,
        "aoi": "r3-herttoniemi",
        "source_layer": "Ortoilmakuva_2025_5cm",
        "zoom": 16,
        "status": "confirmed",
        "class": "car"
      }
    },
    {
      "type": "Feature",
      "geometry": {
        "type": "Polygon",
        "coordinates": [
          [
            [
              25502486.288,
              6675735.226
            ],
            [
              25502485.754,
              6675723.155
            ],
            [
              25502482.635,
              6675723.293
            ],
            [
              25502483.169,
              6675735.364
            ],
            [
              25502486.288,
              6675735.226
            ]
          ]
        ]
      },
      "properties": {
        "confidence": 0.9436,
        "length_m": 12.08,
        "width_m": 3.12,
        "heading_deg": 2.5,
        "aoi": "r3-herttoniemi",
        "source_layer": "Ortoilmakuva_2025_5cm",
        "zoom": 16,
        "status": "confirmed",
        "class": "truck"
      }
    },
    {
      "type": "Feature",
      "geometry": {
        "type": "Polygon",
        "coordinates": [
          [
            [
              25502453.625,
              6675764.165
            ],
            [
              25502455.802,
              6675764.011
            ],
            [
              25502456.101,
              6675768.221
            ],
            [
              25502453.924,
              6675768.375
            ],
            [
              25502453.625,
              6675764.165
            ]
          ]
        ]
      },
      "properties": {
        "confidence": 0.943,
        "length_m": 4.22,
        "width_m": 2.18,
        "heading_deg": 4.1,
        "aoi": "r3-herttoniemi",
        "source_layer": "Ortoilmakuva_2025_5cm",
        "zoom": 16,
        "status": "confirmed",
        "class": "car"
      }
    },
    {
      "type": "Feature",
      "geometry": {
        "type": "Polygon",
        "coordinates": [
          [
            [
              25502456.184,
              6675764.102
            ],
            [
              25502458.323,
              6675763.981
            ],
            [
              25502458.567,
              6675768.327
            ],
            [
              25502456.428,
              6675768.448
            ],
            [
              25502456.184,
              6675764.102
            ]
          ]
        ]
      },
      "properties": {
        "confidence": 0.9427,
        "length_m": 4.35,
        "width_m": 2.14,
        "heading_deg": 3.2,
        "aoi": "r3-herttoniemi",
        "source_layer": "Ortoilmakuva_2025_5cm",
        "zoom": 16,
        "status": "confirmed",
        "class": "car"
      }
    },
    {
      "type": "Feature",
      "geometry": {
        "type": "Polygon",
        "coordinates": [
          [
            [
              25502574.858,
              6675507.248
            ],
            [
              25502573.43,
              6675509.096
            ],
            [
              25502569.933,
              6675506.392
            ],
            [
              25502571.362,
              6675504.545
            ],
            [
              25502574.858,
              6675507.248
            ]
          ]
        ]
      },
      "properties": {
        "confidence": 0.9425,
        "length_m": 4.42,
        "width_m": 2.34,
        "heading_deg": 52.3,
        "aoi": "r3-herttoniemi",
        "source_layer": "Ortoilmakuva_2025_5cm",
        "zoom": 16,
        "status": "confirmed",
        "class": "car"
      }
    },
    {
      "type": "Feature",
      "geometry": {
        "type": "Polygon",
        "coordinates": [
          [
            [
              25502445.72,
              6675764.95
            ],
            [
              25502448.07,
              6675764.702
            ],
            [
              25502448.6,
              6675769.719
            ],
            [
              25502446.25,
              6675769.967
            ],
            [
              25502445.72,
              6675764.95
            ]
          ]
        ]
      },
      "properties": {
        "confidence": 0.9425,
        "length_m": 5.04,
        "width_m": 2.36,
        "heading_deg": 6,
        "aoi": "r3-herttoniemi",
        "source_layer": "Ortoilmakuva_2025_5cm",
        "zoom": 16,
        "status": "confirmed",
        "class": "car"
      }
    },
    {
      "type": "Feature",
      "geometry": {
        "type": "Polygon",
        "coordinates": [
          [
            [
              25502576.192,
              6675505.119
            ],
            [
              25502574.843,
              6675506.936
            ],
            [
              25502571.277,
              6675504.291
            ],
            [
              25502572.625,
              6675502.473
            ],
            [
              25502576.192,
              6675505.119
            ]
          ]
        ]
      },
      "properties": {
        "confidence": 0.9392,
        "length_m": 4.44,
        "width_m": 2.26,
        "heading_deg": 53.4,
        "aoi": "r3-herttoniemi",
        "source_layer": "Ortoilmakuva_2025_5cm",
        "zoom": 16,
        "status": "confirmed",
        "class": "car"
      }
    },
    {
      "type": "Feature",
      "geometry": {
        "type": "Polygon",
        "coordinates": [
          [
            [
              25502501.724,
              6675585.398
            ],
            [
              25502503.932,
              6675585.144
            ],
            [
              25502504.461,
              6675589.732
            ],
            [
              25502502.253,
              6675589.987
            ],
            [
              25502501.724,
              6675585.398
            ]
          ]
        ]
      },
      "properties": {
        "confidence": 0.9385,
        "length_m": 4.62,
        "width_m": 2.22,
        "heading_deg": 6.6,
        "aoi": "r3-herttoniemi",
        "source_layer": "Ortoilmakuva_2025_5cm",
        "zoom": 16,
        "status": "confirmed",
        "class": "car"
      }
    },
    {
      "type": "Feature",
      "geometry": {
        "type": "Polygon",
        "coordinates": [
          [
            [
              25502569.286,
              6675515.071
            ],
            [
              25502568.036,
              6675516.982
            ],
            [
              25502564.133,
              6675514.429
            ],
            [
              25502565.383,
              6675512.518
            ],
            [
              25502569.286,
              6675515.071
            ]
          ]
        ]
      },
      "properties": {
        "confidence": 0.9383,
        "length_m": 4.66,
        "width_m": 2.28,
        "heading_deg": 56.8,
        "aoi": "r3-herttoniemi",
        "source_layer": "Ortoilmakuva_2025_5cm",
        "zoom": 16,
        "status": "confirmed",
        "class": "car"
      }
    },
    {
      "type": "Feature",
      "geometry": {
        "type": "Polygon",
        "coordinates": [
          [
            [
              25502580.25,
              6675499.543
            ],
            [
              25502578.797,
              6675501.438
            ],
            [
              25502575.057,
              6675498.57
            ],
            [
              25502576.51,
              6675496.675
            ],
            [
              25502580.25,
              6675499.543
            ]
          ]
        ]
      },
      "properties": {
        "confidence": 0.9378,
        "length_m": 4.71,
        "width_m": 2.39,
        "heading_deg": 52.5,
        "aoi": "r3-herttoniemi",
        "source_layer": "Ortoilmakuva_2025_5cm",
        "zoom": 16,
        "status": "confirmed",
        "class": "car"
      }
    },
    {
      "type": "Feature",
      "geometry": {
        "type": "Polygon",
        "coordinates": [
          [
            [
              25502424.458,
              6675767.354
            ],
            [
              25502426.821,
              6675767.055
            ],
            [
              25502427.433,
              6675771.882
            ],
            [
              25502425.069,
              6675772.182
            ],
            [
              25502424.458,
              6675767.354
            ]
          ]
        ]
      },
      "properties": {
        "confidence": 0.9348,
        "length_m": 4.87,
        "width_m": 2.38,
        "heading_deg": 7.2,
        "aoi": "r3-herttoniemi",
        "source_layer": "Ortoilmakuva_2025_5cm",
        "zoom": 16,
        "status": "confirmed",
        "class": "car"
      }
    },
    {
      "type": "Feature",
      "geometry": {
        "type": "Polygon",
        "coordinates": [
          [
            [
              25502432.178,
              6675766.748
            ],
            [
              25502434.419,
              6675766.523
            ],
            [
              25502434.875,
              6675771.067
            ],
            [
              25502432.634,
              6675771.292
            ],
            [
              25502432.178,
              6675766.748
            ]
          ]
        ]
      },
      "properties": {
        "confidence": 0.9347,
        "length_m": 4.57,
        "width_m": 2.25,
        "heading_deg": 5.7,
        "aoi": "r3-herttoniemi",
        "source_layer": "Ortoilmakuva_2025_5cm",
        "zoom": 16,
        "status": "confirmed",
        "class": "car"
      }
    },
    {
      "type": "Feature",
      "geometry": {
        "type": "Polygon",
        "coordinates": [
          [
            [
              25502396.418,
              6675729.42
            ],
            [
              25502398.098,
              6675731.246
            ],
            [
              25502394.388,
              6675734.659
            ],
            [
              25502392.708,
              6675732.832
            ],
            [
              25502396.418,
              6675729.42
            ]
          ]
        ]
      },
      "properties": {
        "confidence": 0.9347,
        "length_m": 5.04,
        "width_m": 2.48,
        "heading_deg": 132.6,
        "aoi": "r3-herttoniemi",
        "source_layer": "Ortoilmakuva_2025_5cm",
        "zoom": 16,
        "status": "confirmed",
        "class": "car"
      }
    },
    {
      "type": "Feature",
      "geometry": {
        "type": "Polygon",
        "coordinates": [
          [
            [
              25502577.434,
              6675503.283
            ],
            [
              25502576.154,
              6675505.066
            ],
            [
              25502572.432,
              6675502.394
            ],
            [
              25502573.711,
              6675500.611
            ],
            [
              25502577.434,
              6675503.283
            ]
          ]
        ]
      },
      "properties": {
        "confidence": 0.9309,
        "length_m": 4.58,
        "width_m": 2.19,
        "heading_deg": 54.3,
        "aoi": "r3-herttoniemi",
        "source_layer": "Ortoilmakuva_2025_5cm",
        "zoom": 16,
        "status": "confirmed",
        "class": "car"
      }
    },
    {
      "type": "Feature",
      "geometry": {
        "type": "Polygon",
        "coordinates": [
          [
            [
              25502458.748,
              6675763.778
            ],
            [
              25502460.929,
              6675763.688
            ],
            [
              25502461.124,
              6675768.415
            ],
            [
              25502458.942,
              6675768.505
            ],
            [
              25502458.748,
              6675763.778
            ]
          ]
        ]
      },
      "properties": {
        "confidence": 0.9304,
        "length_m": 4.73,
        "width_m": 2.18,
        "heading_deg": 2.4,
        "aoi": "r3-herttoniemi",
        "source_layer": "Ortoilmakuva_2025_5cm",
        "zoom": 16,
        "status": "confirmed",
        "class": "car"
      }
    },
    {
      "type": "Feature",
      "geometry": {
        "type": "Polygon",
        "coordinates": [
          [
            [
              25502429.592,
              6675575.974
            ],
            [
              25502432.509,
              6675577.422
            ],
            [
              25502427.593,
              6675587.327
            ],
            [
              25502424.676,
              6675585.88
            ],
            [
              25502429.592,
              6675575.974
            ]
          ]
        ]
      },
      "properties": {
        "confidence": 0.9261,
        "length_m": 11.06,
        "width_m": 3.26,
        "heading_deg": 153.6,
        "aoi": "r3-herttoniemi",
        "source_layer": "Ortoilmakuva_2025_5cm",
        "zoom": 16,
        "status": "confirmed",
        "class": "truck"
      }
    },
    {
      "type": "Feature",
      "geometry": {
        "type": "Polygon",
        "coordinates": [
          [
            [
              25502416.982,
              6675768.125
            ],
            [
              25502419.254,
              6675767.862
            ],
            [
              25502419.758,
              6675772.216
            ],
            [
              25502417.486,
              6675772.479
            ],
            [
              25502416.982,
              6675768.125
            ]
          ]
        ]
      },
      "properties": {
        "confidence": 0.9093,
        "length_m": 4.38,
        "width_m": 2.29,
        "heading_deg": 6.6,
        "aoi": "r3-herttoniemi",
        "source_layer": "Ortoilmakuva_2025_5cm",
        "zoom": 16,
        "status": "confirmed",
        "class": "car"
      }
    },
    {
      "type": "Feature",
      "geometry": {
        "type": "Polygon",
        "coordinates": [
          [
            [
              25502622.598,
              6675554.286
            ],
            [
              25502624.372,
              6675555.55
            ],
            [
              25502621.753,
              6675559.224
            ],
            [
              25502619.979,
              6675557.959
            ],
            [
              25502622.598,
              6675554.286
            ]
          ]
        ]
      },
      "properties": {
        "confidence": 0.9047,
        "length_m": 4.51,
        "width_m": 2.18,
        "heading_deg": 144.5,
        "aoi": "r3-herttoniemi",
        "source_layer": "Ortoilmakuva_2025_5cm",
        "zoom": 16,
        "status": "confirmed",
        "class": "car"
      }
    },
    {
      "type": "Feature",
      "geometry": {
        "type": "Polygon",
        "coordinates": [
          [
            [
              25502419.667,
              6675767.711
            ],
            [
              25502422.014,
              6675767.442
            ],
            [
              25502422.551,
              6675772.131
            ],
            [
              25502420.204,
              6675772.399
            ],
            [
              25502419.667,
              6675767.711
            ]
          ]
        ]
      },
      "properties": {
        "confidence": 0.8999,
        "length_m": 4.72,
        "width_m": 2.36,
        "heading_deg": 6.5,
        "aoi": "r3-herttoniemi",
        "source_layer": "Ortoilmakuva_2025_5cm",
        "zoom": 16,
        "status": "rejected",
        "class": ""
      }
    },
    {
      "type": "Feature",
      "geometry": {
        "type": "Polygon",
        "coordinates": [
          [
            [
              25502434.801,
              6675766.417
            ],
            [
              25502436.977,
              6675766.212
            ],
            [
              25502437.388,
              6675770.576
            ],
            [
              25502435.212,
              6675770.781
            ],
            [
              25502434.801,
              6675766.417
            ]
          ]
        ]
      },
      "properties": {
        "confidence": 0.8873,
        "length_m": 4.38,
        "width_m": 2.19,
        "heading_deg": 5.4,
        "aoi": "r3-herttoniemi",
        "source_layer": "Ortoilmakuva_2025_5cm",
        "zoom": 16,
        "status": "confirmed",
        "class": "car"
      }
    },
    {
      "type": "Feature",
      "geometry": {
        "type": "Polygon",
        "coordinates": [
          [
            [
              25502528.658,
              6675770.044
            ],
            [
              25502524.036,
              6675770.498
            ],
            [
              25502524.246,
              6675772.639
            ],
            [
              25502528.868,
              6675772.185
            ],
            [
              25502528.658,
              6675770.044
            ]
          ]
        ]
      },
      "properties": {
        "confidence": 0.8782,
        "length_m": 4.64,
        "width_m": 2.15,
        "heading_deg": 95.6,
        "aoi": "r3-herttoniemi",
        "source_layer": "Ortoilmakuva_2025_5cm",
        "zoom": 16,
        "status": "confirmed",
        "class": "car"
      }
    },
    {
      "type": "Feature",
      "geometry": {
        "type": "Polygon",
        "coordinates": [
          [
            [
              25502437.182,
              6675766.225
            ],
            [
              25502439.114,
              6675765.982
            ],
            [
              25502439.678,
              6675770.461
            ],
            [
              25502437.746,
              6675770.704
            ],
            [
              25502437.182,
              6675766.225
            ]
          ]
        ]
      },
      "properties": {
        "confidence": 0.8719,
        "length_m": 4.51,
        "width_m": 1.95,
        "heading_deg": 7.2,
        "aoi": "r3-herttoniemi",
        "source_layer": "Ortoilmakuva_2025_5cm",
        "zoom": 16,
        "status": "confirmed",
        "class": "car"
      }
    },
    {
      "type": "Feature",
      "geometry": {
        "type": "Polygon",
        "coordinates": [
          [
            [
              25502430.073,
              6675571.708
            ],
            [
              25502431.067,
              6675564.366
            ],
            [
              25502428.269,
              6675563.987
            ],
            [
              25502427.275,
              6675571.33
            ],
            [
              25502430.073,
              6675571.708
            ]
          ]
        ]
      },
      "properties": {
        "confidence": 0.8454,
        "length_m": 7.41,
        "width_m": 2.82,
        "heading_deg": 172.3,
        "aoi": "r3-herttoniemi",
        "source_layer": "Ortoilmakuva_2025_5cm",
        "zoom": 16,
        "status": "confirmed",
        "class": "truck"
      }
    },
    {
      "type": "Feature",
      "geometry": {
        "type": "Polygon",
        "coordinates": [
          [
            [
              25502564.429,
              6675753.652
            ],
            [
              25502565.735,
              6675755.534
            ],
            [
              25502561.827,
              6675758.247
            ],
            [
              25502560.521,
              6675756.365
            ],
            [
              25502564.429,
              6675753.652
            ]
          ]
        ]
      },
      "properties": {
        "confidence": 0.8125,
        "length_m": 4.76,
        "width_m": 2.29,
        "heading_deg": 124.8,
        "aoi": "r3-herttoniemi",
        "source_layer": "Ortoilmakuva_2025_5cm",
        "zoom": 16,
        "status": "rejected",
        "class": ""
      }
    },
    {
      "type": "Feature",
      "geometry": {
        "type": "Polygon",
        "coordinates": [
          [
            [
              25502416.24,
              6675773.454
            ],
            [
              25502415.837,
              6675768.355
            ],
            [
              25502413.385,
              6675768.549
            ],
            [
              25502413.787,
              6675773.648
            ],
            [
              25502416.24,
              6675773.454
            ]
          ]
        ]
      },
      "properties": {
        "confidence": 0.8121,
        "length_m": 5.11,
        "width_m": 2.46,
        "heading_deg": 4.5,
        "aoi": "r3-herttoniemi",
        "source_layer": "Ortoilmakuva_2025_5cm",
        "zoom": 16,
        "status": "confirmed",
        "class": "car"
      }
    },
    {
      "type": "Feature",
      "geometry": {
        "type": "Polygon",
        "coordinates": [
          [
            [
              25502558.191,
              6675766.997
            ],
            [
              25502552.644,
              6675767.649
            ],
            [
              25502552.91,
              6675769.916
            ],
            [
              25502558.457,
              6675769.265
            ],
            [
              25502558.191,
              6675766.997
            ]
          ]
        ]
      },
      "properties": {
        "confidence": 0.7777,
        "length_m": 5.59,
        "width_m": 2.28,
        "heading_deg": 96.7,
        "aoi": "r3-herttoniemi",
        "source_layer": "Ortoilmakuva_2025_5cm",
        "zoom": 16,
        "status": "confirmed",
        "class": "van"
      }
    },
    {
      "type": "Feature",
      "geometry": {
        "type": "Polygon",
        "coordinates": [
          [
            [
              25502437.075,
              6675766.064
            ],
            [
              25502439.187,
              6675765.775
            ],
            [
              25502439.833,
              6675770.503
            ],
            [
              25502437.721,
              6675770.792
            ],
            [
              25502437.075,
              6675766.064
            ]
          ]
        ]
      },
      "properties": {
        "confidence": 0.7699,
        "length_m": 4.77,
        "width_m": 2.13,
        "heading_deg": 7.8,
        "aoi": "r3-herttoniemi",
        "source_layer": "Ortoilmakuva_2025_5cm",
        "zoom": 16,
        "status": "rejected",
        "class": ""
      }
    },
    {
      "type": "Feature",
      "geometry": {
        "type": "Polygon",
        "coordinates": [
          [
            [
              25502422.4,
              6675772.095
            ],
            [
              25502421.932,
              6675767.53
            ],
            [
              25502419.808,
              6675767.748
            ],
            [
              25502420.275,
              6675772.312
            ],
            [
              25502422.4,
              6675772.095
            ]
          ]
        ]
      },
      "properties": {
        "confidence": 0.7595,
        "length_m": 4.59,
        "width_m": 2.14,
        "heading_deg": 5.8,
        "aoi": "r3-herttoniemi",
        "source_layer": "Ortoilmakuva_2025_5cm",
        "zoom": 16,
        "status": "confirmed",
        "class": "car"
      }
    },
    {
      "type": "Feature",
      "geometry": {
        "type": "Polygon",
        "coordinates": [
          [
            [
              25502448.577,
              6675765.044
            ],
            [
              25502450.645,
              6675764.866
            ],
            [
              25502451.006,
              6675769.052
            ],
            [
              25502448.937,
              6675769.23
            ],
            [
              25502448.577,
              6675765.044
            ]
          ]
        ]
      },
      "properties": {
        "confidence": 0.7301,
        "length_m": 4.2,
        "width_m": 2.08,
        "heading_deg": 4.9,
        "aoi": "r3-herttoniemi",
        "source_layer": "Ortoilmakuva_2025_5cm",
        "zoom": 16,
        "status": "confirmed",
        "class": "car"
      }
    },
    {
      "type": "Feature",
      "geometry": {
        "type": "Polygon",
        "coordinates": [
          [
            [
              25502429.734,
              6675467.506
            ],
            [
              25502429.396,
              6675470.037
            ],
            [
              25502422.925,
              6675469.172
            ],
            [
              25502423.263,
              6675466.64
            ],
            [
              25502429.734,
              6675467.506
            ]
          ]
        ]
      },
      "properties": {
        "confidence": 0.6416,
        "length_m": 6.53,
        "width_m": 2.55,
        "heading_deg": 82.4,
        "aoi": "r3-herttoniemi",
        "source_layer": "Ortoilmakuva_2025_5cm",
        "zoom": 16,
        "status": "confirmed",
        "class": "van"
      }
    },
    {
      "type": "Feature",
      "geometry": {
        "type": "Polygon",
        "coordinates": [
          [
            [
              25502594.402,
              6675770.745
            ],
            [
              25502588.923,
              6675771.393
            ],
            [
              25502589.11,
              6675772.973
            ],
            [
              25502594.589,
              6675772.325
            ],
            [
              25502594.402,
              6675770.745
            ]
          ]
        ]
      },
      "properties": {
        "confidence": 0.5971,
        "length_m": 5.52,
        "width_m": 1.59,
        "heading_deg": 96.7,
        "aoi": "r3-herttoniemi",
        "source_layer": "Ortoilmakuva_2025_5cm",
        "zoom": 16,
        "status": "confirmed",
        "class": "van"
      }
    },
    {
      "type": "Feature",
      "geometry": {
        "type": "Polygon",
        "coordinates": [
          [
            [
              25502434.783,
              6675766.595
            ],
            [
              25502436.834,
              6675766.253
            ],
            [
              25502437.524,
              6675770.392
            ],
            [
              25502435.473,
              6675770.734
            ],
            [
              25502434.783,
              6675766.595
            ]
          ]
        ]
      },
      "properties": {
        "confidence": 0.5535,
        "length_m": 4.2,
        "width_m": 2.08,
        "heading_deg": 9.5,
        "aoi": "r3-herttoniemi",
        "source_layer": "Ortoilmakuva_2025_5cm",
        "zoom": 16,
        "status": "rejected",
        "class": ""
      }
    },
    {
      "type": "Feature",
      "geometry": {
        "type": "Polygon",
        "coordinates": [
          [
            [
              25502422.324,
              6675767.662
            ],
            [
              25502424.345,
              6675767.442
            ],
            [
              25502424.798,
              6675771.613
            ],
            [
              25502422.778,
              6675771.833
            ],
            [
              25502422.324,
              6675767.662
            ]
          ]
        ]
      },
      "properties": {
        "confidence": 0.5075,
        "length_m": 4.2,
        "width_m": 2.03,
        "heading_deg": 6.2,
        "aoi": "r3-herttoniemi",
        "source_layer": "Ortoilmakuva_2025_5cm",
        "zoom": 16,
        "status": "confirmed",
        "class": "car"
      }
    },
    {
      "type": "Feature",
      "geometry": {
        "type": "Polygon",
        "coordinates": [
          [
            [
              25502429.613,
              6675467.53
            ],
            [
              25502429.254,
              6675470.08
            ],
            [
              25502422.908,
              6675469.187
            ],
            [
              25502423.266,
              6675466.638
            ],
            [
              25502429.613,
              6675467.53
            ]
          ]
        ]
      },
      "properties": {
        "confidence": 0.4769,
        "length_m": 6.41,
        "width_m": 2.58,
        "heading_deg": 82,
        "aoi": "r3-herttoniemi",
        "source_layer": "Ortoilmakuva_2025_5cm",
        "zoom": 16,
        "status": "rejected",
        "class": ""
      }
    },
    {
      "type": "Feature",
      "geometry": {
        "type": "Polygon",
        "coordinates": [
          [
            [
              25502564.457,
              6675753.676
            ],
            [
              25502565.712,
              6675755.518
            ],
            [
              25502561.769,
              6675758.204
            ],
            [
              25502560.514,
              6675756.362
            ],
            [
              25502564.457,
              6675753.676
            ]
          ]
        ]
      },
      "properties": {
        "confidence": 0.333,
        "length_m": 4.77,
        "width_m": 2.23,
        "heading_deg": 124.3,
        "aoi": "r3-herttoniemi",
        "source_layer": "Ortoilmakuva_2025_5cm",
        "zoom": 16,
        "status": "confirmed",
        "class": "car"
      }
    },
    {
      "type": "Feature",
      "geometry": {
        "type": "Polygon",
        "coordinates": [
          [
            [
              25502441.786,
              6675727.371
            ],
            [
              25502441.856,
              6675729.243
            ],
            [
              25502437.517,
              6675729.407
            ],
            [
              25502437.446,
              6675727.535
            ],
            [
              25502441.786,
              6675727.371
            ]
          ]
        ]
      },
      "properties": {
        "confidence": 0.3224,
        "length_m": 4.34,
        "width_m": 1.87,
        "heading_deg": 92.2,
        "aoi": "r3-herttoniemi",
        "source_layer": "Ortoilmakuva_2025_5cm",
        "zoom": 16,
        "status": "confirmed",
        "class": "car"
      }
    },
    {
      "type": "Feature",
      "geometry": {
        "type": "Polygon",
        "coordinates": [
          [
            [
              25502591.427,
              6675624.819
            ],
            [
              25502587.051,
              6675625.037
            ],
            [
              25502587.151,
              6675627.062
            ],
            [
              25502591.527,
              6675626.844
            ],
            [
              25502591.427,
              6675624.819
            ]
          ]
        ]
      },
      "properties": {
        "confidence": 0.2453,
        "length_m": 4.38,
        "width_m": 2.03,
        "heading_deg": 92.9,
        "aoi": "r3-herttoniemi",
        "source_layer": "Ortoilmakuva_2025_5cm",
        "zoom": 16,
        "status": "confirmed",
        "class": "car"
      }
    },
    {
      "type": "Feature",
      "geometry": {
        "type": "Polygon",
        "coordinates": [
          [
            [
              25502631.007,
              6675550.97
            ],
            [
              25502632.687,
              6675552.304
            ],
            [
              25502629.694,
              6675556.074
            ],
            [
              25502628.013,
              6675554.739
            ],
            [
              25502631.007,
              6675550.97
            ]
          ]
        ]
      },
      "properties": {
        "confidence": 0.2255,
        "length_m": 4.81,
        "width_m": 2.15,
        "heading_deg": 141.6,
        "aoi": "r3-herttoniemi",
        "source_layer": "Ortoilmakuva_2025_5cm",
        "zoom": 16,
        "status": "confirmed",
        "class": "car"
      }
    },
    {
      "type": "Feature",
      "geometry": {
        "type": "Polygon",
        "coordinates": [
          [
            [
              25502598.996,
              6675573.828
            ],
            [
              25502600.898,
              6675575.067
            ],
            [
              25502598.353,
              6675578.974
            ],
            [
              25502596.451,
              6675577.735
            ],
            [
              25502598.996,
              6675573.828
            ]
          ]
        ]
      },
      "properties": {
        "confidence": 0.2042,
        "length_m": 4.66,
        "width_m": 2.27,
        "heading_deg": 146.9,
        "aoi": "r3-herttoniemi",
        "source_layer": "Ortoilmakuva_2025_5cm",
        "zoom": 16,
        "status": "confirmed",
        "class": "car"
      }
    },
    {
      "type": "Feature",
      "geometry": {
        "type": "Polygon",
        "coordinates": [
          [
            [
              25502430.02,
              6675767.565
            ],
            [
              25502432.146,
              6675767.47
            ],
            [
              25502432.326,
              6675771.502
            ],
            [
              25502430.2,
              6675771.597
            ],
            [
              25502430.02,
              6675767.565
            ]
          ]
        ]
      },
      "properties": {
        "confidence": 0.1269,
        "length_m": 4.04,
        "width_m": 2.13,
        "heading_deg": 2.6,
        "aoi": "r3-herttoniemi",
        "source_layer": "Ortoilmakuva_2025_5cm",
        "zoom": 16,
        "status": "confirmed",
        "class": "car"
      }
    },
    {
      "type": "Feature",
      "geometry": {
        "type": "Polygon",
        "coordinates": [
          [
            [
              25502534.532,
              6675769.472
            ],
            [
              25502529.794,
              6675770.081
            ],
            [
              25502530.062,
              6675772.164
            ],
            [
              25502534.8,
              6675771.555
            ],
            [
              25502534.532,
              6675769.472
            ]
          ]
        ]
      },
      "properties": {
        "class": "car",
        "status": "added",
        "confidence": null,
        "aoi": "r3-herttoniemi",
        "source_layer": "Ortoilmakuva_2025_5cm",
        "zoom": 16,
        "length_m": 4.78,
        "width_m": 2.1,
        "heading_deg": 97.3
      }
    },
    {
      "type": "Feature",
      "geometry": {
        "type": "Polygon",
        "coordinates": [
          [
            [
              25502618.05,
              6675593.888
            ],
            [
              25502615.085,
              6675591.878
            ],
            [
              25502614.187,
              6675593.202
            ],
            [
              25502617.152,
              6675595.212
            ],
            [
              25502618.05,
              6675593.888
            ]
          ]
        ]
      },
      "properties": {
        "class": "car",
        "status": "added",
        "confidence": null,
        "aoi": "r3-herttoniemi",
        "source_layer": "Ortoilmakuva_2025_5cm",
        "zoom": 16,
        "length_m": 3.58,
        "width_m": 1.6,
        "heading_deg": 55.9
      }
    },
    {
      "type": "Feature",
      "geometry": {
        "type": "Polygon",
        "coordinates": [
          [
            [
              25502624.631,
              6675667.549
            ],
            [
              25502629.322,
              6675663.722
            ],
            [
              25502628.058,
              6675662.172
            ],
            [
              25502623.367,
              6675665.999
            ],
            [
              25502624.631,
              6675667.549
            ]
          ]
        ]
      },
      "properties": {
        "class": "van",
        "status": "added",
        "confidence": null,
        "aoi": "r3-herttoniemi",
        "source_layer": "Ortoilmakuva_2025_5cm",
        "zoom": 16,
        "length_m": 6.05,
        "width_m": 2,
        "heading_deg": 129.2
      }
    },
    {
      "type": "Feature",
      "geometry": {
        "type": "Polygon",
        "coordinates": [
          [
            [
              25502453.517,
              6675768.816
            ],
            [
              25502453.068,
              6675764.201
            ],
            [
              25502450.978,
              6675764.404
            ],
            [
              25502451.426,
              6675769.019
            ],
            [
              25502453.517,
              6675768.816
            ]
          ]
        ]
      },
      "properties": {
        "class": "car",
        "status": "added",
        "confidence": null,
        "aoi": "r3-herttoniemi",
        "source_layer": "Ortoilmakuva_2025_5cm",
        "zoom": 16,
        "length_m": 4.64,
        "width_m": 2.1,
        "heading_deg": 5.6
      }
    },
    {
      "type": "Feature",
      "geometry": {
        "type": "Polygon",
        "coordinates": [
          [
            [
              25502447.193,
              6675726.428
            ],
            [
              25502442.665,
              6675726.834
            ],
            [
              25502442.856,
              6675728.963
            ],
            [
              25502447.384,
              6675728.556
            ],
            [
              25502447.193,
              6675726.428
            ]
          ]
        ]
      },
      "properties": {
        "class": "car",
        "status": "added",
        "confidence": null,
        "aoi": "r3-herttoniemi",
        "source_layer": "Ortoilmakuva_2025_5cm",
        "zoom": 16,
        "length_m": 4.55,
        "width_m": 2.14,
        "heading_deg": 95.1
      }
    },
    {
      "type": "Feature",
      "geometry": {
        "type": "Polygon",
        "coordinates": [
          [
            [
              25502456.086,
              6675725.251
            ],
            [
              25502459.306,
              6675728.608
            ],
            [
              25502460.848,
              6675727.129
            ],
            [
              25502457.628,
              6675723.772
            ],
            [
              25502456.086,
              6675725.251
            ]
          ]
        ]
      },
      "properties": {
        "class": "car",
        "status": "added",
        "confidence": null,
        "aoi": "r3-herttoniemi",
        "source_layer": "Ortoilmakuva_2025_5cm",
        "zoom": 16,
        "length_m": 4.65,
        "width_m": 2.14,
        "heading_deg": 43.8
      }
    },
    {
      "type": "Feature",
      "geometry": {
        "type": "Polygon",
        "coordinates": [
          [
            [
              25502439.647,
              6675730.885
            ],
            [
              25502434.923,
              6675731.427
            ],
            [
              25502435.166,
              6675733.55
            ],
            [
              25502439.89,
              6675733.008
            ],
            [
              25502439.647,
              6675730.885
            ]
          ]
        ]
      },
      "properties": {
        "class": "car",
        "status": "added",
        "confidence": null,
        "aoi": "r3-herttoniemi",
        "source_layer": "Ortoilmakuva_2025_5cm",
        "zoom": 16,
        "length_m": 4.76,
        "width_m": 2.14,
        "heading_deg": 96.5
      }
    }
  ]
}
