{
  "type": "FeatureCollection",
  "crs": {
    "type": "name",
    "properties": {
      "name": "urn:ogc:def:crs:EPSG::3879"
    }
  },
  "features": [
    {
      "type": "Feature",
      "geometry": {
        "type": "Polygon",
        "coordinates": [
          [
            [
              25504108.862,
              6683938.255
            ],
            [
              25504112.032,
              6683938.751
            ],
            [
              25504110.239,
              6683950.214
            ],
            [
              25504107.068,
              6683949.718
            ],
            [
              25504108.862,
              6683938.255
            ]
          ]
        ]
      },
      "properties": {
        "confidence": 0.9458,
        "length_m": 11.6,
        "width_m": 3.21,
        "heading_deg": 171.1,
        "aoi": "r4-orakas",
        "source_layer": "Ortoilmakuva_2025_5cm",
        "zoom": 16,
        "status": "confirmed",
        "class": "truck"
      }
    },
    {
      "type": "Feature",
      "geometry": {
        "type": "Polygon",
        "coordinates": [
          [
            [
              25503949.55,
              6684180.492
            ],
            [
              25503949.731,
              6684182.895
            ],
            [
              25503944.814,
              6684183.265
            ],
            [
              25503944.634,
              6684180.862
            ],
            [
              25503949.55,
              6684180.492
            ]
          ]
        ]
      },
      "properties": {
        "confidence": 0.9441,
        "length_m": 4.93,
        "width_m": 2.41,
        "heading_deg": 94.3,
        "aoi": "r4-orakas",
        "source_layer": "Ortoilmakuva_2025_5cm",
        "zoom": 16,
        "status": "confirmed",
        "class": "car"
      }
    },
    {
      "type": "Feature",
      "geometry": {
        "type": "Polygon",
        "coordinates": [
          [
            [
              25503953.859,
              6684199.336
            ],
            [
              25503954.508,
              6684201.398
            ],
            [
              25503949.714,
              6684202.906
            ],
            [
              25503949.066,
              6684200.844
            ],
            [
              25503953.859,
              6684199.336
            ]
          ]
        ]
      },
      "properties": {
        "confidence": 0.943,
        "length_m": 5.03,
        "width_m": 2.16,
        "heading_deg": 107.5,
        "aoi": "r4-orakas",
        "source_layer": "Ortoilmakuva_2025_5cm",
        "zoom": 16,
        "status": "confirmed",
        "class": "car"
      }
    },
    {
      "type": "Feature",
      "geometry": {
        "type": "Polygon",
        "coordinates": [
          [
            [
              25503941.764,
              6684198.997
            ],
            [
              25503942.246,
              6684201.206
            ],
            [
              25503937.289,
              6684202.286
            ],
            [
              25503936.807,
              6684200.077
            ],
            [
              25503941.764,
              6684198.997
            ]
          ]
        ]
      },
      "properties": {
        "confidence": 0.9418,
        "length_m": 5.07,
        "width_m": 2.26,
        "heading_deg": 102.3,
        "aoi": "r4-orakas",
        "source_layer": "Ortoilmakuva_2025_5cm",
        "zoom": 16,
        "status": "confirmed",
        "class": "car"
      }
    },
    {
      "type": "Feature",
      "geometry": {
        "type": "Polygon",
        "coordinates": [
          [
            [
              25503981.409,
              6684085.381
            ],
            [
              25503983.576,
              6684085.642
            ],
            [
              25503983.044,
              6684090.046
            ],
            [
              25503980.878,
              6684089.785
            ],
            [
              25503981.409,
              6684085.381
            ]
          ]
        ]
      },
      "properties": {
        "confidence": 0.941,
        "length_m": 4.44,
        "width_m": 2.18,
        "heading_deg": 173.1,
        "aoi": "r4-orakas",
        "source_layer": "Ortoilmakuva_2025_5cm",
        "zoom": 16,
        "status": "confirmed",
        "class": "car"
      }
    },
    {
      "type": "Feature",
      "geometry": {
        "type": "Polygon",
        "coordinates": [
          [
            [
              25503940.331,
              6684194.457
            ],
            [
              25503940.836,
              6684196.58
            ],
            [
              25503936.402,
              6684197.634
            ],
            [
              25503935.898,
              6684195.511
            ],
            [
              25503940.331,
              6684194.457
            ]
          ]
        ]
      },
      "properties": {
        "confidence": 0.9396,
        "length_m": 4.56,
        "width_m": 2.18,
        "heading_deg": 103.4,
        "aoi": "r4-orakas",
        "source_layer": "Ortoilmakuva_2025_5cm",
        "zoom": 16,
        "status": "confirmed",
        "class": "car"
      }
    },
    {
      "type": "Feature",
      "geometry": {
        "type": "Polygon",
        "coordinates": [
          [
            [
              25503956.535,
              6684082.386
            ],
            [
              25503958.622,
              6684082.578
            ],
            [
              25503958.25,
              6684086.612
            ],
            [
              25503956.163,
              6684086.42
            ],
            [
              25503956.535,
              6684082.386
            ]
          ]
        ]
      },
      "properties": {
        "confidence": 0.9389,
        "length_m": 4.05,
        "width_m": 2.1,
        "heading_deg": 174.7,
        "aoi": "r4-orakas",
        "source_layer": "Ortoilmakuva_2025_5cm",
        "zoom": 16,
        "status": "confirmed",
        "class": "car"
      }
    },
    {
      "type": "Feature",
      "geometry": {
        "type": "Polygon",
        "coordinates": [
          [
            [
              25504101.344,
              6683992.889
            ],
            [
              25504090.295,
              6683991.421
            ],
            [
              25504089.851,
              6683994.768
            ],
            [
              25504100.9,
              6683996.235
            ],
            [
              25504101.344,
              6683992.889
            ]
          ]
        ]
      },
      "properties": {
        "confidence": 0.9339,
        "length_m": 11.15,
        "width_m": 3.38,
        "heading_deg": 82.4,
        "aoi": "r4-orakas",
        "source_layer": "Ortoilmakuva_2025_5cm",
        "zoom": 16,
        "status": "confirmed",
        "class": "truck"
      }
    },
    {
      "type": "Feature",
      "geometry": {
        "type": "Polygon",
        "coordinates": [
          [
            [
              25503939.124,
              6684080.21
            ],
            [
              25503941.286,
              6684080.435
            ],
            [
              25503940.846,
              6684084.669
            ],
            [
              25503938.685,
              6684084.444
            ],
            [
              25503939.124,
              6684080.21
            ]
          ]
        ]
      },
      "properties": {
        "confidence": 0.9339,
        "length_m": 4.26,
        "width_m": 2.17,
        "heading_deg": 174.1,
        "aoi": "r4-orakas",
        "source_layer": "Ortoilmakuva_2025_5cm",
        "zoom": 16,
        "status": "confirmed",
        "class": "car"
      }
    },
    {
      "type": "Feature",
      "geometry": {
        "type": "Polygon",
        "coordinates": [
          [
            [
              25503958.158,
              6684210.584
            ],
            [
              25503958.969,
              6684212.46
            ],
            [
              25503954.811,
              6684214.258
            ],
            [
              25503954,
              6684212.382
            ],
            [
              25503958.158,
              6684210.584
            ]
          ]
        ]
      },
      "properties": {
        "confidence": 0.9333,
        "length_m": 4.53,
        "width_m": 2.04,
        "heading_deg": 113.4,
        "aoi": "r4-orakas",
        "source_layer": "Ortoilmakuva_2025_5cm",
        "zoom": 16,
        "status": "confirmed",
        "class": "car"
      }
    },
    {
      "type": "Feature",
      "geometry": {
        "type": "Polygon",
        "coordinates": [
          [
            [
              25503949.084,
              6684080.608
            ],
            [
              25503951.461,
              6684080.96
            ],
            [
              25503950.73,
              6684085.896
            ],
            [
              25503948.353,
              6684085.544
            ],
            [
              25503949.084,
              6684080.608
            ]
          ]
        ]
      },
      "properties": {
        "confidence": 0.9332,
        "length_m": 4.99,
        "width_m": 2.4,
        "heading_deg": 171.6,
        "aoi": "r4-orakas",
        "source_layer": "Ortoilmakuva_2025_5cm",
        "zoom": 16,
        "status": "confirmed",
        "class": "car"
      }
    },
    {
      "type": "Feature",
      "geometry": {
        "type": "Polygon",
        "coordinates": [
          [
            [
              25504228.972,
              6684115.861
            ],
            [
              25504230.109,
              6684118.002
            ],
            [
              25504224.806,
              6684120.818
            ],
            [
              25504223.669,
              6684118.677
            ],
            [
              25504228.972,
              6684115.861
            ]
          ]
        ]
      },
      "properties": {
        "confidence": 0.9326,
        "length_m": 6,
        "width_m": 2.42,
        "heading_deg": 118,
        "aoi": "r4-orakas",
        "source_layer": "Ortoilmakuva_2025_5cm",
        "zoom": 16,
        "status": "confirmed",
        "class": "van"
      }
    },
    {
      "type": "Feature",
      "geometry": {
        "type": "Polygon",
        "coordinates": [
          [
            [
              25504101.269,
              6684001.373
            ],
            [
              25504103.694,
              6684001.681
            ],
            [
              25504103.037,
              6684006.852
            ],
            [
              25504100.612,
              6684006.544
            ],
            [
              25504101.269,
              6684001.373
            ]
          ]
        ]
      },
      "properties": {
        "confidence": 0.9315,
        "length_m": 5.21,
        "width_m": 2.44,
        "heading_deg": 172.8,
        "aoi": "r4-orakas",
        "source_layer": "Ortoilmakuva_2025_5cm",
        "zoom": 16,
        "status": "confirmed",
        "class": "car"
      }
    },
    {
      "type": "Feature",
      "geometry": {
        "type": "Polygon",
        "coordinates": [
          [
            [
              25504111.072,
              6683923.293
            ],
            [
              25504113.359,
              6683923.51
            ],
            [
              25504112.917,
              6683928.167
            ],
            [
              25504110.63,
              6683927.95
            ],
            [
              25504111.072,
              6683923.293
            ]
          ]
        ]
      },
      "properties": {
        "confidence": 0.9312,
        "length_m": 4.68,
        "width_m": 2.3,
        "heading_deg": 174.6,
        "aoi": "r4-orakas",
        "source_layer": "Ortoilmakuva_2025_5cm",
        "zoom": 16,
        "status": "confirmed",
        "class": "car"
      }
    },
    {
      "type": "Feature",
      "geometry": {
        "type": "Polygon",
        "coordinates": [
          [
            [
              25503957.247,
              6684087.995
            ],
            [
              25503959.433,
              6684088.36
            ],
            [
              25503958.686,
              6684092.827
            ],
            [
              25503956.5,
              6684092.461
            ],
            [
              25503957.247,
              6684087.995
            ]
          ]
        ]
      },
      "properties": {
        "confidence": 0.931,
        "length_m": 4.53,
        "width_m": 2.22,
        "heading_deg": 170.5,
        "aoi": "r4-orakas",
        "source_layer": "Ortoilmakuva_2025_5cm",
        "zoom": 16,
        "status": "confirmed",
        "class": "car"
      }
    },
    {
      "type": "Feature",
      "geometry": {
        "type": "Polygon",
        "coordinates": [
          [
            [
              25503946.327,
              6684212.745
            ],
            [
              25503947.035,
              6684214.868
            ],
            [
              25503942.54,
              6684216.367
            ],
            [
              25503941.832,
              6684214.244
            ],
            [
              25503946.327,
              6684212.745
            ]
          ]
        ]
      },
      "properties": {
        "confidence": 0.9308,
        "length_m": 4.74,
        "width_m": 2.24,
        "heading_deg": 108.4,
        "aoi": "r4-orakas",
        "source_layer": "Ortoilmakuva_2025_5cm",
        "zoom": 16,
        "status": "confirmed",
        "class": "car"
      }
    },
    {
      "type": "Feature",
      "geometry": {
        "type": "Polygon",
        "coordinates": [
          [
            [
              25504117.747,
              6683923.023
            ],
            [
              25504120.012,
              6683923.199
            ],
            [
              25504119.662,
              6683927.684
            ],
            [
              25504117.398,
              6683927.508
            ],
            [
              25504117.747,
              6683923.023
            ]
          ]
        ]
      },
      "properties": {
        "confidence": 0.93,
        "length_m": 4.5,
        "width_m": 2.27,
        "heading_deg": 175.5,
        "aoi": "r4-orakas",
        "source_layer": "Ortoilmakuva_2025_5cm",
        "zoom": 16,
        "status": "confirmed",
        "class": "car"
      }
    },
    {
      "type": "Feature",
      "geometry": {
        "type": "Polygon",
        "coordinates": [
          [
            [
              25504221.009,
              6684105.505
            ],
            [
              25504223.47,
              6684105.702
            ],
            [
              25504223.059,
              6684110.851
            ],
            [
              25504220.597,
              6684110.654
            ],
            [
              25504221.009,
              6684105.505
            ]
          ]
        ]
      },
      "properties": {
        "confidence": 0.9282,
        "length_m": 5.17,
        "width_m": 2.47,
        "heading_deg": 175.4,
        "aoi": "r4-orakas",
        "source_layer": "Ortoilmakuva_2025_5cm",
        "zoom": 16,
        "status": "confirmed",
        "class": "car"
      }
    },
    {
      "type": "Feature",
      "geometry": {
        "type": "Polygon",
        "coordinates": [
          [
            [
              25504139.581,
              6684217.426
            ],
            [
              25504140.329,
              6684219.481
            ],
            [
              25504135.607,
              6684221.2
            ],
            [
              25504134.859,
              6684219.145
            ],
            [
              25504139.581,
              6684217.426
            ]
          ]
        ]
      },
      "properties": {
        "confidence": 0.9272,
        "length_m": 5.03,
        "width_m": 2.19,
        "heading_deg": 110,
        "aoi": "r4-orakas",
        "source_layer": "Ortoilmakuva_2025_5cm",
        "zoom": 16,
        "status": "confirmed",
        "class": "car"
      }
    },
    {
      "type": "Feature",
      "geometry": {
        "type": "Polygon",
        "coordinates": [
          [
            [
              25503983.878,
              6684085.536
            ],
            [
              25503986.142,
              6684085.729
            ],
            [
              25503985.741,
              6684090.441
            ],
            [
              25503983.476,
              6684090.248
            ],
            [
              25503983.878,
              6684085.536
            ]
          ]
        ]
      },
      "properties": {
        "confidence": 0.9265,
        "length_m": 4.73,
        "width_m": 2.27,
        "heading_deg": 175.1,
        "aoi": "r4-orakas",
        "source_layer": "Ortoilmakuva_2025_5cm",
        "zoom": 16,
        "status": "confirmed",
        "class": "car"
      }
    },
    {
      "type": "Feature",
      "geometry": {
        "type": "Polygon",
        "coordinates": [
          [
            [
              25503954.193,
              6684081.043
            ],
            [
              25503956.454,
              6684081.341
            ],
            [
              25503955.763,
              6684086.591
            ],
            [
              25503953.502,
              6684086.293
            ],
            [
              25503954.193,
              6684081.043
            ]
          ]
        ]
      },
      "properties": {
        "confidence": 0.9251,
        "length_m": 5.3,
        "width_m": 2.28,
        "heading_deg": 172.5,
        "aoi": "r4-orakas",
        "source_layer": "Ortoilmakuva_2025_5cm",
        "zoom": 16,
        "status": "confirmed",
        "class": "car"
      }
    },
    {
      "type": "Feature",
      "geometry": {
        "type": "Polygon",
        "coordinates": [
          [
            [
              25503993.445,
              6684093.646
            ],
            [
              25503995.796,
              6684093.756
            ],
            [
              25503995.566,
              6684098.683
            ],
            [
              25503993.214,
              6684098.573
            ],
            [
              25503993.445,
              6684093.646
            ]
          ]
        ]
      },
      "properties": {
        "confidence": 0.925,
        "length_m": 4.93,
        "width_m": 2.35,
        "heading_deg": 177.3,
        "aoi": "r4-orakas",
        "source_layer": "Ortoilmakuva_2025_5cm",
        "zoom": 16,
        "status": "confirmed",
        "class": "car"
      }
    },
    {
      "type": "Feature",
      "geometry": {
        "type": "Polygon",
        "coordinates": [
          [
            [
              25504134.21,
              6683997.236
            ],
            [
              25504133.93,
              6683999.459
            ],
            [
              25504129.175,
              6683998.861
            ],
            [
              25504129.455,
              6683996.638
            ],
            [
              25504134.21,
              6683997.236
            ]
          ]
        ]
      },
      "properties": {
        "confidence": 0.9245,
        "length_m": 4.79,
        "width_m": 2.24,
        "heading_deg": 82.8,
        "aoi": "r4-orakas",
        "source_layer": "Ortoilmakuva_2025_5cm",
        "zoom": 16,
        "status": "confirmed",
        "class": "car"
      }
    },
    {
      "type": "Feature",
      "geometry": {
        "type": "Polygon",
        "coordinates": [
          [
            [
              25504001.073,
              6684087.941
            ],
            [
              25504003.358,
              6684088.123
            ],
            [
              25504002.978,
              6684092.892
            ],
            [
              25504000.693,
              6684092.71
            ],
            [
              25504001.073,
              6684087.941
            ]
          ]
        ]
      },
      "properties": {
        "confidence": 0.9245,
        "length_m": 4.78,
        "width_m": 2.29,
        "heading_deg": 175.4,
        "aoi": "r4-orakas",
        "source_layer": "Ortoilmakuva_2025_5cm",
        "zoom": 16,
        "status": "confirmed",
        "class": "car"
      }
    },
    {
      "type": "Feature",
      "geometry": {
        "type": "Polygon",
        "coordinates": [
          [
            [
              25504215.903,
              6684199.48
            ],
            [
              25504215.202,
              6684201.74
            ],
            [
              25504210.495,
              6684200.28
            ],
            [
              25504211.196,
              6684198.02
            ],
            [
              25504215.903,
              6684199.48
            ]
          ]
        ]
      },
      "properties": {
        "confidence": 0.9231,
        "length_m": 4.93,
        "width_m": 2.37,
        "heading_deg": 72.8,
        "aoi": "r4-orakas",
        "source_layer": "Ortoilmakuva_2025_5cm",
        "zoom": 16,
        "status": "confirmed",
        "class": "car"
      }
    },
    {
      "type": "Feature",
      "geometry": {
        "type": "Polygon",
        "coordinates": [
          [
            [
              25504057.647,
              6683948.108
            ],
            [
              25504047.885,
              6683947.858
            ],
            [
              25504047.812,
              6683950.697
            ],
            [
              25504057.575,
              6683950.946
            ],
            [
              25504057.647,
              6683948.108
            ]
          ]
        ]
      },
      "properties": {
        "confidence": 0.9211,
        "length_m": 9.77,
        "width_m": 2.84,
        "heading_deg": 88.5,
        "aoi": "r4-orakas",
        "source_layer": "Ortoilmakuva_2025_5cm",
        "zoom": 16,
        "status": "confirmed",
        "class": "truck"
      }
    },
    {
      "type": "Feature",
      "geometry": {
        "type": "Polygon",
        "coordinates": [
          [
            [
              25503988.279,
              6684075.382
            ],
            [
              25503990.367,
              6684075.612
            ],
            [
              25503989.899,
              6684079.862
            ],
            [
              25503987.812,
              6684079.633
            ],
            [
              25503988.279,
              6684075.382
            ]
          ]
        ]
      },
      "properties": {
        "confidence": 0.9204,
        "length_m": 4.28,
        "width_m": 2.1,
        "heading_deg": 173.7,
        "aoi": "r4-orakas",
        "source_layer": "Ortoilmakuva_2025_5cm",
        "zoom": 16,
        "status": "confirmed",
        "class": "car"
      }
    },
    {
      "type": "Feature",
      "geometry": {
        "type": "Polygon",
        "coordinates": [
          [
            [
              25504100.984,
              6683938.568
            ],
            [
              25504104.014,
              6683938.982
            ],
            [
              25504102.59,
              6683949.405
            ],
            [
              25504099.56,
              6683948.991
            ],
            [
              25504100.984,
              6683938.568
            ]
          ]
        ]
      },
      "properties": {
        "confidence": 0.9203,
        "length_m": 10.52,
        "width_m": 3.06,
        "heading_deg": 172.2,
        "aoi": "r4-orakas",
        "source_layer": "Ortoilmakuva_2025_5cm",
        "zoom": 16,
        "status": "confirmed",
        "class": "truck"
      }
    },
    {
      "type": "Feature",
      "geometry": {
        "type": "Polygon",
        "coordinates": [
          [
            [
              25504132.096,
              6683925.721
            ],
            [
              25504134.178,
              6683925.838
            ],
            [
              25504133.94,
              6683930.051
            ],
            [
              25504131.858,
              6683929.934
            ],
            [
              25504132.096,
              6683925.721
            ]
          ]
        ]
      },
      "properties": {
        "confidence": 0.9202,
        "length_m": 4.22,
        "width_m": 2.09,
        "heading_deg": 176.8,
        "aoi": "r4-orakas",
        "source_layer": "Ortoilmakuva_2025_5cm",
        "zoom": 16,
        "status": "confirmed",
        "class": "car"
      }
    },
    {
      "type": "Feature",
      "geometry": {
        "type": "Polygon",
        "coordinates": [
          [
            [
              25503971.806,
              6684082.991
            ],
            [
              25503974.168,
              6684083.452
            ],
            [
              25503973.13,
              6684088.778
            ],
            [
              25503970.768,
              6684088.318
            ],
            [
              25503971.806,
              6684082.991
            ]
          ]
        ]
      },
      "properties": {
        "confidence": 0.9194,
        "length_m": 5.43,
        "width_m": 2.41,
        "heading_deg": 169,
        "aoi": "r4-orakas",
        "source_layer": "Ortoilmakuva_2025_5cm",
        "zoom": 16,
        "status": "confirmed",
        "class": "car"
      }
    },
    {
      "type": "Feature",
      "geometry": {
        "type": "Polygon",
        "coordinates": [
          [
            [
              25503974.599,
              6684083.757
            ],
            [
              25503976.83,
              6684084.289
            ],
            [
              25503975.612,
              6684089.401
            ],
            [
              25503973.381,
              6684088.87
            ],
            [
              25503974.599,
              6684083.757
            ]
          ]
        ]
      },
      "properties": {
        "confidence": 0.9193,
        "length_m": 5.26,
        "width_m": 2.29,
        "heading_deg": 166.6,
        "aoi": "r4-orakas",
        "source_layer": "Ortoilmakuva_2025_5cm",
        "zoom": 16,
        "status": "confirmed",
        "class": "car"
      }
    },
    {
      "type": "Feature",
      "geometry": {
        "type": "Polygon",
        "coordinates": [
          [
            [
              25504187.92,
              6684003.14
            ],
            [
              25504183.32,
              6683994.611
            ],
            [
              25504180.814,
              6683995.962
            ],
            [
              25504185.414,
              6684004.491
            ],
            [
              25504187.92,
              6684003.14
            ]
          ]
        ]
      },
      "properties": {
        "confidence": 0.9191,
        "length_m": 9.69,
        "width_m": 2.85,
        "heading_deg": 28.3,
        "aoi": "r4-orakas",
        "source_layer": "Ortoilmakuva_2025_5cm",
        "zoom": 16,
        "status": "confirmed",
        "class": "truck"
      }
    },
    {
      "type": "Feature",
      "geometry": {
        "type": "Polygon",
        "coordinates": [
          [
            [
              25504226.949,
              6684105.531
            ],
            [
              25504229.159,
              6684105.748
            ],
            [
              25504228.677,
              6684110.641
            ],
            [
              25504226.467,
              6684110.424
            ],
            [
              25504226.949,
              6684105.531
            ]
          ]
        ]
      },
      "properties": {
        "confidence": 0.9188,
        "length_m": 4.92,
        "width_m": 2.22,
        "heading_deg": 174.4,
        "aoi": "r4-orakas",
        "source_layer": "Ortoilmakuva_2025_5cm",
        "zoom": 16,
        "status": "confirmed",
        "class": "car"
      }
    },
    {
      "type": "Feature",
      "geometry": {
        "type": "Polygon",
        "coordinates": [
          [
            [
              25504200.783,
              6684001.619
            ],
            [
              25504195.7,
              6683993.038
            ],
            [
              25504193.099,
              6683994.578
            ],
            [
              25504198.183,
              6684003.159
            ],
            [
              25504200.783,
              6684001.619
            ]
          ]
        ]
      },
      "properties": {
        "confidence": 0.9175,
        "length_m": 9.97,
        "width_m": 3.02,
        "heading_deg": 30.6,
        "aoi": "r4-orakas",
        "source_layer": "Ortoilmakuva_2025_5cm",
        "zoom": 16,
        "status": "confirmed",
        "class": "truck"
      }
    },
    {
      "type": "Feature",
      "geometry": {
        "type": "Polygon",
        "coordinates": [
          [
            [
              25503947.357,
              6684086.701
            ],
            [
              25503949.714,
              6684086.94
            ],
            [
              25503949.202,
              6684091.978
            ],
            [
              25503946.845,
              6684091.739
            ],
            [
              25503947.357,
              6684086.701
            ]
          ]
        ]
      },
      "properties": {
        "confidence": 0.917,
        "length_m": 5.06,
        "width_m": 2.37,
        "heading_deg": 174.2,
        "aoi": "r4-orakas",
        "source_layer": "Ortoilmakuva_2025_5cm",
        "zoom": 16,
        "status": "confirmed",
        "class": "car"
      }
    },
    {
      "type": "Feature",
      "geometry": {
        "type": "Polygon",
        "coordinates": [
          [
            [
              25503973.683,
              6684121.479
            ],
            [
              25503975.927,
              6684121.742
            ],
            [
              25503975.328,
              6684126.855
            ],
            [
              25503973.084,
              6684126.592
            ],
            [
              25503973.683,
              6684121.479
            ]
          ]
        ]
      },
      "properties": {
        "confidence": 0.9161,
        "length_m": 5.15,
        "width_m": 2.26,
        "heading_deg": 173.3,
        "aoi": "r4-orakas",
        "source_layer": "Ortoilmakuva_2025_5cm",
        "zoom": 16,
        "status": "confirmed",
        "class": "car"
      }
    },
    {
      "type": "Feature",
      "geometry": {
        "type": "Polygon",
        "coordinates": [
          [
            [
              25504214.39,
              6684010.767
            ],
            [
              25504211.544,
              6684000.532
            ],
            [
              25504208.711,
              6684001.319
            ],
            [
              25504211.556,
              6684011.555
            ],
            [
              25504214.39,
              6684010.767
            ]
          ]
        ]
      },
      "properties": {
        "confidence": 0.9152,
        "length_m": 10.62,
        "width_m": 2.94,
        "heading_deg": 15.5,
        "aoi": "r4-orakas",
        "source_layer": "Ortoilmakuva_2025_5cm",
        "zoom": 16,
        "status": "confirmed",
        "class": "truck"
      }
    },
    {
      "type": "Feature",
      "geometry": {
        "type": "Polygon",
        "coordinates": [
          [
            [
              25503955.683,
              6684205.813
            ],
            [
              25503956.746,
              6684207.992
            ],
            [
              25503952.278,
              6684210.171
            ],
            [
              25503951.215,
              6684207.992
            ],
            [
              25503955.683,
              6684205.813
            ]
          ]
        ]
      },
      "properties": {
        "confidence": 0.9151,
        "length_m": 4.97,
        "width_m": 2.42,
        "heading_deg": 116,
        "aoi": "r4-orakas",
        "source_layer": "Ortoilmakuva_2025_5cm",
        "zoom": 16,
        "status": "confirmed",
        "class": "car"
      }
    },
    {
      "type": "Feature",
      "geometry": {
        "type": "Polygon",
        "coordinates": [
          [
            [
              25504116.869,
              6684206.625
            ],
            [
              25504116.771,
              6684208.652
            ],
            [
              25504112.392,
              6684208.442
            ],
            [
              25504112.489,
              6684206.415
            ],
            [
              25504116.869,
              6684206.625
            ]
          ]
        ]
      },
      "properties": {
        "confidence": 0.9131,
        "length_m": 4.38,
        "width_m": 2.03,
        "heading_deg": 87.3,
        "aoi": "r4-orakas",
        "source_layer": "Ortoilmakuva_2025_5cm",
        "zoom": 16,
        "status": "confirmed",
        "class": "car"
      }
    },
    {
      "type": "Feature",
      "geometry": {
        "type": "Polygon",
        "coordinates": [
          [
            [
              25503969.157,
              6684083.087
            ],
            [
              25503971.379,
              6684083.399
            ],
            [
              25503970.645,
              6684088.629
            ],
            [
              25503968.423,
              6684088.317
            ],
            [
              25503969.157,
              6684083.087
            ]
          ]
        ]
      },
      "properties": {
        "confidence": 0.9112,
        "length_m": 5.28,
        "width_m": 2.24,
        "heading_deg": 172,
        "aoi": "r4-orakas",
        "source_layer": "Ortoilmakuva_2025_5cm",
        "zoom": 16,
        "status": "confirmed",
        "class": "car"
      }
    },
    {
      "type": "Feature",
      "geometry": {
        "type": "Polygon",
        "coordinates": [
          [
            [
              25504113.611,
              6683923.17
            ],
            [
              25504115.733,
              6683923.29
            ],
            [
              25504115.466,
              6683927.99
            ],
            [
              25504113.344,
              6683927.869
            ],
            [
              25504113.611,
              6683923.17
            ]
          ]
        ]
      },
      "properties": {
        "confidence": 0.9112,
        "length_m": 4.71,
        "width_m": 2.13,
        "heading_deg": 176.7,
        "aoi": "r4-orakas",
        "source_layer": "Ortoilmakuva_2025_5cm",
        "zoom": 16,
        "status": "confirmed",
        "class": "car"
      }
    },
    {
      "type": "Feature",
      "geometry": {
        "type": "Polygon",
        "coordinates": [
          [
            [
              25504024.988,
              6684138.661
            ],
            [
              25504024.897,
              6684140.599
            ],
            [
              25504020.649,
              6684140.399
            ],
            [
              25504020.74,
              6684138.461
            ],
            [
              25504024.988,
              6684138.661
            ]
          ]
        ]
      },
      "properties": {
        "confidence": 0.9094,
        "length_m": 4.25,
        "width_m": 1.94,
        "heading_deg": 87.3,
        "aoi": "r4-orakas",
        "source_layer": "Ortoilmakuva_2025_5cm",
        "zoom": 16,
        "status": "confirmed",
        "class": "car"
      }
    },
    {
      "type": "Feature",
      "geometry": {
        "type": "Polygon",
        "coordinates": [
          [
            [
              25504182.183,
              6683955.679
            ],
            [
              25504181.754,
              6683957.684
            ],
            [
              25504177.12,
              6683956.693
            ],
            [
              25504177.549,
              6683954.688
            ],
            [
              25504182.183,
              6683955.679
            ]
          ]
        ]
      },
      "properties": {
        "confidence": 0.9081,
        "length_m": 4.74,
        "width_m": 2.05,
        "heading_deg": 77.9,
        "aoi": "r4-orakas",
        "source_layer": "Ortoilmakuva_2025_5cm",
        "zoom": 16,
        "status": "confirmed",
        "class": "car"
      }
    },
    {
      "type": "Feature",
      "geometry": {
        "type": "Polygon",
        "coordinates": [
          [
            [
              25504089.246,
              6684037.416
            ],
            [
              25504088.8,
              6684039.47
            ],
            [
              25504084.362,
              6684038.505
            ],
            [
              25504084.809,
              6684036.451
            ],
            [
              25504089.246,
              6684037.416
            ]
          ]
        ]
      },
      "properties": {
        "confidence": 0.9081,
        "length_m": 4.54,
        "width_m": 2.1,
        "heading_deg": 77.7,
        "aoi": "r4-orakas",
        "source_layer": "Ortoilmakuva_2025_5cm",
        "zoom": 16,
        "status": "confirmed",
        "class": "car"
      }
    },
    {
      "type": "Feature",
      "geometry": {
        "type": "Polygon",
        "coordinates": [
          [
            [
              25504207.28,
              6684219.309
            ],
            [
              25504209.472,
              6684218.642
            ],
            [
              25504210.881,
              6684223.27
            ],
            [
              25504208.689,
              6684223.937
            ],
            [
              25504207.28,
              6684219.309
            ]
          ]
        ]
      },
      "properties": {
        "confidence": 0.9075,
        "length_m": 4.84,
        "width_m": 2.29,
        "heading_deg": 16.9,
        "aoi": "r4-orakas",
        "source_layer": "Ortoilmakuva_2025_5cm",
        "zoom": 16,
        "status": "confirmed",
        "class": "car"
      }
    },
    {
      "type": "Feature",
      "geometry": {
        "type": "Polygon",
        "coordinates": [
          [
            [
              25504073.599,
              6683942.416
            ],
            [
              25504073.42,
              6683944.613
            ],
            [
              25504068.382,
              6683944.203
            ],
            [
              25504068.561,
              6683942.005
            ],
            [
              25504073.599,
              6683942.416
            ]
          ]
        ]
      },
      "properties": {
        "confidence": 0.9068,
        "length_m": 5.05,
        "width_m": 2.2,
        "heading_deg": 85.3,
        "aoi": "r4-orakas",
        "source_layer": "Ortoilmakuva_2025_5cm",
        "zoom": 16,
        "status": "confirmed",
        "class": "van"
      }
    },
    {
      "type": "Feature",
      "geometry": {
        "type": "Polygon",
        "coordinates": [
          [
            [
              25504174.507,
              6683994.102
            ],
            [
              25504176.819,
              6683992.847
            ],
            [
              25504181.206,
              6684000.924
            ],
            [
              25504178.895,
              6684002.179
            ],
            [
              25504174.507,
              6683994.102
            ]
          ]
        ]
      },
      "properties": {
        "confidence": 0.9058,
        "length_m": 9.19,
        "width_m": 2.63,
        "heading_deg": 28.5,
        "aoi": "r4-orakas",
        "source_layer": "Ortoilmakuva_2025_5cm",
        "zoom": 16,
        "status": "confirmed",
        "class": "truck"
      }
    },
    {
      "type": "Feature",
      "geometry": {
        "type": "Polygon",
        "coordinates": [
          [
            [
              25504163.327,
              6683958.842
            ],
            [
              25504162.76,
              6683960.71
            ],
            [
              25504158.565,
              6683959.436
            ],
            [
              25504159.132,
              6683957.569
            ],
            [
              25504163.327,
              6683958.842
            ]
          ]
        ]
      },
      "properties": {
        "confidence": 0.9027,
        "length_m": 4.38,
        "width_m": 1.95,
        "heading_deg": 73.1,
        "aoi": "r4-orakas",
        "source_layer": "Ortoilmakuva_2025_5cm",
        "zoom": 16,
        "status": "confirmed",
        "class": "car"
      }
    },
    {
      "type": "Feature",
      "geometry": {
        "type": "Polygon",
        "coordinates": [
          [
            [
              25504193.059,
              6684004.944
            ],
            [
              25504188.516,
              6683995.889
            ],
            [
              25504185.968,
              6683997.168
            ],
            [
              25504190.511,
              6684006.223
            ],
            [
              25504193.059,
              6684004.944
            ]
          ]
        ]
      },
      "properties": {
        "confidence": 0.9013,
        "length_m": 10.13,
        "width_m": 2.85,
        "heading_deg": 26.6,
        "aoi": "r4-orakas",
        "source_layer": "Ortoilmakuva_2025_5cm",
        "zoom": 16,
        "status": "confirmed",
        "class": "truck"
      }
    },
    {
      "type": "Feature",
      "geometry": {
        "type": "Polygon",
        "coordinates": [
          [
            [
              25503980.819,
              6684073.831
            ],
            [
              25503983.047,
              6684074.19
            ],
            [
              25503982.302,
              6684078.818
            ],
            [
              25503980.074,
              6684078.459
            ],
            [
              25503980.819,
              6684073.831
            ]
          ]
        ]
      },
      "properties": {
        "confidence": 0.9,
        "length_m": 4.69,
        "width_m": 2.26,
        "heading_deg": 170.9,
        "aoi": "r4-orakas",
        "source_layer": "Ortoilmakuva_2025_5cm",
        "zoom": 16,
        "status": "confirmed",
        "class": "car"
      }
    },
    {
      "type": "Feature",
      "geometry": {
        "type": "Polygon",
        "coordinates": [
          [
            [
              25504081.994,
              6683946.565
            ],
            [
              25504069.49,
              6683945.799
            ],
            [
              25504069.3,
              6683948.907
            ],
            [
              25504081.804,
              6683949.674
            ],
            [
              25504081.994,
              6683946.565
            ]
          ]
        ]
      },
      "properties": {
        "confidence": 0.8973,
        "length_m": 12.53,
        "width_m": 3.11,
        "heading_deg": 86.5,
        "aoi": "r4-orakas",
        "source_layer": "Ortoilmakuva_2025_5cm",
        "zoom": 16,
        "status": "confirmed",
        "class": "truck"
      }
    },
    {
      "type": "Feature",
      "geometry": {
        "type": "Polygon",
        "coordinates": [
          [
            [
              25504086.556,
              6683976.504
            ],
            [
              25504087.862,
              6683967.155
            ],
            [
              25504084.33,
              6683966.662
            ],
            [
              25504083.025,
              6683976.011
            ],
            [
              25504086.556,
              6683976.504
            ]
          ]
        ]
      },
      "properties": {
        "confidence": 0.8943,
        "length_m": 9.44,
        "width_m": 3.57,
        "heading_deg": 172.1,
        "aoi": "r4-orakas",
        "source_layer": "Ortoilmakuva_2025_5cm",
        "zoom": 16,
        "status": "confirmed",
        "class": "truck"
      }
    },
    {
      "type": "Feature",
      "geometry": {
        "type": "Polygon",
        "coordinates": [
          [
            [
              25504187.32,
              6683982.857
            ],
            [
              25504181.066,
              6683982.032
            ],
            [
              25504180.742,
              6683984.488
            ],
            [
              25504186.996,
              6683985.313
            ],
            [
              25504187.32,
              6683982.857
            ]
          ]
        ]
      },
      "properties": {
        "confidence": 0.8929,
        "length_m": 6.31,
        "width_m": 2.48,
        "heading_deg": 82.5,
        "aoi": "r4-orakas",
        "source_layer": "Ortoilmakuva_2025_5cm",
        "zoom": 16,
        "status": "confirmed",
        "class": "van"
      }
    },
    {
      "type": "Feature",
      "geometry": {
        "type": "Polygon",
        "coordinates": [
          [
            [
              25504044.778,
              6683979.057
            ],
            [
              25504046.866,
              6683979.23
            ],
            [
              25504046.443,
              6683984.334
            ],
            [
              25504044.356,
              6683984.162
            ],
            [
              25504044.778,
              6683979.057
            ]
          ]
        ]
      },
      "properties": {
        "confidence": 0.89,
        "length_m": 5.12,
        "width_m": 2.1,
        "heading_deg": 175.3,
        "aoi": "r4-orakas",
        "source_layer": "Ortoilmakuva_2025_5cm",
        "zoom": 16,
        "status": "confirmed",
        "class": "van"
      }
    },
    {
      "type": "Feature",
      "geometry": {
        "type": "Polygon",
        "coordinates": [
          [
            [
              25503985.545,
              6684074.45
            ],
            [
              25503987.714,
              6684074.73
            ],
            [
              25503987.153,
              6684079.078
            ],
            [
              25503984.984,
              6684078.798
            ],
            [
              25503985.545,
              6684074.45
            ]
          ]
        ]
      },
      "properties": {
        "confidence": 0.888,
        "length_m": 4.38,
        "width_m": 2.19,
        "heading_deg": 172.6,
        "aoi": "r4-orakas",
        "source_layer": "Ortoilmakuva_2025_5cm",
        "zoom": 16,
        "status": "confirmed",
        "class": "car"
      }
    },
    {
      "type": "Feature",
      "geometry": {
        "type": "Polygon",
        "coordinates": [
          [
            [
              25504216.92,
              6684112.026
            ],
            [
              25504216.64,
              6684114.294
            ],
            [
              25504209.94,
              6684113.466
            ],
            [
              25504210.22,
              6684111.198
            ],
            [
              25504216.92,
              6684112.026
            ]
          ]
        ]
      },
      "properties": {
        "confidence": 0.8867,
        "length_m": 6.75,
        "width_m": 2.29,
        "heading_deg": 83,
        "aoi": "r4-orakas",
        "source_layer": "Ortoilmakuva_2025_5cm",
        "zoom": 16,
        "status": "confirmed",
        "class": "van"
      }
    },
    {
      "type": "Feature",
      "geometry": {
        "type": "Polygon",
        "coordinates": [
          [
            [
              25504214.587,
              6684116.984
            ],
            [
              25504214.346,
              6684119.48
            ],
            [
              25504209.25,
              6684118.988
            ],
            [
              25504209.491,
              6684116.492
            ],
            [
              25504214.587,
              6684116.984
            ]
          ]
        ]
      },
      "properties": {
        "confidence": 0.8826,
        "length_m": 5.12,
        "width_m": 2.51,
        "heading_deg": 84.5,
        "aoi": "r4-orakas",
        "source_layer": "Ortoilmakuva_2025_5cm",
        "zoom": 16,
        "status": "confirmed",
        "class": "van"
      }
    },
    {
      "type": "Feature",
      "geometry": {
        "type": "Polygon",
        "coordinates": [
          [
            [
              25504112.48,
              6683939.811
            ],
            [
              25504115.736,
              6683940.263
            ],
            [
              25504114.296,
              6683950.655
            ],
            [
              25504111.039,
              6683950.203
            ],
            [
              25504112.48,
              6683939.811
            ]
          ]
        ]
      },
      "properties": {
        "confidence": 0.8752,
        "length_m": 10.49,
        "width_m": 3.29,
        "heading_deg": 172.1,
        "aoi": "r4-orakas",
        "source_layer": "Ortoilmakuva_2025_5cm",
        "zoom": 16,
        "status": "confirmed",
        "class": "truck"
      }
    },
    {
      "type": "Feature",
      "geometry": {
        "type": "Polygon",
        "coordinates": [
          [
            [
              25504224.616,
              6684114.4
            ],
            [
              25504226.047,
              6684116.365
            ],
            [
              25504221.068,
              6684119.991
            ],
            [
              25504219.637,
              6684118.027
            ],
            [
              25504224.616,
              6684114.4
            ]
          ]
        ]
      },
      "properties": {
        "confidence": 0.871,
        "length_m": 6.16,
        "width_m": 2.43,
        "heading_deg": 126.1,
        "aoi": "r4-orakas",
        "source_layer": "Ortoilmakuva_2025_5cm",
        "zoom": 16,
        "status": "confirmed",
        "class": "van"
      }
    },
    {
      "type": "Feature",
      "geometry": {
        "type": "Polygon",
        "coordinates": [
          [
            [
              25504116.12,
              6683941.92
            ],
            [
              25504119.143,
              6683942.278
            ],
            [
              25504118.136,
              6683950.775
            ],
            [
              25504115.113,
              6683950.417
            ],
            [
              25504116.12,
              6683941.92
            ]
          ]
        ]
      },
      "properties": {
        "confidence": 0.8708,
        "length_m": 8.56,
        "width_m": 3.04,
        "heading_deg": 173.2,
        "aoi": "r4-orakas",
        "source_layer": "Ortoilmakuva_2025_5cm",
        "zoom": 16,
        "status": "confirmed",
        "class": "truck"
      }
    },
    {
      "type": "Feature",
      "geometry": {
        "type": "Polygon",
        "coordinates": [
          [
            [
              25504051.166,
              6683975.054
            ],
            [
              25504052.967,
              6683973.77
            ],
            [
              25504056.019,
              6683978.049
            ],
            [
              25504054.218,
              6683979.333
            ],
            [
              25504051.166,
              6683975.054
            ]
          ]
        ]
      },
      "properties": {
        "confidence": 0.8676,
        "length_m": 5.26,
        "width_m": 2.21,
        "heading_deg": 35.5,
        "aoi": "r4-orakas",
        "source_layer": "Ortoilmakuva_2025_5cm",
        "zoom": 16,
        "status": "confirmed",
        "class": "car"
      }
    },
    {
      "type": "Feature",
      "geometry": {
        "type": "Polygon",
        "coordinates": [
          [
            [
              25503936.502,
              6684079.99
            ],
            [
              25503938.63,
              6684080.249
            ],
            [
              25503938.123,
              6684084.428
            ],
            [
              25503935.994,
              6684084.17
            ],
            [
              25503936.502,
              6684079.99
            ]
          ]
        ]
      },
      "properties": {
        "confidence": 0.8624,
        "length_m": 4.21,
        "width_m": 2.14,
        "heading_deg": 173.1,
        "aoi": "r4-orakas",
        "source_layer": "Ortoilmakuva_2025_5cm",
        "zoom": 16,
        "status": "confirmed",
        "class": "car"
      }
    },
    {
      "type": "Feature",
      "geometry": {
        "type": "Polygon",
        "coordinates": [
          [
            [
              25503966.515,
              6684083.229
            ],
            [
              25503968.91,
              6684083.603
            ],
            [
              25503968.116,
              6684088.68
            ],
            [
              25503965.721,
              6684088.306
            ],
            [
              25503966.515,
              6684083.229
            ]
          ]
        ]
      },
      "properties": {
        "confidence": 0.8593,
        "length_m": 5.14,
        "width_m": 2.42,
        "heading_deg": 171.1,
        "aoi": "r4-orakas",
        "source_layer": "Ortoilmakuva_2025_5cm",
        "zoom": 16,
        "status": "confirmed",
        "class": "van"
      }
    },
    {
      "type": "Feature",
      "geometry": {
        "type": "Polygon",
        "coordinates": [
          [
            [
              25504172.896,
              6684165.082
            ],
            [
              25504163.74,
              6684163.836
            ],
            [
              25504163.303,
              6684167.049
            ],
            [
              25504172.458,
              6684168.296
            ],
            [
              25504172.896,
              6684165.082
            ]
          ]
        ]
      },
      "properties": {
        "confidence": 0.8579,
        "length_m": 9.24,
        "width_m": 3.24,
        "heading_deg": 82.2,
        "aoi": "r4-orakas",
        "source_layer": "Ortoilmakuva_2025_5cm",
        "zoom": 16,
        "status": "confirmed",
        "class": "truck"
      }
    },
    {
      "type": "Feature",
      "geometry": {
        "type": "Polygon",
        "coordinates": [
          [
            [
              25504059.011,
              6683976.683
            ],
            [
              25504059.528,
              6683971.828
            ],
            [
              25504057.445,
              6683971.606
            ],
            [
              25504056.929,
              6683976.461
            ],
            [
              25504059.011,
              6683976.683
            ]
          ]
        ]
      },
      "properties": {
        "confidence": 0.8487,
        "length_m": 4.88,
        "width_m": 2.09,
        "heading_deg": 173.9,
        "aoi": "r4-orakas",
        "source_layer": "Ortoilmakuva_2025_5cm",
        "zoom": 16,
        "status": "confirmed",
        "class": "car"
      }
    },
    {
      "type": "Feature",
      "geometry": {
        "type": "Polygon",
        "coordinates": [
          [
            [
              25504083.854,
              6684038.185
            ],
            [
              25504083.289,
              6684040.227
            ],
            [
              25504078.728,
              6684038.966
            ],
            [
              25504079.292,
              6684036.924
            ],
            [
              25504083.854,
              6684038.185
            ]
          ]
        ]
      },
      "properties": {
        "confidence": 0.837,
        "length_m": 4.73,
        "width_m": 2.12,
        "heading_deg": 74.5,
        "aoi": "r4-orakas",
        "source_layer": "Ortoilmakuva_2025_5cm",
        "zoom": 16,
        "status": "confirmed",
        "class": "car"
      }
    },
    {
      "type": "Feature",
      "geometry": {
        "type": "Polygon",
        "coordinates": [
          [
            [
              25504097.555,
              6683938.025
            ],
            [
              25504100.649,
              6683938.54
            ],
            [
              25504098.993,
              6683948.482
            ],
            [
              25504095.899,
              6683947.967
            ],
            [
              25504097.555,
              6683938.025
            ]
          ]
        ]
      },
      "properties": {
        "confidence": 0.8367,
        "length_m": 10.08,
        "width_m": 3.14,
        "heading_deg": 170.5,
        "aoi": "r4-orakas",
        "source_layer": "Ortoilmakuva_2025_5cm",
        "zoom": 16,
        "status": "confirmed",
        "class": "truck"
      }
    },
    {
      "type": "Feature",
      "geometry": {
        "type": "Polygon",
        "coordinates": [
          [
            [
              25504232.639,
              6684106.008
            ],
            [
              25504235.228,
              6684106.26
            ],
            [
              25504234.508,
              6684113.642
            ],
            [
              25504231.919,
              6684113.39
            ],
            [
              25504232.639,
              6684106.008
            ]
          ]
        ]
      },
      "properties": {
        "confidence": 0.8321,
        "length_m": 7.42,
        "width_m": 2.6,
        "heading_deg": 174.4,
        "aoi": "r4-orakas",
        "source_layer": "Ortoilmakuva_2025_5cm",
        "zoom": 16,
        "status": "confirmed",
        "class": "car"
      }
    },
    {
      "type": "Feature",
      "geometry": {
        "type": "Polygon",
        "coordinates": [
          [
            [
              25504175.417,
              6684083.229
            ],
            [
              25504174.372,
              6684085.174
            ],
            [
              25504169.816,
              6684082.726
            ],
            [
              25504170.861,
              6684080.781
            ],
            [
              25504175.417,
              6684083.229
            ]
          ]
        ]
      },
      "properties": {
        "confidence": 0.8178,
        "length_m": 5.17,
        "width_m": 2.21,
        "heading_deg": 61.8,
        "aoi": "r4-orakas",
        "source_layer": "Ortoilmakuva_2025_5cm",
        "zoom": 16,
        "status": "confirmed",
        "class": "van"
      }
    },
    {
      "type": "Feature",
      "geometry": {
        "type": "Polygon",
        "coordinates": [
          [
            [
              25504215.217,
              6684114.35
            ],
            [
              25504214.896,
              6684116.763
            ],
            [
              25504209.247,
              6684116.012
            ],
            [
              25504209.568,
              6684113.599
            ],
            [
              25504215.217,
              6684114.35
            ]
          ]
        ]
      },
      "properties": {
        "confidence": 0.8111,
        "length_m": 5.7,
        "width_m": 2.43,
        "heading_deg": 82.4,
        "aoi": "r4-orakas",
        "source_layer": "Ortoilmakuva_2025_5cm",
        "zoom": 16,
        "status": "confirmed",
        "class": "van"
      }
    },
    {
      "type": "Feature",
      "geometry": {
        "type": "Polygon",
        "coordinates": [
          [
            [
              25504119.976,
              6683940.159
            ],
            [
              25504123.133,
              6683940.615
            ],
            [
              25504121.648,
              6683950.901
            ],
            [
              25504118.492,
              6683950.446
            ],
            [
              25504119.976,
              6683940.159
            ]
          ]
        ]
      },
      "properties": {
        "confidence": 0.8063,
        "length_m": 10.39,
        "width_m": 3.19,
        "heading_deg": 171.8,
        "aoi": "r4-orakas",
        "source_layer": "Ortoilmakuva_2025_5cm",
        "zoom": 16,
        "status": "confirmed",
        "class": "truck"
      }
    },
    {
      "type": "Feature",
      "geometry": {
        "type": "Polygon",
        "coordinates": [
          [
            [
              25504242.067,
              6684128.747
            ],
            [
              25504242.86,
              6684122.642
            ],
            [
              25504240.509,
              6684122.337
            ],
            [
              25504239.716,
              6684128.442
            ],
            [
              25504242.067,
              6684128.747
            ]
          ]
        ]
      },
      "properties": {
        "confidence": 0.7896,
        "length_m": 6.16,
        "width_m": 2.37,
        "heading_deg": 172.6,
        "aoi": "r4-orakas",
        "source_layer": "Ortoilmakuva_2025_5cm",
        "zoom": 16,
        "status": "confirmed",
        "class": "van"
      }
    },
    {
      "type": "Feature",
      "geometry": {
        "type": "Polygon",
        "coordinates": [
          [
            [
              25503992.824,
              6683927.724
            ],
            [
              25503993.762,
              6683929.748
            ],
            [
              25503988.778,
              6683932.056
            ],
            [
              25503987.841,
              6683930.032
            ],
            [
              25503992.824,
              6683927.724
            ]
          ]
        ]
      },
      "properties": {
        "confidence": 0.7895,
        "length_m": 5.49,
        "width_m": 2.23,
        "heading_deg": 114.8,
        "aoi": "r4-orakas",
        "source_layer": "Ortoilmakuva_2025_5cm",
        "zoom": 16,
        "status": "confirmed",
        "class": "van"
      }
    },
    {
      "type": "Feature",
      "geometry": {
        "type": "Polygon",
        "coordinates": [
          [
            [
              25504084.145,
              6684031.768
            ],
            [
              25504086.337,
              6684032.115
            ],
            [
              25504085.659,
              6684036.392
            ],
            [
              25504083.467,
              6684036.045
            ],
            [
              25504084.145,
              6684031.768
            ]
          ]
        ]
      },
      "properties": {
        "confidence": 0.778,
        "length_m": 4.33,
        "width_m": 2.22,
        "heading_deg": 171,
        "aoi": "r4-orakas",
        "source_layer": "Ortoilmakuva_2025_5cm",
        "zoom": 16,
        "status": "confirmed",
        "class": "car"
      }
    },
    {
      "type": "Feature",
      "geometry": {
        "type": "Polygon",
        "coordinates": [
          [
            [
              25504144.47,
              6684220.759
            ],
            [
              25504145.44,
              6684222.866
            ],
            [
              25504140.908,
              6684224.953
            ],
            [
              25504139.938,
              6684222.845
            ],
            [
              25504144.47,
              6684220.759
            ]
          ]
        ]
      },
      "properties": {
        "confidence": 0.774,
        "length_m": 4.99,
        "width_m": 2.32,
        "heading_deg": 114.7,
        "aoi": "r4-orakas",
        "source_layer": "Ortoilmakuva_2025_5cm",
        "zoom": 16,
        "status": "confirmed",
        "class": "car"
      }
    },
    {
      "type": "Feature",
      "geometry": {
        "type": "Polygon",
        "coordinates": [
          [
            [
              25503948.6,
              6684218.048
            ],
            [
              25503948.924,
              6684220.271
            ],
            [
              25503943.849,
              6684221.01
            ],
            [
              25503943.526,
              6684218.787
            ],
            [
              25503948.6,
              6684218.048
            ]
          ]
        ]
      },
      "properties": {
        "confidence": 0.7705,
        "length_m": 5.13,
        "width_m": 2.25,
        "heading_deg": 98.3,
        "aoi": "r4-orakas",
        "source_layer": "Ortoilmakuva_2025_5cm",
        "zoom": 16,
        "status": "confirmed",
        "class": "car"
      }
    },
    {
      "type": "Feature",
      "geometry": {
        "type": "Polygon",
        "coordinates": [
          [
            [
              25503981.643,
              6684091.943
            ],
            [
              25503983.647,
              6684092.258
            ],
            [
              25503982.899,
              6684097.015
            ],
            [
              25503980.896,
              6684096.7
            ],
            [
              25503981.643,
              6684091.943
            ]
          ]
        ]
      },
      "properties": {
        "confidence": 0.7697,
        "length_m": 4.82,
        "width_m": 2.03,
        "heading_deg": 171.1,
        "aoi": "r4-orakas",
        "source_layer": "Ortoilmakuva_2025_5cm",
        "zoom": 16,
        "status": "confirmed",
        "class": "car"
      }
    },
    {
      "type": "Feature",
      "geometry": {
        "type": "Polygon",
        "coordinates": [
          [
            [
              25504132.957,
              6683989.861
            ],
            [
              25504133.615,
              6683984.606
            ],
            [
              25504131.026,
              6683984.282
            ],
            [
              25504130.368,
              6683989.536
            ],
            [
              25504132.957,
              6683989.861
            ]
          ]
        ]
      },
      "properties": {
        "confidence": 0.7205,
        "length_m": 5.3,
        "width_m": 2.61,
        "heading_deg": 172.9,
        "aoi": "r4-orakas",
        "source_layer": "Ortoilmakuva_2025_5cm",
        "zoom": 16,
        "status": "confirmed",
        "class": "truck"
      }
    },
    {
      "type": "Feature",
      "geometry": {
        "type": "Polygon",
        "coordinates": [
          [
            [
              25504194.368,
              6683942.294
            ],
            [
              25504196.775,
              6683942.75
            ],
            [
              25504195.727,
              6683948.292
            ],
            [
              25504193.319,
              6683947.837
            ],
            [
              25504194.368,
              6683942.294
            ]
          ]
        ]
      },
      "properties": {
        "confidence": 0.72,
        "length_m": 5.64,
        "width_m": 2.45,
        "heading_deg": 169.3,
        "aoi": "r4-orakas",
        "source_layer": "Ortoilmakuva_2025_5cm",
        "zoom": 16,
        "status": "confirmed",
        "class": "van"
      }
    },
    {
      "type": "Feature",
      "geometry": {
        "type": "Polygon",
        "coordinates": [
          [
            [
              25503954.953,
              6684203.533
            ],
            [
              25503955.842,
              6684205.653
            ],
            [
              25503951.435,
              6684207.503
            ],
            [
              25503950.545,
              6684205.382
            ],
            [
              25503954.953,
              6684203.533
            ]
          ]
        ]
      },
      "properties": {
        "confidence": 0.7121,
        "length_m": 4.78,
        "width_m": 2.3,
        "heading_deg": 112.8,
        "aoi": "r4-orakas",
        "source_layer": "Ortoilmakuva_2025_5cm",
        "zoom": 16,
        "status": "confirmed",
        "class": "car"
      }
    },
    {
      "type": "Feature",
      "geometry": {
        "type": "Polygon",
        "coordinates": [
          [
            [
              25504199.453,
              6683942.207
            ],
            [
              25504201.9,
              6683942.335
            ],
            [
              25504201.607,
              6683947.959
            ],
            [
              25504199.161,
              6683947.831
            ],
            [
              25504199.453,
              6683942.207
            ]
          ]
        ]
      },
      "properties": {
        "confidence": 0.6548,
        "length_m": 5.63,
        "width_m": 2.45,
        "heading_deg": 177,
        "aoi": "r4-orakas",
        "source_layer": "Ortoilmakuva_2025_5cm",
        "zoom": 16,
        "status": "confirmed",
        "class": "van"
      }
    },
    {
      "type": "Feature",
      "geometry": {
        "type": "Polygon",
        "coordinates": [
          [
            [
              25504163.423,
              6683962.658
            ],
            [
              25504162.681,
              6683965.079
            ],
            [
              25504157.57,
              6683963.513
            ],
            [
              25504158.312,
              6683961.092
            ],
            [
              25504163.423,
              6683962.658
            ]
          ]
        ]
      },
      "properties": {
        "confidence": 0.6463,
        "length_m": 5.35,
        "width_m": 2.53,
        "heading_deg": 73,
        "aoi": "r4-orakas",
        "source_layer": "Ortoilmakuva_2025_5cm",
        "zoom": 16,
        "status": "confirmed",
        "class": "car"
      }
    },
    {
      "type": "Feature",
      "geometry": {
        "type": "Polygon",
        "coordinates": [
          [
            [
              25504195.845,
              6684222.873
            ],
            [
              25504195.347,
              6684225.167
            ],
            [
              25504189.901,
              6684223.985
            ],
            [
              25504190.399,
              6684221.691
            ],
            [
              25504195.845,
              6684222.873
            ]
          ]
        ]
      },
      "properties": {
        "confidence": 0.6334,
        "length_m": 5.57,
        "width_m": 2.35,
        "heading_deg": 77.8,
        "aoi": "r4-orakas",
        "source_layer": "Ortoilmakuva_2025_5cm",
        "zoom": 16,
        "status": "confirmed",
        "class": "car"
      }
    },
    {
      "type": "Feature",
      "geometry": {
        "type": "Polygon",
        "coordinates": [
          [
            [
              25503990.892,
              6684076.4
            ],
            [
              25503993.019,
              6684076.672
            ],
            [
              25503992.504,
              6684080.692
            ],
            [
              25503990.378,
              6684080.42
            ],
            [
              25503990.892,
              6684076.4
            ]
          ]
        ]
      },
      "properties": {
        "confidence": 0.6261,
        "length_m": 4.05,
        "width_m": 2.14,
        "heading_deg": 172.7,
        "aoi": "r4-orakas",
        "source_layer": "Ortoilmakuva_2025_5cm",
        "zoom": 16,
        "status": "confirmed",
        "class": "car"
      }
    },
    {
      "type": "Feature",
      "geometry": {
        "type": "Polygon",
        "coordinates": [
          [
            [
              25503934.481,
              6684079.476
            ],
            [
              25503936.189,
              6684079.678
            ],
            [
              25503935.658,
              6684084.161
            ],
            [
              25503933.95,
              6684083.958
            ],
            [
              25503934.481,
              6684079.476
            ]
          ]
        ]
      },
      "properties": {
        "confidence": 0.6232,
        "length_m": 4.51,
        "width_m": 1.72,
        "heading_deg": 173.2,
        "aoi": "r4-orakas",
        "source_layer": "Ortoilmakuva_2025_5cm",
        "zoom": 16,
        "status": "confirmed",
        "class": "car"
      }
    },
    {
      "type": "Feature",
      "geometry": {
        "type": "Polygon",
        "coordinates": [
          [
            [
              25504120.281,
              6683923.421
            ],
            [
              25504122.81,
              6683923.581
            ],
            [
              25504122.432,
              6683929.562
            ],
            [
              25504119.902,
              6683929.401
            ],
            [
              25504120.281,
              6683923.421
            ]
          ]
        ]
      },
      "properties": {
        "confidence": 0.5959,
        "length_m": 5.99,
        "width_m": 2.53,
        "heading_deg": 176.4,
        "aoi": "r4-orakas",
        "source_layer": "Ortoilmakuva_2025_5cm",
        "zoom": 16,
        "status": "confirmed",
        "class": "van"
      }
    },
    {
      "type": "Feature",
      "geometry": {
        "type": "Polygon",
        "coordinates": [
          [
            [
              25504193.057,
              6684211.946
            ],
            [
              25504194.459,
              6684213.6
            ],
            [
              25504190.964,
              6684216.563
            ],
            [
              25504189.562,
              6684214.909
            ],
            [
              25504193.057,
              6684211.946
            ]
          ]
        ]
      },
      "properties": {
        "confidence": 0.5677,
        "length_m": 4.58,
        "width_m": 2.17,
        "heading_deg": 130.3,
        "aoi": "r4-orakas",
        "source_layer": "Ortoilmakuva_2025_5cm",
        "zoom": 16,
        "status": "confirmed",
        "class": "car"
      }
    },
    {
      "type": "Feature",
      "geometry": {
        "type": "Polygon",
        "coordinates": [
          [
            [
              25503951.928,
              6684192.961
            ],
            [
              25503952.199,
              6684194.988
            ],
            [
              25503947.496,
              6684195.618
            ],
            [
              25503947.225,
              6684193.591
            ],
            [
              25503951.928,
              6684192.961
            ]
          ]
        ]
      },
      "properties": {
        "confidence": 0.5616,
        "length_m": 4.75,
        "width_m": 2.05,
        "heading_deg": 97.6,
        "aoi": "r4-orakas",
        "source_layer": "Ortoilmakuva_2025_5cm",
        "zoom": 16,
        "status": "confirmed",
        "class": "car"
      }
    },
    {
      "type": "Feature",
      "geometry": {
        "type": "Polygon",
        "coordinates": [
          [
            [
              25504167.504,
              6684082.088
            ],
            [
              25504169.788,
              6684082.492
            ],
            [
              25504168.836,
              6684087.888
            ],
            [
              25504166.551,
              6684087.484
            ],
            [
              25504167.504,
              6684082.088
            ]
          ]
        ]
      },
      "properties": {
        "confidence": 0.527,
        "length_m": 5.48,
        "width_m": 2.32,
        "heading_deg": 170,
        "aoi": "r4-orakas",
        "source_layer": "Ortoilmakuva_2025_5cm",
        "zoom": 16,
        "status": "confirmed",
        "class": "van"
      }
    },
    {
      "type": "Feature",
      "geometry": {
        "type": "Polygon",
        "coordinates": [
          [
            [
              25504087.371,
              6683939.641
            ],
            [
              25504087.091,
              6683942.093
            ],
            [
              25504081.871,
              6683941.498
            ],
            [
              25504082.151,
              6683939.046
            ],
            [
              25504087.371,
              6683939.641
            ]
          ]
        ]
      },
      "properties": {
        "confidence": 0.4259,
        "length_m": 5.25,
        "width_m": 2.47,
        "heading_deg": 83.5,
        "aoi": "r4-orakas",
        "source_layer": "Ortoilmakuva_2025_5cm",
        "zoom": 16,
        "status": "confirmed",
        "class": "van"
      }
    },
    {
      "type": "Feature",
      "geometry": {
        "type": "Polygon",
        "coordinates": [
          [
            [
              25504215.016,
              6684207.862
            ],
            [
              25504218.944,
              6684206.938
            ],
            [
              25504218.5,
              6684205.05
            ],
            [
              25504214.572,
              6684205.973
            ],
            [
              25504215.016,
              6684207.862
            ]
          ]
        ]
      },
      "properties": {
        "class": "car",
        "status": "added",
        "confidence": null,
        "aoi": "r4-orakas",
        "source_layer": "Ortoilmakuva_2025_5cm",
        "zoom": 16,
        "length_m": 4.04,
        "width_m": 1.94,
        "heading_deg": 103.2
      }
    },
    {
      "type": "Feature",
      "geometry": {
        "type": "Polygon",
        "coordinates": [
          [
            [
              25504243.373,
              6684113.019
            ],
            [
              25504243.932,
              6684107.826
            ],
            [
              25504241.701,
              6684107.586
            ],
            [
              25504241.142,
              6684112.778
            ],
            [
              25504243.373,
              6684113.019
            ]
          ]
        ]
      },
      "properties": {
        "class": "car",
        "status": "added",
        "confidence": null,
        "aoi": "r4-orakas",
        "source_layer": "Ortoilmakuva_2025_5cm",
        "zoom": 16,
        "length_m": 5.22,
        "width_m": 2.24,
        "heading_deg": 173.9
      }
    },
    {
      "type": "Feature",
      "geometry": {
        "type": "Polygon",
        "coordinates": [
          [
            [
              25504170.535,
              6684172.988
            ],
            [
              25504180.397,
              6684173.672
            ],
            [
              25504180.614,
              6684170.539
            ],
            [
              25504170.752,
              6684169.856
            ],
            [
              25504170.535,
              6684172.988
            ]
          ]
        ]
      },
      "properties": {
        "class": "truck",
        "status": "added",
        "confidence": null,
        "aoi": "r4-orakas",
        "source_layer": "Ortoilmakuva_2025_5cm",
        "zoom": 16,
        "length_m": 9.89,
        "width_m": 3.14,
        "heading_deg": 86
      }
    },
    {
      "type": "Feature",
      "geometry": {
        "type": "Polygon",
        "coordinates": [
          [
            [
              25504228.028,
              6683996.185
            ],
            [
              25504220.538,
              6683995.808
            ],
            [
              25504220.39,
              6683998.745
            ],
            [
              25504227.881,
              6683999.122
            ],
            [
              25504228.028,
              6683996.185
            ]
          ]
        ]
      },
      "properties": {
        "class": "truck",
        "status": "added",
        "confidence": null,
        "aoi": "r4-orakas",
        "source_layer": "Ortoilmakuva_2025_5cm",
        "zoom": 16,
        "length_m": 7.5,
        "width_m": 2.94,
        "heading_deg": 87.1
      }
    },
    {
      "type": "Feature",
      "geometry": {
        "type": "Polygon",
        "coordinates": [
          [
            [
              25504132.354,
              6683920.203
            ],
            [
              25504132.074,
              6683924.768
            ],
            [
              25504134.409,
              6683924.911
            ],
            [
              25504134.689,
              6683920.346
            ],
            [
              25504132.354,
              6683920.203
            ]
          ]
        ]
      },
      "properties": {
        "class": "car",
        "status": "added",
        "confidence": null,
        "aoi": "r4-orakas",
        "source_layer": "Ortoilmakuva_2025_5cm",
        "zoom": 16,
        "length_m": 4.57,
        "width_m": 2.34,
        "heading_deg": 176.5
      }
    },
    {
      "type": "Feature",
      "geometry": {
        "type": "Polygon",
        "coordinates": [
          [
            [
              25504198.273,
              6683921.334
            ],
            [
              25504208.262,
              6683922.748
            ],
            [
              25504208.717,
              6683919.541
            ],
            [
              25504198.727,
              6683918.126
            ],
            [
              25504198.273,
              6683921.334
            ]
          ]
        ]
      },
      "properties": {
        "class": "car",
        "status": "added",
        "confidence": null,
        "aoi": "r4-orakas",
        "source_layer": "Ortoilmakuva_2025_5cm",
        "zoom": 16,
        "length_m": 10.09,
        "width_m": 3.24,
        "heading_deg": 81.9
      }
    },
    {
      "type": "Feature",
      "geometry": {
        "type": "Polygon",
        "coordinates": [
          [
            [
              25504079.129,
              6683986.229
            ],
            [
              25504067.736,
              6683984.391
            ],
            [
              25504067.204,
              6683987.688
            ],
            [
              25504078.597,
              6683989.526
            ],
            [
              25504079.129,
              6683986.229
            ]
          ]
        ]
      },
      "properties": {
        "class": "truck",
        "status": "added",
        "confidence": null,
        "aoi": "r4-orakas",
        "source_layer": "Ortoilmakuva_2025_5cm",
        "zoom": 16,
        "length_m": 11.54,
        "width_m": 3.34,
        "heading_deg": 80.8
      }
    },
    {
      "type": "Feature",
      "geometry": {
        "type": "Polygon",
        "coordinates": [
          [
            [
              25504067.541,
              6683941.587
            ],
            [
              25504060.716,
              6683941.337
            ],
            [
              25504060.612,
              6683944.175
            ],
            [
              25504067.437,
              6683944.425
            ],
            [
              25504067.541,
              6683941.587
            ]
          ]
        ]
      },
      "properties": {
        "class": "truck",
        "status": "added",
        "confidence": null,
        "aoi": "r4-orakas",
        "source_layer": "Ortoilmakuva_2025_5cm",
        "zoom": 16,
        "length_m": 6.83,
        "width_m": 2.84,
        "heading_deg": 87.9
      }
    }
  ]
}
