{
  "type": "FeatureCollection",
  "features": [
    {
      "type": "Feature",
      "geometry": {
        "type": "Polygon",
        "coordinates": [
          [
            [
              24.90207814967452,
              60.207709886957694
            ],
            [
              24.902090202765674,
              60.207819096108956
            ],
            [
              24.902036406174506,
              60.207820566717544
            ],
            [
              24.902024353261627,
              60.20771135756146
            ],
            [
              24.90207814967452,
              60.207709886957694
            ]
          ]
        ]
      },
      "properties": {
        "confidence": 0.8729,
        "length_m": 12.19,
        "width_m": 2.99,
        "heading_deg": 3.2,
        "aoi": "ruskeasuo",
        "source_layer": "Ortoilmakuva_2025_5cm",
        "zoom": 16,
        "status": "candidate",
        "class": ""
      }
    },
    {
      "type": "Feature",
      "geometry": {
        "type": "Polygon",
        "coordinates": [
          [
            [
              24.90214959407356,
              60.207703697123236
            ],
            [
              24.902160639354193,
              60.20781800622584
            ],
            [
              24.902108781564916,
              60.207819247389864
            ],
            [
              24.90209773646428,
              60.20770493828301
            ],
            [
              24.90214959407356,
              60.207703697123236
            ]
          ]
        ]
      },
      "properties": {
        "confidence": 0.8603,
        "length_m": 12.75,
        "width_m": 2.88,
        "heading_deg": 2.8,
        "aoi": "ruskeasuo",
        "source_layer": "Ortoilmakuva_2025_5cm",
        "zoom": 16,
        "status": "candidate",
        "class": ""
      }
    },
    {
      "type": "Feature",
      "geometry": {
        "type": "Polygon",
        "coordinates": [
          [
            [
              24.90338506462068,
              60.207228047971924
            ],
            [
              24.90341310862855,
              60.207250257212095
            ],
            [
              24.903220651152626,
              60.20731045207744
            ],
            [
              24.90319260722354,
              60.207288242796814
            ],
            [
              24.90338506462068,
              60.207228047971924
            ]
          ]
        ]
      },
      "properties": {
        "confidence": 0.8593,
        "length_m": 12.6,
        "width_m": 2.92,
        "heading_deg": 122.2,
        "aoi": "ruskeasuo",
        "source_layer": "Ortoilmakuva_2025_5cm",
        "zoom": 16,
        "status": "candidate",
        "class": ""
      }
    },
    {
      "type": "Feature",
      "geometry": {
        "type": "Polygon",
        "coordinates": [
          [
            [
              24.902435706799984,
              60.20769271583775
            ],
            [
              24.902437338878837,
              60.207731556224545
            ],
            [
              24.90238685954919,
              60.20773208162719
            ],
            [
              24.902385227529976,
              60.20769324123979
            ],
            [
              24.902435706799984,
              60.20769271583775
            ]
          ]
        ]
      },
      "properties": {
        "confidence": 0.8593,
        "length_m": 4.33,
        "width_m": 2.8,
        "heading_deg": 1.3,
        "aoi": "ruskeasuo",
        "source_layer": "Ortoilmakuva_2025_5cm",
        "zoom": 16,
        "status": "candidate",
        "class": ""
      }
    },
    {
      "type": "Feature",
      "geometry": {
        "type": "Polygon",
        "coordinates": [
          [
            [
              24.902718958464593,
              60.20768873244056
            ],
            [
              24.902725635233143,
              60.20773138689406
            ],
            [
              24.902677218523085,
              60.20773326402138
            ],
            [
              24.902670541817006,
              60.20769060956552
            ],
            [
              24.902718958464593,
              60.20768873244056
            ]
          ]
        ]
      },
      "properties": {
        "confidence": 0.8574,
        "length_m": 4.77,
        "width_m": 2.69,
        "heading_deg": 4.5,
        "aoi": "ruskeasuo",
        "source_layer": "Ortoilmakuva_2025_5cm",
        "zoom": 16,
        "status": "candidate",
        "class": ""
      }
    },
    {
      "type": "Feature",
      "geometry": {
        "type": "Polygon",
        "coordinates": [
          [
            [
              24.905064116311245,
              60.207280437598286
            ],
            [
              24.905091969164868,
              60.20730392720488
            ],
            [
              24.904865746750893,
              60.2073703696207
            ],
            [
              24.90483789400276,
              60.20734687996686
            ],
            [
              24.905064116311245,
              60.207280437598286
            ]
          ]
        ]
      },
      "properties": {
        "confidence": 0.8557,
        "length_m": 14.57,
        "width_m": 3.04,
        "heading_deg": 120.6,
        "aoi": "ruskeasuo",
        "source_layer": "Ortoilmakuva_2025_5cm",
        "zoom": 16,
        "status": "candidate",
        "class": ""
      }
    },
    {
      "type": "Feature",
      "geometry": {
        "type": "Polygon",
        "coordinates": [
          [
            [
              24.903388485518036,
              60.20739685459181
            ],
            [
              24.903416619646592,
              60.20741887976206
            ],
            [
              24.90322759616899,
              60.20747868572306
            ],
            [
              24.903199462116007,
              60.20745666051295
            ],
            [
              24.903388485518036,
              60.20739685459181
            ]
          ]
        ]
      },
      "properties": {
        "confidence": 0.8557,
        "length_m": 12.42,
        "width_m": 2.91,
        "heading_deg": 122.5,
        "aoi": "ruskeasuo",
        "source_layer": "Ortoilmakuva_2025_5cm",
        "zoom": 16,
        "status": "candidate",
        "class": ""
      }
    },
    {
      "type": "Feature",
      "geometry": {
        "type": "Polygon",
        "coordinates": [
          [
            [
              24.901862944412073,
              60.20769579063631
            ],
            [
              24.901872819596075,
              60.20782709457002
            ],
            [
              24.901817282651724,
              60.20782812911156
            ],
            [
              24.901807407620556,
              60.20769682517376
            ],
            [
              24.901862944412073,
              60.20769579063631
            ]
          ]
        ]
      },
      "properties": {
        "confidence": 0.8552,
        "length_m": 14.64,
        "width_m": 3.08,
        "heading_deg": 2.2,
        "aoi": "ruskeasuo",
        "source_layer": "Ortoilmakuva_2025_5cm",
        "zoom": 16,
        "status": "candidate",
        "class": ""
      }
    },
    {
      "type": "Feature",
      "geometry": {
        "type": "Polygon",
        "coordinates": [
          [
            [
              24.903391886124652,
              60.20688573380681
            ],
            [
              24.903421985699616,
              60.206908591649345
            ],
            [
              24.903201342460775,
              60.20698055993455
            ],
            [
              24.903171242973468,
              60.20695770204222
            ],
            [
              24.903391886124652,
              60.20688573380681
            ]
          ]
        ]
      },
      "properties": {
        "confidence": 0.8546,
        "length_m": 14.63,
        "width_m": 3.04,
        "heading_deg": 123.3,
        "aoi": "ruskeasuo",
        "source_layer": "Ortoilmakuva_2025_5cm",
        "zoom": 16,
        "status": "candidate",
        "class": ""
      }
    },
    {
      "type": "Feature",
      "geometry": {
        "type": "Polygon",
        "coordinates": [
          [
            [
              24.90243948714775,
              60.20769237900294
            ],
            [
              24.902445785442236,
              60.20782373778285
            ],
            [
              24.902388999435868,
              60.2078244121419
            ],
            [
              24.902382701368275,
              60.20769305335937
            ],
            [
              24.90243948714775,
              60.20769237900294
            ]
          ]
        ]
      },
      "properties": {
        "confidence": 0.8545,
        "length_m": 14.64,
        "width_m": 3.15,
        "heading_deg": 1.5,
        "aoi": "ruskeasuo",
        "source_layer": "Ortoilmakuva_2025_5cm",
        "zoom": 16,
        "status": "candidate",
        "class": ""
      }
    },
    {
      "type": "Feature",
      "geometry": {
        "type": "Polygon",
        "coordinates": [
          [
            [
              24.90379281838306,
              60.20758727465552
            ],
            [
              24.903990405904302,
              60.207641750221725
            ],
            [
              24.90396372718346,
              60.207665718219666
            ],
            [
              24.9037661395624,
              60.20761124261391
            ],
            [
              24.90379281838306,
              60.20758727465552
            ]
          ]
        ]
      },
      "properties": {
        "confidence": 0.8542,
        "length_m": 12.53,
        "width_m": 3.05,
        "heading_deg": 61.1,
        "aoi": "ruskeasuo",
        "source_layer": "Ortoilmakuva_2025_5cm",
        "zoom": 16,
        "status": "candidate",
        "class": ""
      }
    },
    {
      "type": "Feature",
      "geometry": {
        "type": "Polygon",
        "coordinates": [
          [
            [
              24.905030255810843,
              60.20681977108158
            ],
            [
              24.905060049613606,
              60.206843544416174
            ],
            [
              24.904836444947023,
              60.206912957882196
            ],
            [
              24.90480665124319,
              60.206889184497626
            ],
            [
              24.905030255810843,
              60.20681977108158
            ]
          ]
        ]
      },
      "properties": {
        "confidence": 0.854,
        "length_m": 14.61,
        "width_m": 3.12,
        "heading_deg": 122,
        "aoi": "ruskeasuo",
        "source_layer": "Ortoilmakuva_2025_5cm",
        "zoom": 16,
        "status": "candidate",
        "class": ""
      }
    },
    {
      "type": "Feature",
      "geometry": {
        "type": "Polygon",
        "coordinates": [
          [
            [
              24.903442588017917,
              60.20746229989072
            ],
            [
              24.903472682121425,
              60.20748575996915
            ],
            [
              24.903243530381616,
              60.207558569221106
            ],
            [
              24.90321343637514,
              60.207535109091
            ],
            [
              24.903442588017917,
              60.20746229989072
            ]
          ]
        ]
      },
      "properties": {
        "confidence": 0.8537,
        "length_m": 15.08,
        "width_m": 3.1,
        "heading_deg": 122.6,
        "aoi": "ruskeasuo",
        "source_layer": "Ortoilmakuva_2025_5cm",
        "zoom": 16,
        "status": "candidate",
        "class": ""
      }
    },
    {
      "type": "Feature",
      "geometry": {
        "type": "Polygon",
        "coordinates": [
          [
            [
              24.903366022094243,
              60.20608514386379
            ],
            [
              24.90336887347793,
              60.20611154800578
            ],
            [
              24.903134437060555,
              60.206117819187476
            ],
            [
              24.903131585864713,
              60.20609141504051
            ],
            [
              24.903366022094243,
              60.20608514386379
            ]
          ]
        ]
      },
      "properties": {
        "confidence": 0.8535,
        "length_m": 13.02,
        "width_m": 2.95,
        "heading_deg": 93.2,
        "aoi": "ruskeasuo",
        "source_layer": "Ortoilmakuva_2025_5cm",
        "zoom": 16,
        "status": "candidate",
        "class": ""
      }
    },
    {
      "type": "Feature",
      "geometry": {
        "type": "Polygon",
        "coordinates": [
          [
            [
              24.903412745426802,
              60.207135778902945
            ],
            [
              24.903441272768404,
              60.20715928393394
            ],
            [
              24.903210318804895,
              60.207228713754894
            ],
            [
              24.90318179156832,
              60.207205208674516
            ],
            [
              24.903412745426802,
              60.207135778902945
            ]
          ]
        ]
      },
      "properties": {
        "confidence": 0.8522,
        "length_m": 14.96,
        "width_m": 3.06,
        "heading_deg": 121.2,
        "aoi": "ruskeasuo",
        "source_layer": "Ortoilmakuva_2025_5cm",
        "zoom": 16,
        "status": "candidate",
        "class": ""
      }
    },
    {
      "type": "Feature",
      "geometry": {
        "type": "Polygon",
        "coordinates": [
          [
            [
              24.90221824470096,
              60.207691622120784
            ],
            [
              24.902220249414036,
              60.2077308258534
            ],
            [
              24.902169469232426,
              60.20773146897566
            ],
            [
              24.902167464579907,
              60.20769226524229
            ],
            [
              24.90221824470096,
              60.207691622120784
            ]
          ]
        ]
      },
      "properties": {
        "confidence": 0.8521,
        "length_m": 4.37,
        "width_m": 2.82,
        "heading_deg": 1.5,
        "aoi": "ruskeasuo",
        "source_layer": "Ortoilmakuva_2025_5cm",
        "zoom": 16,
        "status": "candidate",
        "class": ""
      }
    },
    {
      "type": "Feature",
      "geometry": {
        "type": "Polygon",
        "coordinates": [
          [
            [
              24.90473137135923,
              60.20653016853229
            ],
            [
              24.90476122789946,
              60.20655344511248
            ],
            [
              24.90456736361167,
              60.20661504144714
            ],
            [
              24.90453750701539,
              60.206591764789195
            ],
            [
              24.90473137135923,
              60.20653016853229
            ]
          ]
        ]
      },
      "properties": {
        "confidence": 0.8519,
        "length_m": 12.75,
        "width_m": 3.08,
        "heading_deg": 122.6,
        "aoi": "ruskeasuo",
        "source_layer": "Ortoilmakuva_2025_5cm",
        "zoom": 16,
        "status": "candidate",
        "class": ""
      }
    },
    {
      "type": "Feature",
      "geometry": {
        "type": "Polygon",
        "coordinates": [
          [
            [
              24.902582182067576,
              60.2076918030718
            ],
            [
              24.902589895064736,
              60.207818903077694
            ],
            [
              24.90253403787242,
              60.207819742662174
            ],
            [
              24.902526325091134,
              60.2076926426531
            ],
            [
              24.902582182067576,
              60.2076918030718
            ]
          ]
        ]
      },
      "properties": {
        "confidence": 0.8516,
        "length_m": 14.17,
        "width_m": 3.1,
        "heading_deg": 1.8,
        "aoi": "ruskeasuo",
        "source_layer": "Ortoilmakuva_2025_5cm",
        "zoom": 16,
        "status": "candidate",
        "class": ""
      }
    },
    {
      "type": "Feature",
      "geometry": {
        "type": "Polygon",
        "coordinates": [
          [
            [
              24.9027235750895,
              60.20768797632819
            ],
            [
              24.90274125363623,
              60.20781235291382
            ],
            [
              24.902687370791423,
              60.20781424992284
            ],
            [
              24.902669692447645,
              60.20768987333012
            ],
            [
              24.9027235750895,
              60.20768797632819
            ]
          ]
        ]
      },
      "properties": {
        "confidence": 0.8505,
        "length_m": 13.89,
        "width_m": 3,
        "heading_deg": 4.1,
        "aoi": "ruskeasuo",
        "source_layer": "Ortoilmakuva_2025_5cm",
        "zoom": 16,
        "status": "candidate",
        "class": ""
      }
    },
    {
      "type": "Feature",
      "geometry": {
        "type": "Polygon",
        "coordinates": [
          [
            [
              24.903379528606923,
              60.2067254114493
            ],
            [
              24.90340768800351,
              60.20674777032992
            ],
            [
              24.903187978707518,
              60.20681631187209
            ],
            [
              24.90315981940178,
              60.20679395294507
            ],
            [
              24.903379528606923,
              60.2067254114493
            ]
          ]
        ]
      },
      "properties": {
        "confidence": 0.8504,
        "length_m": 14.38,
        "width_m": 2.94,
        "heading_deg": 122.2,
        "aoi": "ruskeasuo",
        "source_layer": "Ortoilmakuva_2025_5cm",
        "zoom": 16,
        "status": "candidate",
        "class": ""
      }
    },
    {
      "type": "Feature",
      "geometry": {
        "type": "Polygon",
        "coordinates": [
          [
            [
              24.903372464592593,
              60.2065942045652
            ],
            [
              24.903402847737013,
              60.2066174337642
            ],
            [
              24.90318377740841,
              60.206688410801604
            ],
            [
              24.90315339435333,
              60.2066651815527
            ],
            [
              24.903372464592593,
              60.2065942045652
            ]
          ]
        ]
      },
      "properties": {
        "confidence": 0.8502,
        "length_m": 14.5,
        "width_m": 3.09,
        "heading_deg": 123.1,
        "aoi": "ruskeasuo",
        "source_layer": "Ortoilmakuva_2025_5cm",
        "zoom": 16,
        "status": "candidate",
        "class": ""
      }
    },
    {
      "type": "Feature",
      "geometry": {
        "type": "Polygon",
        "coordinates": [
          [
            [
              24.902509629612258,
              60.20768644816055
            ],
            [
              24.902518373816307,
              60.20781963514811
            ],
            [
              24.902463966976093,
              60.20782051986792
            ],
            [
              24.90245522299235,
              60.20768733287685
            ],
            [
              24.902509629612258,
              60.20768644816055
            ]
          ]
        ]
      },
      "properties": {
        "confidence": 0.8498,
        "length_m": 14.85,
        "width_m": 3.02,
        "heading_deg": 2,
        "aoi": "ruskeasuo",
        "source_layer": "Ortoilmakuva_2025_5cm",
        "zoom": 16,
        "status": "candidate",
        "class": ""
      }
    },
    {
      "type": "Feature",
      "geometry": {
        "type": "Polygon",
        "coordinates": [
          [
            [
              24.902652207797015,
              60.207692616624
            ],
            [
              24.902662290942057,
              60.20781135583901
            ],
            [
              24.902609455567873,
              60.20781246706025
            ],
            [
              24.902599372613427,
              60.20769372784131
            ],
            [
              24.902652207797015,
              60.207692616624
            ]
          ]
        ]
      },
      "properties": {
        "confidence": 0.8495,
        "length_m": 13.24,
        "width_m": 2.93,
        "heading_deg": 2.5,
        "aoi": "ruskeasuo",
        "source_layer": "Ortoilmakuva_2025_5cm",
        "zoom": 16,
        "status": "candidate",
        "class": ""
      }
    },
    {
      "type": "Feature",
      "geometry": {
        "type": "Polygon",
        "coordinates": [
          [
            [
              24.90281088683236,
              60.20768649054825
            ],
            [
              24.90281166868704,
              60.20773131200771
            ],
            [
              24.90276038590573,
              60.2077315335559
            ],
            [
              24.90275960412099,
              60.20768671210049
            ],
            [
              24.90281088683236,
              60.20768649054825
            ]
          ]
        ]
      },
      "properties": {
        "confidence": 0.8492,
        "length_m": 4.99,
        "width_m": 2.84,
        "heading_deg": 0.6,
        "aoi": "ruskeasuo",
        "source_layer": "Ortoilmakuva_2025_5cm",
        "zoom": 16,
        "status": "candidate",
        "class": ""
      }
    },
    {
      "type": "Feature",
      "geometry": {
        "type": "Polygon",
        "coordinates": [
          [
            [
              24.903375928175304,
              60.206511953645816
            ],
            [
              24.90340562479979,
              60.20653505244388
            ],
            [
              24.90318859569074,
              60.20660416729369
            ],
            [
              24.90315889915645,
              60.20658106844729
            ],
            [
              24.903375928175304,
              60.206511953645816
            ]
          ]
        ]
      },
      "properties": {
        "confidence": 0.849,
        "length_m": 14.29,
        "width_m": 3.06,
        "heading_deg": 122.7,
        "aoi": "ruskeasuo",
        "source_layer": "Ortoilmakuva_2025_5cm",
        "zoom": 16,
        "status": "candidate",
        "class": ""
      }
    },
    {
      "type": "Feature",
      "geometry": {
        "type": "Polygon",
        "coordinates": [
          [
            [
              24.903406499725477,
              60.2070501990064
            ],
            [
              24.903436083001196,
              60.2070736496154
            ],
            [
              24.903213512419228,
              60.20714319723043
            ],
            [
              24.90318392923983,
              60.20711974657206
            ],
            [
              24.903406499725477,
              60.2070501990064
            ]
          ]
        ]
      },
      "properties": {
        "confidence": 0.8482,
        "length_m": 14.57,
        "width_m": 3.09,
        "heading_deg": 122.2,
        "aoi": "ruskeasuo",
        "source_layer": "Ortoilmakuva_2025_5cm",
        "zoom": 16,
        "status": "candidate",
        "class": ""
      }
    },
    {
      "type": "Feature",
      "geometry": {
        "type": "Polygon",
        "coordinates": [
          [
            [
              24.901935863674858,
              60.207695450202216
            ],
            [
              24.901941632681364,
              60.20782045478882
            ],
            [
              24.901887650404767,
              60.207821071841735
            ],
            [
              24.901881881603522,
              60.20769606725285
            ],
            [
              24.901935863674858,
              60.207695450202216
            ]
          ]
        ]
      },
      "properties": {
        "confidence": 0.8478,
        "length_m": 13.93,
        "width_m": 2.99,
        "heading_deg": 1.4,
        "aoi": "ruskeasuo",
        "source_layer": "Ortoilmakuva_2025_5cm",
        "zoom": 16,
        "status": "candidate",
        "class": ""
      }
    },
    {
      "type": "Feature",
      "geometry": {
        "type": "Polygon",
        "coordinates": [
          [
            [
              24.903385375481513,
              60.20731265860383
            ],
            [
              24.903413464571273,
              60.20733467456635
            ],
            [
              24.903222582865048,
              60.2073949972634
            ],
            [
              24.903194493851696,
              60.20737298126067
            ],
            [
              24.903385375481513,
              60.20731265860383
            ]
          ]
        ]
      },
      "properties": {
        "confidence": 0.8474,
        "length_m": 12.54,
        "width_m": 2.91,
        "heading_deg": 122.5,
        "aoi": "ruskeasuo",
        "source_layer": "Ortoilmakuva_2025_5cm",
        "zoom": 16,
        "status": "candidate",
        "class": ""
      }
    },
    {
      "type": "Feature",
      "geometry": {
        "type": "Polygon",
        "coordinates": [
          [
            [
              24.90505624741648,
              60.20710297818968
            ],
            [
              24.905087035438463,
              60.20712613087001
            ],
            [
              24.904862162678903,
              60.207200200064946
            ],
            [
              24.904831374746067,
              60.20717704733275
            ],
            [
              24.90505624741648,
              60.20710297818968
            ]
          ]
        ]
      },
      "properties": {
        "confidence": 0.8472,
        "length_m": 14.95,
        "width_m": 3.09,
        "heading_deg": 123.6,
        "aoi": "ruskeasuo",
        "source_layer": "Ortoilmakuva_2025_5cm",
        "zoom": 16,
        "status": "candidate",
        "class": ""
      }
    },
    {
      "type": "Feature",
      "geometry": {
        "type": "Polygon",
        "coordinates": [
          [
            [
              24.902580342499917,
              60.20769193453168
            ],
            [
              24.902583580073934,
              60.20773080479808
            ],
            [
              24.902530836806,
              60.20773189289334
            ],
            [
              24.902527599294274,
              60.20769302262565
            ],
            [
              24.902580342499917,
              60.20769193453168
            ]
          ]
        ]
      },
      "properties": {
        "confidence": 0.8471,
        "length_m": 4.33,
        "width_m": 2.93,
        "heading_deg": 2.5,
        "aoi": "ruskeasuo",
        "source_layer": "Ortoilmakuva_2025_5cm",
        "zoom": 16,
        "status": "candidate",
        "class": ""
      }
    },
    {
      "type": "Feature",
      "geometry": {
        "type": "Polygon",
        "coordinates": [
          [
            [
              24.904811523856267,
              60.207395356330544
            ],
            [
              24.904839767065905,
              60.20741700711945
            ],
            [
              24.90464435808777,
              60.207480146262725
            ],
            [
              24.904616114884004,
              60.207458495398164
            ],
            [
              24.904811523856267,
              60.207395356330544
            ]
          ]
        ]
      },
      "properties": {
        "confidence": 0.8469,
        "length_m": 12.92,
        "width_m": 2.88,
        "heading_deg": 123.1,
        "aoi": "ruskeasuo",
        "source_layer": "Ortoilmakuva_2025_5cm",
        "zoom": 16,
        "status": "candidate",
        "class": ""
      }
    },
    {
      "type": "Feature",
      "geometry": {
        "type": "Polygon",
        "coordinates": [
          [
            [
              24.903772476951133,
              60.20750023567529
            ],
            [
              24.904008523274467,
              60.207562116765416
            ],
            [
              24.90398380185185,
              60.20758547412101
            ],
            [
              24.903747755407363,
              60.2075235929871
            ],
            [
              24.903772476951133,
              60.20750023567529
            ]
          ]
        ]
      },
      "properties": {
        "confidence": 0.8464,
        "length_m": 14.79,
        "width_m": 2.94,
        "heading_deg": 62.3,
        "aoi": "ruskeasuo",
        "source_layer": "Ortoilmakuva_2025_5cm",
        "zoom": 16,
        "status": "candidate",
        "class": ""
      }
    },
    {
      "type": "Feature",
      "geometry": {
        "type": "Polygon",
        "coordinates": [
          [
            [
              24.902508022387565,
              60.20768780151078
            ],
            [
              24.902511158828613,
              60.207730678540045
            ],
            [
              24.902459031016978,
              60.20773162300949
            ],
            [
              24.902455894643865,
              60.207688745979
            ],
            [
              24.902508022387565,
              60.20768780151078
            ]
          ]
        ]
      },
      "properties": {
        "confidence": 0.8464,
        "length_m": 4.78,
        "width_m": 2.89,
        "heading_deg": 2.2,
        "aoi": "ruskeasuo",
        "source_layer": "Ortoilmakuva_2025_5cm",
        "zoom": 16,
        "status": "candidate",
        "class": ""
      }
    },
    {
      "type": "Feature",
      "geometry": {
        "type": "Polygon",
        "coordinates": [
          [
            [
              24.90395933455491,
              60.20609163460447
            ],
            [
              24.9041945222041,
              60.20614880122566
            ],
            [
              24.904170051899737,
              60.20617373924706
            ],
            [
              24.903934864114714,
              60.20611657258266
            ],
            [
              24.90395933455491,
              60.20609163460447
            ]
          ]
        ]
      },
      "properties": {
        "confidence": 0.8462,
        "length_m": 14.51,
        "width_m": 3.09,
        "heading_deg": 64.1,
        "aoi": "ruskeasuo",
        "source_layer": "Ortoilmakuva_2025_5cm",
        "zoom": 16,
        "status": "candidate",
        "class": ""
      }
    },
    {
      "type": "Feature",
      "geometry": {
        "type": "Polygon",
        "coordinates": [
          [
            [
              24.902219843858138,
              60.20769108817457
            ],
            [
              24.902229525562017,
              60.20782269487992
            ],
            [
              24.902175224892726,
              60.207823684329085
            ],
            [
              24.902165543406056,
              60.20769207761986
            ],
            [
              24.902219843858138,
              60.20769108817457
            ]
          ]
        ]
      },
      "properties": {
        "confidence": 0.8461,
        "length_m": 14.67,
        "width_m": 3.01,
        "heading_deg": 2.2,
        "aoi": "ruskeasuo",
        "source_layer": "Ortoilmakuva_2025_5cm",
        "zoom": 16,
        "status": "candidate",
        "class": ""
      }
    },
    {
      "type": "Feature",
      "geometry": {
        "type": "Polygon",
        "coordinates": [
          [
            [
              24.903976817178254,
              60.20649717937884
            ],
            [
              24.904207092962583,
              60.20655866892016
            ],
            [
              24.904179895376153,
              60.20658389894352
            ],
            [
              24.903949619466,
              60.206522409355195
            ],
            [
              24.903976817178254,
              60.20649717937884
            ]
          ]
        ]
      },
      "properties": {
        "confidence": 0.846,
        "length_m": 14.49,
        "width_m": 3.19,
        "heading_deg": 61.9,
        "aoi": "ruskeasuo",
        "source_layer": "Ortoilmakuva_2025_5cm",
        "zoom": 16,
        "status": "candidate",
        "class": ""
      }
    },
    {
      "type": "Feature",
      "geometry": {
        "type": "Polygon",
        "coordinates": [
          [
            [
              24.904732480043908,
              60.206443698228
            ],
            [
              24.904763722625663,
              60.20646628261245
            ],
            [
              24.90458016026112,
              60.20652918437452
            ],
            [
              24.904548917608217,
              60.206506599946955
            ],
            [
              24.904732480043908,
              60.206443698228
            ]
          ]
        ]
      },
      "properties": {
        "confidence": 0.8446,
        "length_m": 12.36,
        "width_m": 3.05,
        "heading_deg": 124.6,
        "aoi": "ruskeasuo",
        "source_layer": "Ortoilmakuva_2025_5cm",
        "zoom": 16,
        "status": "candidate",
        "class": ""
      }
    },
    {
      "type": "Feature",
      "geometry": {
        "type": "Polygon",
        "coordinates": [
          [
            [
              24.904729586889733,
              60.20665771859125
            ],
            [
              24.904758251747587,
              60.20668090748714
            ],
            [
              24.904576662279453,
              60.20673651000258
            ],
            [
              24.904547997363725,
              60.206713321067554
            ],
            [
              24.904729586889733,
              60.20665771859125
            ]
          ]
        ]
      },
      "properties": {
        "confidence": 0.844,
        "length_m": 11.82,
        "width_m": 3.03,
        "heading_deg": 121.7,
        "aoi": "ruskeasuo",
        "source_layer": "Ortoilmakuva_2025_5cm",
        "zoom": 16,
        "status": "candidate",
        "class": ""
      }
    },
    {
      "type": "Feature",
      "geometry": {
        "type": "Polygon",
        "coordinates": [
          [
            [
              24.90265016853777,
              60.20769327491878
            ],
            [
              24.90265317569315,
              60.20773118215754
            ],
            [
              24.902604882535567,
              60.20773213106031
            ],
            [
              24.90260187543583,
              60.20769422381619
            ],
            [
              24.90265016853777,
              60.20769327491878
            ]
          ]
        ]
      },
      "properties": {
        "confidence": 0.8437,
        "length_m": 4.23,
        "width_m": 2.68,
        "heading_deg": 2.3,
        "aoi": "ruskeasuo",
        "source_layer": "Ortoilmakuva_2025_5cm",
        "zoom": 16,
        "status": "candidate",
        "class": ""
      }
    },
    {
      "type": "Feature",
      "geometry": {
        "type": "Polygon",
        "coordinates": [
          [
            [
              24.904728919481727,
              60.20687115832178
            ],
            [
              24.90475861363135,
              60.20689374700339
            ],
            [
              24.90459265502531,
              60.20694778620481
            ],
            [
              24.90456296094101,
              60.206925197486264
            ],
            [
              24.904728919481727,
              60.20687115832178
            ]
          ]
        ]
      },
      "properties": {
        "confidence": 0.8434,
        "length_m": 11,
        "width_m": 3.01,
        "heading_deg": 123.3,
        "aoi": "ruskeasuo",
        "source_layer": "Ortoilmakuva_2025_5cm",
        "zoom": 16,
        "status": "candidate",
        "class": ""
      }
    },
    {
      "type": "Feature",
      "geometry": {
        "type": "Polygon",
        "coordinates": [
          [
            [
              24.903971464925757,
              60.20641498567667
            ],
            [
              24.904198602061832,
              60.20647364534796
            ],
            [
              24.904173662840325,
              60.20649756614935
            ],
            [
              24.903946525583503,
              60.20643890643554
            ],
            [
              24.903971464925757,
              60.20641498567667
            ]
          ]
        ]
      },
      "properties": {
        "confidence": 0.8433,
        "length_m": 14.19,
        "width_m": 3,
        "heading_deg": 62.7,
        "aoi": "ruskeasuo",
        "source_layer": "Ortoilmakuva_2025_5cm",
        "zoom": 16,
        "status": "candidate",
        "class": ""
      }
    },
    {
      "type": "Feature",
      "geometry": {
        "type": "Polygon",
        "coordinates": [
          [
            [
              24.90501375145829,
              60.206567368613435
            ],
            [
              24.905044129510937,
              60.20659027668696
            ],
            [
              24.90482502563899,
              60.206662247474334
            ],
            [
              24.90479464767265,
              60.20663933935092
            ],
            [
              24.90501375145829,
              60.206567368613435
            ]
          ]
        ]
      },
      "properties": {
        "confidence": 0.8429,
        "length_m": 14.56,
        "width_m": 3.06,
        "heading_deg": 123.5,
        "aoi": "ruskeasuo",
        "source_layer": "Ortoilmakuva_2025_5cm",
        "zoom": 16,
        "status": "candidate",
        "class": ""
      }
    },
    {
      "type": "Feature",
      "geometry": {
        "type": "Polygon",
        "coordinates": [
          [
            [
              24.9053934634874,
              60.206647023363665
            ],
            [
              24.905595855157006,
              60.20670336401583
            ],
            [
              24.905570117299476,
              60.20672626612283
            ],
            [
              24.905367725533015,
              60.20666992543156
            ],
            [
              24.9053934634874,
              60.206647023363665
            ]
          ]
        ]
      },
      "properties": {
        "confidence": 0.8417,
        "length_m": 12.86,
        "width_m": 2.92,
        "heading_deg": 60.9,
        "aoi": "ruskeasuo",
        "source_layer": "Ortoilmakuva_2025_5cm",
        "zoom": 16,
        "status": "candidate",
        "class": ""
      }
    },
    {
      "type": "Feature",
      "geometry": {
        "type": "Polygon",
        "coordinates": [
          [
            [
              24.90542130938767,
              60.20689672595073
            ],
            [
              24.905622030659853,
              60.206953551006734
            ],
            [
              24.905595297286602,
              60.2069769413341
            ],
            [
              24.905394575917846,
              60.206920116237804
            ],
            [
              24.90542130938767,
              60.20689672595073
            ]
          ]
        ]
      },
      "properties": {
        "confidence": 0.8416,
        "length_m": 12.8,
        "width_m": 3,
        "heading_deg": 60.4,
        "aoi": "ruskeasuo",
        "source_layer": "Ortoilmakuva_2025_5cm",
        "zoom": 16,
        "status": "candidate",
        "class": ""
      }
    },
    {
      "type": "Feature",
      "geometry": {
        "type": "Polygon",
        "coordinates": [
          [
            [
              24.905392562518237,
              60.20660737840508
            ],
            [
              24.905595240894606,
              60.20666297135925
            ],
            [
              24.905569333516898,
              60.20668636774827
            ],
            [
              24.905366655040122,
              60.2066307747547
            ],
            [
              24.905392562518237,
              60.20660737840508
            ]
          ]
        ]
      },
      "properties": {
        "confidence": 0.8413,
        "length_m": 12.83,
        "width_m": 2.98,
        "heading_deg": 61.2,
        "aoi": "ruskeasuo",
        "source_layer": "Ortoilmakuva_2025_5cm",
        "zoom": 16,
        "status": "candidate",
        "class": ""
      }
    },
    {
      "type": "Feature",
      "geometry": {
        "type": "Polygon",
        "coordinates": [
          [
            [
              24.90473063484615,
              60.206319473292446
            ],
            [
              24.904760580225602,
              60.206342175622275
            ],
            [
              24.904565476378647,
              60.20640592387437
            ],
            [
              24.90453553107598,
              60.206383221500744
            ],
            [
              24.90473063484615,
              60.206319473292446
            ]
          ]
        ]
      },
      "properties": {
        "confidence": 0.8412,
        "length_m": 12.94,
        "width_m": 3.03,
        "heading_deg": 123.4,
        "aoi": "ruskeasuo",
        "source_layer": "Ortoilmakuva_2025_5cm",
        "zoom": 16,
        "status": "candidate",
        "class": ""
      }
    },
    {
      "type": "Feature",
      "geometry": {
        "type": "Polygon",
        "coordinates": [
          [
            [
              24.90336444116288,
              60.20605331399499
            ],
            [
              24.903367685937067,
              60.20607862799862
            ],
            [
              24.903133931668528,
              60.206086050087045
            ],
            [
              24.90313068707369,
              60.20606073607778
            ],
            [
              24.90336444116288,
              60.20605331399499
            ]
          ]
        ]
      },
      "properties": {
        "confidence": 0.8408,
        "length_m": 12.99,
        "width_m": 2.83,
        "heading_deg": 93.7,
        "aoi": "ruskeasuo",
        "source_layer": "Ortoilmakuva_2025_5cm",
        "zoom": 16,
        "status": "candidate",
        "class": ""
      }
    },
    {
      "type": "Feature",
      "geometry": {
        "type": "Polygon",
        "coordinates": [
          [
            [
              24.905042970865647,
              60.20698126859731
            ],
            [
              24.905074364495178,
              60.20700463577308
            ],
            [
              24.904855145564348,
              60.20707758772904
            ],
            [
              24.904823752021112,
              60.20705422050166
            ],
            [
              24.905042970865647,
              60.20698126859731
            ]
          ]
        ]
      },
      "properties": {
        "confidence": 0.8398,
        "length_m": 14.62,
        "width_m": 3.13,
        "heading_deg": 123.9,
        "aoi": "ruskeasuo",
        "source_layer": "Ortoilmakuva_2025_5cm",
        "zoom": 16,
        "status": "candidate",
        "class": ""
      }
    },
    {
      "type": "Feature",
      "geometry": {
        "type": "Polygon",
        "coordinates": [
          [
            [
              24.905381183636436,
              60.20635784295552
            ],
            [
              24.90558042078075,
              60.20641440571457
            ],
            [
              24.905552910897306,
              60.206438409034774
            ],
            [
              24.905353673654886,
              60.20638184623456
            ],
            [
              24.905381183636436,
              60.20635784295552
            ]
          ]
        ]
      },
      "properties": {
        "confidence": 0.8369,
        "length_m": 12.72,
        "width_m": 3.08,
        "heading_deg": 60.4,
        "aoi": "ruskeasuo",
        "source_layer": "Ortoilmakuva_2025_5cm",
        "zoom": 16,
        "status": "candidate",
        "class": ""
      }
    },
    {
      "type": "Feature",
      "geometry": {
        "type": "Polygon",
        "coordinates": [
          [
            [
              24.90398766209892,
              60.20666024914724
            ],
            [
              24.90421957717525,
              60.206723903068465
            ],
            [
              24.904192074661992,
              60.20674872362182
            ],
            [
              24.9039601594639,
              60.20668506963562
            ],
            [
              24.90398766209892,
              60.20666024914724
            ]
          ]
        ]
      },
      "properties": {
        "confidence": 0.8365,
        "length_m": 14.69,
        "width_m": 3.16,
        "heading_deg": 61.2,
        "aoi": "ruskeasuo",
        "source_layer": "Ortoilmakuva_2025_5cm",
        "zoom": 16,
        "status": "candidate",
        "class": ""
      }
    },
    {
      "type": "Feature",
      "geometry": {
        "type": "Polygon",
        "coordinates": [
          [
            [
              24.903771691861476,
              60.207538995655575
            ],
            [
              24.90400349067545,
              60.20760053115194
            ],
            [
              24.903977748844294,
              60.20762454898002
            ],
            [
              24.90374594990918,
              60.207563013438865
            ],
            [
              24.903771691861476,
              60.207538995655575
            ]
          ]
        ]
      },
      "properties": {
        "confidence": 0.8363,
        "length_m": 14.57,
        "width_m": 3.03,
        "heading_deg": 62,
        "aoi": "ruskeasuo",
        "source_layer": "Ortoilmakuva_2025_5cm",
        "zoom": 16,
        "status": "candidate",
        "class": ""
      }
    },
    {
      "type": "Feature",
      "geometry": {
        "type": "Polygon",
        "coordinates": [
          [
            [
              24.902290319517395,
              60.207695643617356
            ],
            [
              24.902298066645145,
              60.20781227410836
            ],
            [
              24.90224906243438,
              60.20781308040978
            ],
            [
              24.90224131548038,
              60.20769644991598
            ],
            [
              24.902290319517395,
              60.207695643617356
            ]
          ]
        ]
      },
      "properties": {
        "confidence": 0.8357,
        "length_m": 13,
        "width_m": 2.72,
        "heading_deg": 2,
        "aoi": "ruskeasuo",
        "source_layer": "Ortoilmakuva_2025_5cm",
        "zoom": 16,
        "status": "candidate",
        "class": ""
      }
    },
    {
      "type": "Feature",
      "geometry": {
        "type": "Polygon",
        "coordinates": [
          [
            [
              24.903439530623974,
              60.20763328900568
            ],
            [
              24.903468891684188,
              60.207656085352696
            ],
            [
              24.903247324625067,
              60.207726768685205
            ],
            [
              24.903217963655504,
              60.20770397228941
            ],
            [
              24.903439530623974,
              60.20763328900568
            ]
          ]
        ]
      },
      "properties": {
        "confidence": 0.8353,
        "length_m": 14.59,
        "width_m": 3.02,
        "heading_deg": 122.7,
        "aoi": "ruskeasuo",
        "source_layer": "Ortoilmakuva_2025_5cm",
        "zoom": 16,
        "status": "candidate",
        "class": ""
      }
    },
    {
      "type": "Feature",
      "geometry": {
        "type": "Polygon",
        "coordinates": [
          [
            [
              24.903727587319732,
              60.20680100715934
            ],
            [
              24.903963704650494,
              60.20686160773623
            ],
            [
              24.903938578809555,
              60.206885857182854
            ],
            [
              24.903702461350967,
              60.20682525656144
            ],
            [
              24.903727587319732,
              60.20680100715934
            ]
          ]
        ]
      },
      "properties": {
        "confidence": 0.8347,
        "length_m": 14.73,
        "width_m": 3.04,
        "heading_deg": 62.8,
        "aoi": "ruskeasuo",
        "source_layer": "Ortoilmakuva_2025_5cm",
        "zoom": 16,
        "status": "candidate",
        "class": ""
      }
    },
    {
      "type": "Feature",
      "geometry": {
        "type": "Polygon",
        "coordinates": [
          [
            [
              24.90334763349826,
              60.206218755337126
            ],
            [
              24.90337768876437,
              60.20624247350299
            ],
            [
              24.903155537278387,
              60.20631220539782
            ],
            [
              24.903125482109147,
              60.20628848711344
            ],
            [
              24.90334763349826,
              60.206218755337126
            ]
          ]
        ]
      },
      "properties": {
        "confidence": 0.8336,
        "length_m": 14.56,
        "width_m": 3.12,
        "heading_deg": 122.3,
        "aoi": "ruskeasuo",
        "source_layer": "Ortoilmakuva_2025_5cm",
        "zoom": 16,
        "status": "candidate",
        "class": ""
      }
    },
    {
      "type": "Feature",
      "geometry": {
        "type": "Polygon",
        "coordinates": [
          [
            [
              24.90375171252264,
              60.20651880574192
            ],
            [
              24.903954063675965,
              60.20657346673913
            ],
            [
              24.903927709644872,
              60.20659763326015
            ],
            [
              24.90372535838664,
              60.206542972222934
            ],
            [
              24.90375171252264,
              60.20651880574192
            ]
          ]
        ]
      },
      "properties": {
        "confidence": 0.833,
        "length_m": 12.77,
        "width_m": 3.06,
        "heading_deg": 61.6,
        "aoi": "ruskeasuo",
        "source_layer": "Ortoilmakuva_2025_5cm",
        "zoom": 16,
        "status": "candidate",
        "class": ""
      }
    },
    {
      "type": "Feature",
      "geometry": {
        "type": "Polygon",
        "coordinates": [
          [
            [
              24.90371530415608,
              60.20663715887698
            ],
            [
              24.903955111619705,
              60.206699024451424
            ],
            [
              24.903930848048635,
              60.2067223215979
            ],
            [
              24.90369104046075,
              60.206660455979794
            ],
            [
              24.90371530415608,
              60.20663715887698
            ]
          ]
        ]
      },
      "properties": {
        "confidence": 0.8329,
        "length_m": 14.98,
        "width_m": 2.92,
        "heading_deg": 62.7,
        "aoi": "ruskeasuo",
        "source_layer": "Ortoilmakuva_2025_5cm",
        "zoom": 16,
        "status": "candidate",
        "class": ""
      }
    },
    {
      "type": "Feature",
      "geometry": {
        "type": "Polygon",
        "coordinates": [
          [
            [
              24.905403335232876,
              60.20685490324053
            ],
            [
              24.905612737231586,
              60.2069078763799
            ],
            [
              24.905589244642194,
              60.20693087951585
            ],
            [
              24.905379842534835,
              60.206877906339564
            ],
            [
              24.905403335232876,
              60.20685490324053
            ]
          ]
        ]
      },
      "properties": {
        "confidence": 0.8328,
        "length_m": 13.03,
        "width_m": 2.87,
        "heading_deg": 63.1,
        "aoi": "ruskeasuo",
        "source_layer": "Ortoilmakuva_2025_5cm",
        "zoom": 16,
        "status": "candidate",
        "class": ""
      }
    },
    {
      "type": "Feature",
      "geometry": {
        "type": "Polygon",
        "coordinates": [
          [
            [
              24.90501083855486,
              60.20669884853941
            ],
            [
              24.90503998010316,
              60.20672084964261
            ],
            [
              24.90481990881361,
              60.20679305371335
            ],
            [
              24.904790767348715,
              60.206771052562054
            ],
            [
              24.90501083855486,
              60.20669884853941
            ]
          ]
        ]
      },
      "properties": {
        "confidence": 0.831,
        "length_m": 14.62,
        "width_m": 2.94,
        "heading_deg": 123.5,
        "aoi": "ruskeasuo",
        "source_layer": "Ortoilmakuva_2025_5cm",
        "zoom": 16,
        "status": "candidate",
        "class": ""
      }
    },
    {
      "type": "Feature",
      "geometry": {
        "type": "Polygon",
        "coordinates": [
          [
            [
              24.90543524390035,
              60.20710696821957
            ],
            [
              24.905647464497864,
              60.20716254601172
            ],
            [
              24.90562177790196,
              60.20718684084533
            ],
            [
              24.905409557191057,
              60.207131263012265
            ],
            [
              24.90543524390035,
              60.20710696821957
            ]
          ]
        ]
      },
      "properties": {
        "confidence": 0.8295,
        "length_m": 13.3,
        "width_m": 3.06,
        "heading_deg": 62.3,
        "aoi": "ruskeasuo",
        "source_layer": "Ortoilmakuva_2025_5cm",
        "zoom": 16,
        "status": "candidate",
        "class": ""
      }
    },
    {
      "type": "Feature",
      "geometry": {
        "type": "Polygon",
        "coordinates": [
          [
            [
              24.904995288972774,
              60.206324244813736
            ],
            [
              24.9050240346226,
              60.20634719739773
            ],
            [
              24.904799548609223,
              60.20641683929765
            ],
            [
              24.904770803055374,
              60.206393886665246
            ],
            [
              24.904995288972774,
              60.206324244813736
            ]
          ]
        ]
      },
      "properties": {
        "confidence": 0.8293,
        "length_m": 14.67,
        "width_m": 3.01,
        "heading_deg": 122,
        "aoi": "ruskeasuo",
        "source_layer": "Ortoilmakuva_2025_5cm",
        "zoom": 16,
        "status": "candidate",
        "class": ""
      }
    },
    {
      "type": "Feature",
      "geometry": {
        "type": "Polygon",
        "coordinates": [
          [
            [
              24.90371872792425,
              60.20671545940961
            ],
            [
              24.903957913518134,
              60.20677798519103
            ],
            [
              24.903931659060316,
              60.206802863121524
            ],
            [
              24.90369247333539,
              60.20674033729297
            ],
            [
              24.90371872792425,
              60.20671545940961
            ]
          ]
        ]
      },
      "properties": {
        "confidence": 0.829,
        "length_m": 14.98,
        "width_m": 3.13,
        "heading_deg": 62.4,
        "aoi": "ruskeasuo",
        "source_layer": "Ortoilmakuva_2025_5cm",
        "zoom": 16,
        "status": "candidate",
        "class": ""
      }
    },
    {
      "type": "Feature",
      "geometry": {
        "type": "Polygon",
        "coordinates": [
          [
            [
              24.902809251766232,
              60.20768544549831
            ],
            [
              24.902811436793023,
              60.207807292692884
            ],
            [
              24.90276022074502,
              60.207807520166156
            ],
            [
              24.902758035908136,
              60.20768567297078
            ],
            [
              24.902809251766232,
              60.20768544549831
            ]
          ]
        ]
      },
      "properties": {
        "confidence": 0.8274,
        "length_m": 13.58,
        "width_m": 2.84,
        "heading_deg": 0.6,
        "aoi": "ruskeasuo",
        "source_layer": "Ortoilmakuva_2025_5cm",
        "zoom": 16,
        "status": "candidate",
        "class": ""
      }
    },
    {
      "type": "Feature",
      "geometry": {
        "type": "Polygon",
        "coordinates": [
          [
            [
              24.90399199714153,
              60.20678617962776
            ],
            [
              24.90422652052041,
              60.206851679058666
            ],
            [
              24.904199737294157,
              60.206875433503235
            ],
            [
              24.903965213799218,
              60.20680993402518
            ],
            [
              24.90399199714153,
              60.20678617962776
            ]
          ]
        ]
      },
      "properties": {
        "confidence": 0.8242,
        "length_m": 14.91,
        "width_m": 3.03,
        "heading_deg": 60.8,
        "aoi": "ruskeasuo",
        "source_layer": "Ortoilmakuva_2025_5cm",
        "zoom": 16,
        "status": "candidate",
        "class": ""
      }
    },
    {
      "type": "Feature",
      "geometry": {
        "type": "Polygon",
        "coordinates": [
          [
            [
              24.903986563509715,
              60.206820520110014
            ],
            [
              24.9042182194263,
              60.20688680797615
            ],
            [
              24.904191132165085,
              60.20691025583404
            ],
            [
              24.903959476137924,
              60.20684396792081
            ],
            [
              24.903986563509715,
              60.206820520110014
            ]
          ]
        ]
      },
      "properties": {
        "confidence": 0.8241,
        "length_m": 14.82,
        "width_m": 3.01,
        "heading_deg": 60.2,
        "aoi": "ruskeasuo",
        "source_layer": "Ortoilmakuva_2025_5cm",
        "zoom": 16,
        "status": "candidate",
        "class": ""
      }
    },
    {
      "type": "Feature",
      "geometry": {
        "type": "Polygon",
        "coordinates": [
          [
            [
              24.903400234298715,
              60.207093069700534
            ],
            [
              24.903430081183426,
              60.207117003675116
            ],
            [
              24.903202825821424,
              60.20718720089067
            ],
            [
              24.90317297903858,
              60.20716326686525
            ],
            [
              24.903400234298715,
              60.207093069700534
            ]
          ]
        ]
      },
      "properties": {
        "confidence": 0.8222,
        "length_m": 14.83,
        "width_m": 3.14,
        "heading_deg": 121.9,
        "aoi": "ruskeasuo",
        "source_layer": "Ortoilmakuva_2025_5cm",
        "zoom": 16,
        "status": "candidate",
        "class": ""
      }
    },
    {
      "type": "Feature",
      "geometry": {
        "type": "Polygon",
        "coordinates": [
          [
            [
              24.903812625215604,
              60.20730954390779
            ],
            [
              24.90410525041245,
              60.207385841179295
            ],
            [
              24.904079681391714,
              60.207410131485055
            ],
            [
              24.903787056038027,
              60.2073338341574
            ],
            [
              24.903812625215604,
              60.20730954390779
            ]
          ]
        ]
      },
      "properties": {
        "confidence": 0.8213,
        "length_m": 18.32,
        "width_m": 3.06,
        "heading_deg": 62.4,
        "aoi": "ruskeasuo",
        "source_layer": "Ortoilmakuva_2025_5cm",
        "zoom": 16,
        "status": "candidate",
        "class": ""
      }
    },
    {
      "type": "Feature",
      "geometry": {
        "type": "Polygon",
        "coordinates": [
          [
            [
              24.9037665396508,
              60.2068925159418
            ],
            [
              24.9040597952032,
              60.20696809518174
            ],
            [
              24.904035091575558,
              60.206991837949225
            ],
            [
              24.903741835868193,
              60.20691625865489
            ],
            [
              24.9037665396508,
              60.2068925159418
            ]
          ]
        ]
      },
      "properties": {
        "confidence": 0.8173,
        "length_m": 18.31,
        "width_m": 2.98,
        "heading_deg": 62.7,
        "aoi": "ruskeasuo",
        "source_layer": "Ortoilmakuva_2025_5cm",
        "zoom": 16,
        "status": "candidate",
        "class": ""
      }
    },
    {
      "type": "Feature",
      "geometry": {
        "type": "Polygon",
        "coordinates": [
          [
            [
              24.90106548808535,
              60.20563158952147
            ],
            [
              24.901115202567624,
              60.20563396308847
            ],
            [
              24.90109336533576,
              60.20574726577553
            ],
            [
              24.901043650683672,
              60.20574489220037
            ],
            [
              24.90106548808535,
              60.20563158952147
            ]
          ]
        ]
      },
      "properties": {
        "confidence": 0.8172,
        "length_m": 12.68,
        "width_m": 2.77,
        "heading_deg": 174.6,
        "aoi": "ruskeasuo",
        "source_layer": "Ortoilmakuva_2025_5cm",
        "zoom": 16,
        "status": "candidate",
        "class": ""
      }
    },
    {
      "type": "Feature",
      "geometry": {
        "type": "Polygon",
        "coordinates": [
          [
            [
              24.901279184706947,
              60.205727805232
            ],
            [
              24.901332385527038,
              60.20573222829015
            ],
            [
              24.901295987917948,
              60.20584067961847
            ],
            [
              24.9012427869272,
              60.205836256545744
            ],
            [
              24.901279184706947,
              60.205727805232
            ]
          ]
        ]
      },
      "properties": {
        "confidence": 0.8147,
        "length_m": 12.25,
        "width_m": 2.99,
        "heading_deg": 170.6,
        "aoi": "ruskeasuo",
        "source_layer": "Ortoilmakuva_2025_5cm",
        "zoom": 16,
        "status": "candidate",
        "class": ""
      }
    },
    {
      "type": "Feature",
      "geometry": {
        "type": "Polygon",
        "coordinates": [
          [
            [
              24.901198170976187,
              60.20569504616392
            ],
            [
              24.901249383620538,
              60.20569778974959
            ],
            [
              24.901224565054758,
              60.20581255220093
            ],
            [
              24.901173352233545,
              60.2058098086399
            ],
            [
              24.901198170976187,
              60.20569504616392
            ]
          ]
        ]
      },
      "properties": {
        "confidence": 0.8106,
        "length_m": 12.86,
        "width_m": 2.86,
        "heading_deg": 173.9,
        "aoi": "ruskeasuo",
        "source_layer": "Ortoilmakuva_2025_5cm",
        "zoom": 16,
        "status": "candidate",
        "class": ""
      }
    },
    {
      "type": "Feature",
      "geometry": {
        "type": "Polygon",
        "coordinates": [
          [
            [
              24.90629898179121,
              60.207245951997564
            ],
            [
              24.906336012635887,
              60.20727173063686
            ],
            [
              24.906200454054478,
              60.20731996421798
            ],
            [
              24.906163423261866,
              60.20729418554105
            ],
            [
              24.90629898179121,
              60.207245951997564
            ]
          ]
        ]
      },
      "properties": {
        "confidence": 0.8101,
        "length_m": 9.24,
        "width_m": 3.53,
        "heading_deg": 125.6,
        "aoi": "ruskeasuo",
        "source_layer": "Ortoilmakuva_2025_5cm",
        "zoom": 16,
        "status": "candidate",
        "class": ""
      }
    },
    {
      "type": "Feature",
      "geometry": {
        "type": "Polygon",
        "coordinates": [
          [
            [
              24.905369663140018,
              60.20611588168514
            ],
            [
              24.90557654202584,
              60.206170579527814
            ],
            [
              24.905552303147676,
              60.20619328904752
            ],
            [
              24.905345424159293,
              60.206138591167225
            ],
            [
              24.905369663140018,
              60.20611588168514
            ]
          ]
        ]
      },
      "properties": {
        "confidence": 0.8007,
        "length_m": 12.99,
        "width_m": 2.87,
        "heading_deg": 62.1,
        "aoi": "ruskeasuo",
        "source_layer": "Ortoilmakuva_2025_5cm",
        "zoom": 16,
        "status": "candidate",
        "class": ""
      }
    },
    {
      "type": "Feature",
      "geometry": {
        "type": "Polygon",
        "coordinates": [
          [
            [
              24.90140868429104,
              60.2074422692903
            ],
            [
              24.90152638962098,
              60.20747080067056
            ],
            [
              24.90150541554833,
              60.20749223303277
            ],
            [
              24.901387710159916,
              60.20746370161685
            ],
            [
              24.90140868429104,
              60.2074422692903
            ]
          ]
        ]
      },
      "properties": {
        "confidence": 0.7796,
        "length_m": 7.26,
        "width_m": 2.66,
        "heading_deg": 64.1,
        "aoi": "ruskeasuo",
        "source_layer": "Ortoilmakuva_2025_5cm",
        "zoom": 16,
        "status": "candidate",
        "class": ""
      }
    },
    {
      "type": "Feature",
      "geometry": {
        "type": "Polygon",
        "coordinates": [
          [
            [
              24.906507114166434,
              60.207592748179955
            ],
            [
              24.906574723257574,
              60.2076352329478
            ],
            [
              24.90654088837443,
              60.20764856962621
            ],
            [
              24.90647327929963,
              60.20760608484122
            ],
            [
              24.906507114166434,
              60.207592748179955
            ]
          ]
        ]
      },
      "properties": {
        "confidence": 0.7554,
        "length_m": 6.04,
        "width_m": 2.39,
        "heading_deg": 38.5,
        "aoi": "ruskeasuo",
        "source_layer": "Ortoilmakuva_2025_5cm",
        "zoom": 16,
        "status": "candidate",
        "class": ""
      }
    },
    {
      "type": "Feature",
      "geometry": {
        "type": "Polygon",
        "coordinates": [
          [
            [
              24.906469079264,
              60.207608676124146
            ],
            [
              24.906524411363048,
              60.20764430307309
            ],
            [
              24.906492601614424,
              60.20765653978508
            ],
            [
              24.906437269529285,
              60.20762091282293
            ],
            [
              24.906469079264,
              60.207608676124146
            ]
          ]
        ]
      },
      "properties": {
        "confidence": 0.7296,
        "length_m": 5.02,
        "width_m": 2.23,
        "heading_deg": 37.8,
        "aoi": "ruskeasuo",
        "source_layer": "Ortoilmakuva_2025_5cm",
        "zoom": 16,
        "status": "candidate",
        "class": ""
      }
    },
    {
      "type": "Feature",
      "geometry": {
        "type": "Polygon",
        "coordinates": [
          [
            [
              24.902259418328207,
              60.20811195188206
            ],
            [
              24.902528347276625,
              60.20811810209823
            ],
            [
              24.90252607129144,
              60.20814275201024
            ],
            [
              24.9022571421417,
              60.20813660178941
            ],
            [
              24.902259418328207,
              60.20811195188206
            ]
          ]
        ]
      },
      "properties": {
        "confidence": 0.7279,
        "length_m": 14.93,
        "width_m": 2.75,
        "heading_deg": 87.5,
        "aoi": "ruskeasuo",
        "source_layer": "Ortoilmakuva_2025_5cm",
        "zoom": 16,
        "status": "candidate",
        "class": ""
      }
    },
    {
      "type": "Feature",
      "geometry": {
        "type": "Polygon",
        "coordinates": [
          [
            [
              24.90095040821412,
              60.206479330591016
            ],
            [
              24.900956742452433,
              60.20654504178499
            ],
            [
              24.900913130030656,
              60.20654608313786
            ],
            [
              24.900906795844957,
              60.206480371941794
            ],
            [
              24.90095040821412,
              60.206479330591016
            ]
          ]
        ]
      },
      "properties": {
        "confidence": 0.7275,
        "length_m": 7.33,
        "width_m": 2.42,
        "heading_deg": 2.8,
        "aoi": "ruskeasuo",
        "source_layer": "Ortoilmakuva_2025_5cm",
        "zoom": 16,
        "status": "candidate",
        "class": ""
      }
    },
    {
      "type": "Feature",
      "geometry": {
        "type": "Polygon",
        "coordinates": [
          [
            [
              24.906528351887506,
              60.207749696733266
            ],
            [
              24.906554605599425,
              60.20776534382921
            ],
            [
              24.90648002191126,
              60.207796340027386
            ],
            [
              24.906453768210124,
              60.20778069291674
            ],
            [
              24.906528351887506,
              60.207749696733266
            ]
          ]
        ]
      },
      "properties": {
        "confidence": 0.7008,
        "length_m": 5.39,
        "width_m": 2.27,
        "heading_deg": 129.9,
        "aoi": "ruskeasuo",
        "source_layer": "Ortoilmakuva_2025_5cm",
        "zoom": 16,
        "status": "candidate",
        "class": ""
      }
    },
    {
      "type": "Feature",
      "geometry": {
        "type": "Polygon",
        "coordinates": [
          [
            [
              24.902439147424094,
              60.207691375037015
            ],
            [
              24.902440076199376,
              60.2077318612219
            ],
            [
              24.902421281096885,
              60.207731968015814
            ],
            [
              24.902420352342606,
              60.20769148183081
            ],
            [
              24.902439147424094,
              60.207691375037015
            ]
          ]
        ]
      },
      "properties": {
        "confidence": 0.6735,
        "length_m": 4.51,
        "width_m": 1.04,
        "heading_deg": 0.7,
        "aoi": "ruskeasuo",
        "source_layer": "Ortoilmakuva_2025_5cm",
        "zoom": 16,
        "status": "candidate",
        "class": ""
      }
    },
    {
      "type": "Feature",
      "geometry": {
        "type": "Polygon",
        "coordinates": [
          [
            [
              24.901050978731188,
              60.20570252207552
            ],
            [
              24.90110054924561,
              60.20570494970567
            ],
            [
              24.901092779569172,
              60.205744251536096
            ],
            [
              24.901043208996047,
              60.20574182390303
            ],
            [
              24.901050978731188,
              60.20570252207552
            ]
          ]
        ]
      },
      "properties": {
        "confidence": 0.6155,
        "length_m": 4.4,
        "width_m": 2.76,
        "heading_deg": 174.5,
        "aoi": "ruskeasuo",
        "source_layer": "Ortoilmakuva_2025_5cm",
        "zoom": 16,
        "status": "candidate",
        "class": ""
      }
    },
    {
      "type": "Feature",
      "geometry": {
        "type": "Polygon",
        "coordinates": [
          [
            [
              24.90140904451247,
              60.207396455653964
            ],
            [
              24.901522546829025,
              60.20742481383488
            ],
            [
              24.901502951530922,
              60.20744424019895
            ],
            [
              24.901389449164206,
              60.20741588200135
            ],
            [
              24.90140904451247,
              60.207396455653964
            ]
          ]
        ]
      },
      "properties": {
        "confidence": 0.6037,
        "length_m": 7.04,
        "width_m": 2.42,
        "heading_deg": 63.4,
        "aoi": "ruskeasuo",
        "source_layer": "Ortoilmakuva_2025_5cm",
        "zoom": 16,
        "status": "candidate",
        "class": ""
      }
    },
    {
      "type": "Feature",
      "geometry": {
        "type": "Polygon",
        "coordinates": [
          [
            [
              24.9009939702034,
              60.20707282217044
            ],
            [
              24.900993130178158,
              60.20711665219003
            ],
            [
              24.900951475024243,
              60.20711645442192
            ],
            [
              24.90095231510504,
              60.2070726244026
            ],
            [
              24.9009939702034,
              60.20707282217044
            ]
          ]
        ]
      },
      "properties": {
        "confidence": 0.5586,
        "length_m": 4.88,
        "width_m": 2.31,
        "heading_deg": 179.5,
        "aoi": "ruskeasuo",
        "source_layer": "Ortoilmakuva_2025_5cm",
        "zoom": 16,
        "status": "candidate",
        "class": ""
      }
    },
    {
      "type": "Feature",
      "geometry": {
        "type": "Polygon",
        "coordinates": [
          [
            [
              24.906805631054503,
              60.20762355839505
            ],
            [
              24.906831536087427,
              60.207637866332846
            ],
            [
              24.906760106204462,
              60.20766989917758
            ],
            [
              24.906734201177407,
              60.20765559122589
            ],
            [
              24.906805631054503,
              60.20762355839505
            ]
          ]
        ]
      },
      "properties": {
        "confidence": 0.5246,
        "length_m": 5.33,
        "width_m": 2.15,
        "heading_deg": 132.1,
        "aoi": "ruskeasuo",
        "source_layer": "Ortoilmakuva_2025_5cm",
        "zoom": 16,
        "status": "candidate",
        "class": ""
      }
    },
    {
      "type": "Feature",
      "geometry": {
        "type": "Polygon",
        "coordinates": [
          [
            [
              24.902422186621514,
              60.208113676529415
            ],
            [
              24.90253196685884,
              60.20811624109276
            ],
            [
              24.90252941017168,
              60.2081433487053
            ],
            [
              24.902419629843987,
              60.208140784139836
            ],
            [
              24.902422186621514,
              60.208113676529415
            ]
          ]
        ]
      },
      "properties": {
        "confidence": 0.5081,
        "length_m": 6.09,
        "width_m": 3.02,
        "heading_deg": 87.4,
        "aoi": "ruskeasuo",
        "source_layer": "Ortoilmakuva_2025_5cm",
        "zoom": 16,
        "status": "candidate",
        "class": ""
      }
    },
    {
      "type": "Feature",
      "geometry": {
        "type": "Polygon",
        "coordinates": [
          [
            [
              24.902627163321853,
              60.206990429658745
            ],
            [
              24.902649462089876,
              60.20700885957991
            ],
            [
              24.902563216790647,
              60.207034706931914
            ],
            [
              24.902540918053482,
              60.20701627699634
            ],
            [
              24.902627163321853,
              60.206990429658745
            ]
          ]
        ]
      },
      "properties": {
        "confidence": 0.4974,
        "length_m": 5.58,
        "width_m": 2.4,
        "heading_deg": 121.1,
        "aoi": "ruskeasuo",
        "source_layer": "Ortoilmakuva_2025_5cm",
        "zoom": 16,
        "status": "candidate",
        "class": ""
      }
    },
    {
      "type": "Feature",
      "geometry": {
        "type": "Polygon",
        "coordinates": [
          [
            [
              24.903248450425945,
              60.20658410224501
            ],
            [
              24.903248482668097,
              60.2066020298446
            ],
            [
              24.903166290394523,
              60.20660206642471
            ],
            [
              24.90316625819742,
              60.20658413875661
            ],
            [
              24.903248450425945,
              60.20658410224501
            ]
          ]
        ]
      },
      "properties": {
        "confidence": 0.4809,
        "length_m": 4.56,
        "width_m": 2,
        "heading_deg": 90.1,
        "aoi": "ruskeasuo",
        "source_layer": "Ortoilmakuva_2025_5cm",
        "zoom": 16,
        "status": "candidate",
        "class": ""
      }
    },
    {
      "type": "Feature",
      "geometry": {
        "type": "Polygon",
        "coordinates": [
          [
            [
              24.900988781133176,
              60.20698762785293
            ],
            [
              24.90099144071338,
              60.207043585813615
            ],
            [
              24.900947805401543,
              60.20704409954711
            ],
            [
              24.900945145895612,
              60.20698814158557
            ],
            [
              24.900988781133176,
              60.20698762785293
            ]
          ]
        ]
      },
      "properties": {
        "confidence": 0.4807,
        "length_m": 6.24,
        "width_m": 2.42,
        "heading_deg": 1.4,
        "aoi": "ruskeasuo",
        "source_layer": "Ortoilmakuva_2025_5cm",
        "zoom": 16,
        "status": "candidate",
        "class": ""
      }
    },
    {
      "type": "Feature",
      "geometry": {
        "type": "Polygon",
        "coordinates": [
          [
            [
              24.903490923235214,
              60.20770139592953
            ],
            [
              24.903494113256635,
              60.20772501504726
            ],
            [
              24.90333364468282,
              60.20773038321309
            ],
            [
              24.903330454776228,
              60.20770676409261
            ],
            [
              24.903490923235214,
              60.20770139592953
            ]
          ]
        ]
      },
      "properties": {
        "confidence": 0.4311,
        "length_m": 8.92,
        "width_m": 2.64,
        "heading_deg": 93.9,
        "aoi": "ruskeasuo",
        "source_layer": "Ortoilmakuva_2025_5cm",
        "zoom": 16,
        "status": "candidate",
        "class": ""
      }
    },
    {
      "type": "Feature",
      "geometry": {
        "type": "Polygon",
        "coordinates": [
          [
            [
              24.903968823981742,
              60.20617299763509
            ],
            [
              24.90420002499877,
              60.206233758858275
            ],
            [
              24.904179932746878,
              60.206252697226894
            ],
            [
              24.903948731633825,
              60.206191935968846
            ],
            [
              24.903968823981742,
              60.20617299763509
            ]
          ]
        ]
      },
      "properties": {
        "confidence": 0.403,
        "length_m": 14.5,
        "width_m": 2.39,
        "heading_deg": 62.2,
        "aoi": "ruskeasuo",
        "source_layer": "Ortoilmakuva_2025_5cm",
        "zoom": 16,
        "status": "candidate",
        "class": ""
      }
    },
    {
      "type": "Feature",
      "geometry": {
        "type": "Polygon",
        "coordinates": [
          [
            [
              24.903506632253645,
              60.2059740529885
            ],
            [
              24.903510241035217,
              60.205998103141376
            ],
            [
              24.90339923535093,
              60.206002229139905
            ],
            [
              24.903395626650152,
              60.20597817898408
            ],
            [
              24.903506632253645,
              60.2059740529885
            ]
          ]
        ]
      },
      "properties": {
        "confidence": 0.3838,
        "length_m": 6.17,
        "width_m": 2.69,
        "heading_deg": 94.4,
        "aoi": "ruskeasuo",
        "source_layer": "Ortoilmakuva_2025_5cm",
        "zoom": 16,
        "status": "candidate",
        "class": ""
      }
    }
  ]
}
