{
  "type": "FeatureCollection",
  "features": [
    {
      "type": "Feature",
      "geometry": {
        "type": "Polygon",
        "coordinates": [
          [
            [
              25.017338610598188,
              60.28059425209434
            ],
            [
              25.0173913888458,
              60.280642834609516
            ],
            [
              25.01735257108007,
              60.280653233111074
            ],
            [
              25.017299792873267,
              60.280604650580536
            ],
            [
              25.017338610598188,
              60.28059425209434
            ]
          ]
        ]
      },
      "properties": {
        "confidence": 0.7306,
        "length_m": 6.15,
        "width_m": 2.44,
        "heading_deg": 28.3,
        "aoi": "siltamaki",
        "source_layer": "Ortoilmakuva_2025_5cm",
        "zoom": 16,
        "status": "candidate",
        "class": ""
      }
    },
    {
      "type": "Feature",
      "geometry": {
        "type": "Polygon",
        "coordinates": [
          [
            [
              25.01746400789304,
              60.28071336561183
            ],
            [
              25.017526129741167,
              60.2807729771652
            ],
            [
              25.017483769256287,
              60.28078386242032
            ],
            [
              25.01742164746459,
              60.280724250847236
            ],
            [
              25.01746400789304,
              60.28071336561183
            ]
          ]
        ]
      },
      "properties": {
        "confidence": 0.7228,
        "length_m": 7.48,
        "width_m": 2.64,
        "heading_deg": 27.3,
        "aoi": "siltamaki",
        "source_layer": "Ortoilmakuva_2025_5cm",
        "zoom": 16,
        "status": "candidate",
        "class": ""
      }
    },
    {
      "type": "Feature",
      "geometry": {
        "type": "Polygon",
        "coordinates": [
          [
            [
              25.012960259857223,
              60.28007586623984
            ],
            [
              25.012976784537976,
              60.280095272236245
            ],
            [
              25.01285927800477,
              60.28011994612057
            ],
            [
              25.012842753381175,
              60.28010054010965
            ],
            [
              25.012960259857223,
              60.28007586623984
            ]
          ]
        ]
      },
      "properties": {
        "confidence": 0.6032,
        "length_m": 7.06,
        "width_m": 2.35,
        "heading_deg": 112.9,
        "aoi": "siltamaki",
        "source_layer": "Ortoilmakuva_2025_5cm",
        "zoom": 16,
        "status": "candidate",
        "class": ""
      }
    },
    {
      "type": "Feature",
      "geometry": {
        "type": "Polygon",
        "coordinates": [
          [
            [
              25.017393147592692,
              60.2806498611821
            ],
            [
              25.017460338470922,
              60.28070720773836
            ],
            [
              25.017420219533232,
              60.28071879859791
            ],
            [
              25.01735302870145,
              60.28066145202147
            ],
            [
              25.017393147592692,
              60.2806498611821
            ]
          ]
        ]
      },
      "properties": {
        "confidence": 0.6007,
        "length_m": 7.39,
        "width_m": 2.57,
        "heading_deg": 30.2,
        "aoi": "siltamaki",
        "source_layer": "Ortoilmakuva_2025_5cm",
        "zoom": 16,
        "status": "candidate",
        "class": ""
      }
    },
    {
      "type": "Feature",
      "geometry": {
        "type": "Polygon",
        "coordinates": [
          [
            [
              25.017265350626914,
              60.28093328526353
            ],
            [
              25.017290963336965,
              60.28095632876562
            ],
            [
              25.01711762702497,
              60.28100383541952
            ],
            [
              25.01709201439969,
              60.28098079188416
            ],
            [
              25.017265350626914,
              60.28093328526353
            ]
          ]
        ]
      },
      "properties": {
        "confidence": 0.5999,
        "length_m": 10.95,
        "width_m": 2.93,
        "heading_deg": 118.9,
        "aoi": "siltamaki",
        "source_layer": "Ortoilmakuva_2025_5cm",
        "zoom": 16,
        "status": "candidate",
        "class": ""
      }
    },
    {
      "type": "Feature",
      "geometry": {
        "type": "Polygon",
        "coordinates": [
          [
            [
              25.018069031411716,
              60.281183780000184
            ],
            [
              25.018101494045716,
              60.281200283365784
            ],
            [
              25.01802676173537,
              60.281236530480825
            ],
            [
              25.017994299103094,
              60.28122002709705
            ],
            [
              25.018069031411716,
              60.281183780000184
            ]
          ]
        ]
      },
      "properties": {
        "confidence": 0.4945,
        "length_m": 5.78,
        "width_m": 2.57,
        "heading_deg": 134.3,
        "aoi": "siltamaki",
        "source_layer": "Ortoilmakuva_2025_5cm",
        "zoom": 16,
        "status": "candidate",
        "class": ""
      }
    },
    {
      "type": "Feature",
      "geometry": {
        "type": "Polygon",
        "coordinates": [
          [
            [
              25.018086540718116,
              60.28098710935697
            ],
            [
              25.018106855871675,
              60.281005462371134
            ],
            [
              25.018016470270407,
              60.28103013236392
            ],
            [
              25.01799615515218,
              60.28101177932745
            ],
            [
              25.018086540718116,
              60.28098710935697
            ]
          ]
        ]
      },
      "properties": {
        "confidence": 0.4832,
        "length_m": 5.71,
        "width_m": 2.33,
        "heading_deg": 118.8,
        "aoi": "siltamaki",
        "source_layer": "Ortoilmakuva_2025_5cm",
        "zoom": 16,
        "status": "candidate",
        "class": ""
      }
    },
    {
      "type": "Feature",
      "geometry": {
        "type": "Polygon",
        "coordinates": [
          [
            [
              25.013258159407204,
              60.28020177774501
            ],
            [
              25.013309672334824,
              60.280262081680206
            ],
            [
              25.013264570151208,
              60.28027158217067
            ],
            [
              25.013213057291665,
              60.28021127821809
            ],
            [
              25.013258159407204,
              60.28020177774501
            ]
          ]
        ]
      },
      "properties": {
        "confidence": 0.4675,
        "length_m": 7.3,
        "width_m": 2.71,
        "heading_deg": 23.0,
        "aoi": "siltamaki",
        "source_layer": "Ortoilmakuva_2025_5cm",
        "zoom": 16,
        "status": "candidate",
        "class": ""
      }
    },
    {
      "type": "Feature",
      "geometry": {
        "type": "Polygon",
        "coordinates": [
          [
            [
              25.01799203756971,
              60.28101316458982
            ],
            [
              25.01801402216063,
              60.28103064552125
            ],
            [
              25.017924775178585,
              60.28105832159928
            ],
            [
              25.01790279061671,
              60.281040840653155
            ],
            [
              25.01799203756971,
              60.28101316458982
            ]
          ]
        ]
      },
      "properties": {
        "confidence": 0.4533,
        "length_m": 5.82,
        "width_m": 2.3,
        "heading_deg": 122.0,
        "aoi": "siltamaki",
        "source_layer": "Ortoilmakuva_2025_5cm",
        "zoom": 16,
        "status": "candidate",
        "class": ""
      }
    },
    {
      "type": "Feature",
      "geometry": {
        "type": "Polygon",
        "coordinates": [
          [
            [
              25.01810753023986,
              60.281223343960775
            ],
            [
              25.018143087230914,
              60.281238048440564
            ],
            [
              25.018075930704683,
              60.28127809017324
            ],
            [
              25.018040373700305,
              60.281263385675544
            ],
            [
              25.01810753023986,
              60.281223343960775
            ]
          ]
        ]
      },
      "properties": {
        "confidence": 0.4521,
        "length_m": 5.81,
        "width_m": 2.56,
        "heading_deg": 140.2,
        "aoi": "siltamaki",
        "source_layer": "Ortoilmakuva_2025_5cm",
        "zoom": 16,
        "status": "candidate",
        "class": ""
      }
    },
    {
      "type": "Feature",
      "geometry": {
        "type": "Polygon",
        "coordinates": [
          [
            [
              25.013337686551818,
              60.28040058692976
            ],
            [
              25.013356665130946,
              60.28041904697788
            ],
            [
              25.013244554704528,
              60.28044746848821
            ],
            [
              25.0132255761721,
              60.28042900842418
            ],
            [
              25.013337686551818,
              60.28040058692976
            ]
          ]
        ]
      },
      "properties": {
        "confidence": 0.3687,
        "length_m": 6.96,
        "width_m": 2.31,
        "heading_deg": 117.0,
        "aoi": "siltamaki",
        "source_layer": "Ortoilmakuva_2025_5cm",
        "zoom": 16,
        "status": "candidate",
        "class": ""
      }
    },
    {
      "type": "Feature",
      "geometry": {
        "type": "Polygon",
        "coordinates": [
          [
            [
              25.017047316162536,
              60.280359456132466
            ],
            [
              25.017094403964993,
              60.28040161692659
            ],
            [
              25.017060079795446,
              60.28041107006976
            ],
            [
              25.017012992023567,
              60.28036890926351
            ],
            [
              25.017047316162536,
              60.280359456132466
            ]
          ]
        ]
      },
      "properties": {
        "confidence": 0.3443,
        "length_m": 5.37,
        "width_m": 2.17,
        "heading_deg": 29.0,
        "aoi": "siltamaki",
        "source_layer": "Ortoilmakuva_2025_5cm",
        "zoom": 16,
        "status": "candidate",
        "class": ""
      }
    },
    {
      "type": "Feature",
      "geometry": {
        "type": "Polygon",
        "coordinates": [
          [
            [
              25.01754951106536,
              60.28041584189149
            ],
            [
              25.017570421000126,
              60.2804331673938
            ],
            [
              25.01748507624606,
              60.28045856627207
            ],
            [
              25.01746416634021,
              60.28044124075638
            ],
            [
              25.01754951106536,
              60.28041584189149
            ]
          ]
        ]
      },
      "properties": {
        "confidence": 0.3113,
        "length_m": 5.5,
        "width_m": 2.25,
        "heading_deg": 120.9,
        "aoi": "siltamaki",
        "source_layer": "Ortoilmakuva_2025_5cm",
        "zoom": 16,
        "status": "candidate",
        "class": ""
      }
    },
    {
      "type": "Feature",
      "geometry": {
        "type": "Polygon",
        "coordinates": [
          [
            [
              25.017164047150732,
              60.28045822384676
            ],
            [
              25.017213920315893,
              60.280497843641044
            ],
            [
              25.017174435186114,
              60.280510099931476
            ],
            [
              25.01712456211899,
              60.28047048012243
            ],
            [
              25.017164047150732,
              60.28045822384676
            ]
          ]
        ]
      },
      "properties": {
        "confidence": 0.3047,
        "length_m": 5.21,
        "width_m": 2.58,
        "heading_deg": 32.0,
        "aoi": "siltamaki",
        "source_layer": "Ortoilmakuva_2025_5cm",
        "zoom": 16,
        "status": "candidate",
        "class": ""
      }
    },
    {
      "type": "Feature",
      "geometry": {
        "type": "Polygon",
        "coordinates": [
          [
            [
              25.018303681485524,
              60.280273920073455
            ],
            [
              25.018345042821878,
              60.28031501093372
            ],
            [
              25.01830536717629,
              60.28032485887467
            ],
            [
              25.01826400587726,
              60.280283768002114
            ],
            [
              25.018303681485524,
              60.280273920073455
            ]
          ]
        ]
      },
      "properties": {
        "confidence": 0.2532,
        "length_m": 5.12,
        "width_m": 2.45,
        "heading_deg": 26.5,
        "aoi": "siltamaki",
        "source_layer": "Ortoilmakuva_2025_5cm",
        "zoom": 16,
        "status": "candidate",
        "class": ""
      }
    },
    {
      "type": "Feature",
      "geometry": {
        "type": "Polygon",
        "coordinates": [
          [
            [
              25.018230015645393,
              60.28133683652811
            ],
            [
              25.01826811670913,
              60.2813479242704
            ],
            [
              25.018215499526974,
              60.28139250745582
            ],
            [
              25.018177398429188,
              60.28138141969852
            ],
            [
              25.018230015645393,
              60.28133683652811
            ]
          ]
        ]
      },
      "properties": {
        "confidence": 0.2511,
        "length_m": 5.76,
        "width_m": 2.44,
        "heading_deg": 149.6,
        "aoi": "siltamaki",
        "source_layer": "Ortoilmakuva_2025_5cm",
        "zoom": 16,
        "status": "candidate",
        "class": ""
      }
    }
  ]
}
