{
  "type": "FeatureCollection",
  "crs": {
    "type": "name",
    "properties": {
      "name": "urn:ogc:def:crs:EPSG::3879"
    }
  },
  "features": [
    {
      "type": "Feature",
      "geometry": {
        "type": "Polygon",
        "coordinates": [
          [
            [
              25503294.088,
              6681671.189
            ],
            [
              25503295.475,
              6681673.972
            ],
            [
              25503285.613,
              6681678.888
            ],
            [
              25503284.225,
              6681676.104
            ],
            [
              25503294.088,
              6681671.189
            ]
          ]
        ]
      },
      "properties": {
        "confidence": 0.8442,
        "length_m": 11.02,
        "width_m": 3.11,
        "heading_deg": 116.5,
        "aoi": "tattariharju",
        "source_layer": "Ortoilmakuva_2025_5cm",
        "zoom": 16,
        "status": "confirmed",
        "class": "truck"
      }
    },
    {
      "type": "Feature",
      "geometry": {
        "type": "Polygon",
        "coordinates": [
          [
            [
              25503300.655,
              6681685.345
            ],
            [
              25503301.943,
              6681688.122
            ],
            [
              25503291.079,
              6681693.162
            ],
            [
              25503289.79,
              6681690.385
            ],
            [
              25503300.655,
              6681685.345
            ]
          ]
        ]
      },
      "properties": {
        "confidence": 0.8431,
        "length_m": 11.98,
        "width_m": 3.06,
        "heading_deg": 114.9,
        "aoi": "tattariharju",
        "source_layer": "Ortoilmakuva_2025_5cm",
        "zoom": 16,
        "status": "confirmed",
        "class": "truck"
      }
    },
    {
      "type": "Feature",
      "geometry": {
        "type": "Polygon",
        "coordinates": [
          [
            [
              25503290.173,
              6681742.165
            ],
            [
              25503296.705,
              6681750.506
            ],
            [
              25503294.206,
              6681752.463
            ],
            [
              25503287.675,
              6681744.121
            ],
            [
              25503290.173,
              6681742.165
            ]
          ]
        ]
      },
      "properties": {
        "confidence": 0.8345,
        "length_m": 10.59,
        "width_m": 3.17,
        "heading_deg": 38.1,
        "aoi": "tattariharju",
        "source_layer": "Ortoilmakuva_2025_5cm",
        "zoom": 16,
        "status": "confirmed",
        "class": "truck"
      }
    },
    {
      "type": "Feature",
      "geometry": {
        "type": "Polygon",
        "coordinates": [
          [
            [
              25503259.581,
              6681715.064
            ],
            [
              25503261.582,
              6681717.442
            ],
            [
              25503253.953,
              6681723.863
            ],
            [
              25503251.952,
              6681721.484
            ],
            [
              25503259.581,
              6681715.064
            ]
          ]
        ]
      },
      "properties": {
        "confidence": 0.823,
        "length_m": 9.97,
        "width_m": 3.11,
        "heading_deg": 130.1,
        "aoi": "tattariharju",
        "source_layer": "Ortoilmakuva_2025_5cm",
        "zoom": 16,
        "status": "confirmed",
        "class": "truck"
      }
    },
    {
      "type": "Feature",
      "geometry": {
        "type": "Polygon",
        "coordinates": [
          [
            [
              25503233.44,
              6681674.415
            ],
            [
              25503235.437,
              6681676.824
            ],
            [
              25503223.081,
              6681687.069
            ],
            [
              25503221.084,
              6681684.661
            ],
            [
              25503233.44,
              6681674.415
            ]
          ]
        ]
      },
      "properties": {
        "confidence": 0.8208,
        "length_m": 16.05,
        "width_m": 3.13,
        "heading_deg": 129.7,
        "aoi": "tattariharju",
        "source_layer": "Ortoilmakuva_2025_5cm",
        "zoom": 16,
        "status": "confirmed",
        "class": "truck"
      }
    },
    {
      "type": "Feature",
      "geometry": {
        "type": "Polygon",
        "coordinates": [
          [
            [
              25503263.926,
              6681719.154
            ],
            [
              25503265.897,
              6681721.495
            ],
            [
              25503257.794,
              6681728.319
            ],
            [
              25503255.823,
              6681725.978
            ],
            [
              25503263.926,
              6681719.154
            ]
          ]
        ]
      },
      "properties": {
        "confidence": 0.8138,
        "length_m": 10.59,
        "width_m": 3.06,
        "heading_deg": 130.1,
        "aoi": "tattariharju",
        "source_layer": "Ortoilmakuva_2025_5cm",
        "zoom": 16,
        "status": "confirmed",
        "class": "truck"
      }
    },
    {
      "type": "Feature",
      "geometry": {
        "type": "Polygon",
        "coordinates": [
          [
            [
              25503303.657,
              6681691.308
            ],
            [
              25503304.926,
              6681694.092
            ],
            [
              25503295.703,
              6681698.294
            ],
            [
              25503294.435,
              6681695.51
            ],
            [
              25503303.657,
              6681691.308
            ]
          ]
        ]
      },
      "properties": {
        "confidence": 0.8022,
        "length_m": 10.14,
        "width_m": 3.06,
        "heading_deg": 114.5,
        "aoi": "tattariharju",
        "source_layer": "Ortoilmakuva_2025_5cm",
        "zoom": 16,
        "status": "confirmed",
        "class": "truck"
      }
    },
    {
      "type": "Feature",
      "geometry": {
        "type": "Polygon",
        "coordinates": [
          [
            [
              25503295.4,
              6681674.389
            ],
            [
              25503296.767,
              6681677.04
            ],
            [
              25503286.996,
              6681682.077
            ],
            [
              25503285.629,
              6681679.425
            ],
            [
              25503295.4,
              6681674.389
            ]
          ]
        ]
      },
      "properties": {
        "confidence": 0.7878,
        "length_m": 10.99,
        "width_m": 2.98,
        "heading_deg": 117.3,
        "aoi": "tattariharju",
        "source_layer": "Ortoilmakuva_2025_5cm",
        "zoom": 16,
        "status": "confirmed",
        "class": "truck"
      }
    },
    {
      "type": "Feature",
      "geometry": {
        "type": "Polygon",
        "coordinates": [
          [
            [
              25503255.413,
              6681710.742
            ],
            [
              25503257.317,
              6681713.041
            ],
            [
              25503250.088,
              6681719.031
            ],
            [
              25503248.184,
              6681716.733
            ],
            [
              25503255.413,
              6681710.742
            ]
          ]
        ]
      },
      "properties": {
        "confidence": 0.7743,
        "length_m": 9.39,
        "width_m": 2.99,
        "heading_deg": 129.6,
        "aoi": "tattariharju",
        "source_layer": "Ortoilmakuva_2025_5cm",
        "zoom": 16,
        "status": "confirmed",
        "class": "truck"
      }
    },
    {
      "type": "Feature",
      "geometry": {
        "type": "Polygon",
        "coordinates": [
          [
            [
              25503260.827,
              6681628.507
            ],
            [
              25503262.46,
              6681630.523
            ],
            [
              25503257.617,
              6681634.446
            ],
            [
              25503255.984,
              6681632.43
            ],
            [
              25503260.827,
              6681628.507
            ]
          ]
        ]
      },
      "properties": {
        "confidence": 0.7501,
        "length_m": 6.23,
        "width_m": 2.59,
        "heading_deg": 129,
        "aoi": "tattariharju",
        "source_layer": "Ortoilmakuva_2025_5cm",
        "zoom": 16,
        "status": "confirmed",
        "class": "truck"
      }
    },
    {
      "type": "Feature",
      "geometry": {
        "type": "Polygon",
        "coordinates": [
          [
            [
              25503296.149,
              6681677.972
            ],
            [
              25503297.591,
              6681680.822
            ],
            [
              25503287.848,
              6681685.749
            ],
            [
              25503286.407,
              6681682.899
            ],
            [
              25503296.149,
              6681677.972
            ]
          ]
        ]
      },
      "properties": {
        "confidence": 0.7173,
        "length_m": 10.92,
        "width_m": 3.19,
        "heading_deg": 116.8,
        "aoi": "tattariharju",
        "source_layer": "Ortoilmakuva_2025_5cm",
        "zoom": 16,
        "status": "confirmed",
        "class": "truck"
      }
    },
    {
      "type": "Feature",
      "geometry": {
        "type": "Polygon",
        "coordinates": [
          [
            [
              25503243.671,
              6681696.863
            ],
            [
              25503245.829,
              6681699.329
            ],
            [
              25503236.69,
              6681707.324
            ],
            [
              25503234.532,
              6681704.857
            ],
            [
              25503243.671,
              6681696.863
            ]
          ]
        ]
      },
      "properties": {
        "confidence": 0.6672,
        "length_m": 12.14,
        "width_m": 3.28,
        "heading_deg": 131.2,
        "aoi": "tattariharju",
        "source_layer": "Ortoilmakuva_2025_5cm",
        "zoom": 16,
        "status": "confirmed",
        "class": "truck"
      }
    },
    {
      "type": "Feature",
      "geometry": {
        "type": "Polygon",
        "coordinates": [
          [
            [
              25503302.076,
              6681688.515
            ],
            [
              25503303.264,
              6681691.049
            ],
            [
              25503293.258,
              6681695.741
            ],
            [
              25503292.07,
              6681693.207
            ],
            [
              25503302.076,
              6681688.515
            ]
          ]
        ]
      },
      "properties": {
        "confidence": 0.6362,
        "length_m": 11.05,
        "width_m": 2.8,
        "heading_deg": 115.1,
        "aoi": "tattariharju",
        "source_layer": "Ortoilmakuva_2025_5cm",
        "zoom": 16,
        "status": "confirmed",
        "class": "truck"
      }
    },
    {
      "type": "Feature",
      "geometry": {
        "type": "Polygon",
        "coordinates": [
          [
            [
              25503154.08,
              6681623.673
            ],
            [
              25503161.955,
              6681631.207
            ],
            [
              25503159.833,
              6681633.427
            ],
            [
              25503151.957,
              6681625.893
            ],
            [
              25503154.08,
              6681623.673
            ]
          ]
        ]
      },
      "properties": {
        "confidence": 0.6347,
        "length_m": 10.9,
        "width_m": 3.07,
        "heading_deg": 46.3,
        "aoi": "tattariharju",
        "source_layer": "Ortoilmakuva_2025_5cm",
        "zoom": 16,
        "status": "confirmed",
        "class": "truck"
      }
    },
    {
      "type": "Feature",
      "geometry": {
        "type": "Polygon",
        "coordinates": [
          [
            [
              25503379.749,
              6681555.59
            ],
            [
              25503381.393,
              6681557.559
            ],
            [
              25503376.728,
              6681561.456
            ],
            [
              25503375.083,
              6681559.487
            ],
            [
              25503379.749,
              6681555.59
            ]
          ]
        ]
      },
      "properties": {
        "confidence": 0.6067,
        "length_m": 6.08,
        "width_m": 2.57,
        "heading_deg": 129.9,
        "aoi": "tattariharju",
        "source_layer": "Ortoilmakuva_2025_5cm",
        "zoom": 16,
        "status": "confirmed",
        "class": "van"
      }
    },
    {
      "type": "Feature",
      "geometry": {
        "type": "Polygon",
        "coordinates": [
          [
            [
              25503233.689,
              6681625.643
            ],
            [
              25503235.505,
              6681627.214
            ],
            [
              25503231.975,
              6681631.293
            ],
            [
              25503230.16,
              6681629.722
            ],
            [
              25503233.689,
              6681625.643
            ]
          ]
        ]
      },
      "properties": {
        "confidence": 0.6016,
        "length_m": 5.39,
        "width_m": 2.4,
        "heading_deg": 139.1,
        "aoi": "tattariharju",
        "source_layer": "Ortoilmakuva_2025_5cm",
        "zoom": 16,
        "status": "confirmed",
        "class": "van"
      }
    },
    {
      "type": "Feature",
      "geometry": {
        "type": "Polygon",
        "coordinates": [
          [
            [
              25503290.738,
              6681737.585
            ],
            [
              25503298.125,
              6681746.722
            ],
            [
              25503295.991,
              6681748.448
            ],
            [
              25503288.604,
              6681739.311
            ],
            [
              25503290.738,
              6681737.585
            ]
          ]
        ]
      },
      "properties": {
        "confidence": 0.5931,
        "length_m": 11.75,
        "width_m": 2.74,
        "heading_deg": 39,
        "aoi": "tattariharju",
        "source_layer": "Ortoilmakuva_2025_5cm",
        "zoom": 16,
        "status": "confirmed",
        "class": "truck"
      }
    },
    {
      "type": "Feature",
      "geometry": {
        "type": "Polygon",
        "coordinates": [
          [
            [
              25503177.077,
              6681563.491
            ],
            [
              25503180.865,
              6681568.41
            ],
            [
              25503178.973,
              6681569.866
            ],
            [
              25503175.185,
              6681564.947
            ],
            [
              25503177.077,
              6681563.491
            ]
          ]
        ]
      },
      "properties": {
        "confidence": 0.5459,
        "length_m": 6.21,
        "width_m": 2.39,
        "heading_deg": 37.6,
        "aoi": "tattariharju",
        "source_layer": "Ortoilmakuva_2025_5cm",
        "zoom": 16,
        "status": "confirmed",
        "class": "van"
      }
    },
    {
      "type": "Feature",
      "geometry": {
        "type": "Polygon",
        "coordinates": [
          [
            [
              25503267.745,
              6681732.217
            ],
            [
              25503269.253,
              6681734.095
            ],
            [
              25503265.039,
              6681737.477
            ],
            [
              25503263.531,
              6681735.599
            ],
            [
              25503267.745,
              6681732.217
            ]
          ]
        ]
      },
      "properties": {
        "confidence": 0.52,
        "length_m": 5.4,
        "width_m": 2.41,
        "heading_deg": 128.7,
        "aoi": "tattariharju",
        "source_layer": "Ortoilmakuva_2025_5cm",
        "zoom": 16,
        "status": "confirmed",
        "class": "van"
      }
    },
    {
      "type": "Feature",
      "geometry": {
        "type": "Polygon",
        "coordinates": [
          [
            [
              25503176.497,
              6681608.271
            ],
            [
              25503179.876,
              6681612.652
            ],
            [
              25503178.056,
              6681614.055
            ],
            [
              25503174.678,
              6681609.675
            ],
            [
              25503176.497,
              6681608.271
            ]
          ]
        ]
      },
      "properties": {
        "confidence": 0.4888,
        "length_m": 5.53,
        "width_m": 2.3,
        "heading_deg": 37.6,
        "aoi": "tattariharju",
        "source_layer": "Ortoilmakuva_2025_5cm",
        "zoom": 16,
        "status": "confirmed",
        "class": "van"
      }
    },
    {
      "type": "Feature",
      "geometry": {
        "type": "Polygon",
        "coordinates": [
          [
            [
              25503235.942,
              6681628.084
            ],
            [
              25503237.538,
              6681629.688
            ],
            [
              25503233.707,
              6681633.5
            ],
            [
              25503232.111,
              6681631.896
            ],
            [
              25503235.942,
              6681628.084
            ]
          ]
        ]
      },
      "properties": {
        "confidence": 0.474,
        "length_m": 5.4,
        "width_m": 2.26,
        "heading_deg": 134.9,
        "aoi": "tattariharju",
        "source_layer": "Ortoilmakuva_2025_5cm",
        "zoom": 16,
        "status": "confirmed",
        "class": "van"
      }
    },
    {
      "type": "Feature",
      "geometry": {
        "type": "Polygon",
        "coordinates": [
          [
            [
              25503375.185,
              6681549.631
            ],
            [
              25503379.676,
              6681552.941
            ],
            [
              25503378.228,
              6681554.905
            ],
            [
              25503373.737,
              6681551.595
            ],
            [
              25503375.185,
              6681549.631
            ]
          ]
        ]
      },
      "properties": {
        "confidence": 0.4464,
        "length_m": 5.58,
        "width_m": 2.44,
        "heading_deg": 53.6,
        "aoi": "tattariharju",
        "source_layer": "Ortoilmakuva_2025_5cm",
        "zoom": 16,
        "status": "confirmed",
        "class": "van"
      }
    },
    {
      "type": "Feature",
      "geometry": {
        "type": "Polygon",
        "coordinates": [
          [
            [
              25503325.005,
              6681769.959
            ],
            [
              25503325.538,
              6681772.374
            ],
            [
              25503320.575,
              6681773.469
            ],
            [
              25503320.042,
              6681771.055
            ],
            [
              25503325.005,
              6681769.959
            ]
          ]
        ]
      },
      "properties": {
        "confidence": 0.3984,
        "length_m": 5.08,
        "width_m": 2.47,
        "heading_deg": 102.4,
        "aoi": "tattariharju",
        "source_layer": "Ortoilmakuva_2025_5cm",
        "zoom": 16,
        "status": "confirmed",
        "class": "van"
      }
    },
    {
      "type": "Feature",
      "geometry": {
        "type": "Polygon",
        "coordinates": [
          [
            [
              25503305.469,
              6681796.772
            ],
            [
              25503308.124,
              6681801.335
            ],
            [
              25503305.919,
              6681802.618
            ],
            [
              25503303.264,
              6681798.055
            ],
            [
              25503305.469,
              6681796.772
            ]
          ]
        ]
      },
      "properties": {
        "confidence": 0.3413,
        "length_m": 5.28,
        "width_m": 2.55,
        "heading_deg": 30.2,
        "aoi": "tattariharju",
        "source_layer": "Ortoilmakuva_2025_5cm",
        "zoom": 16,
        "status": "confirmed",
        "class": "van"
      }
    },
    {
      "type": "Feature",
      "geometry": {
        "type": "Polygon",
        "coordinates": [
          [
            [
              25503207.827,
              6681587.649
            ],
            [
              25503211.478,
              6681592.899
            ],
            [
              25503209.494,
              6681594.279
            ],
            [
              25503205.843,
              6681589.029
            ],
            [
              25503207.827,
              6681587.649
            ]
          ]
        ]
      },
      "properties": {
        "confidence": 0.281,
        "length_m": 6.39,
        "width_m": 2.42,
        "heading_deg": 34.8,
        "aoi": "tattariharju",
        "source_layer": "Ortoilmakuva_2025_5cm",
        "zoom": 16,
        "status": "confirmed",
        "class": "truck"
      }
    }
  ]
}
