{
  "type": "FeatureCollection",
  "features": [
    {
      "type": "Feature",
      "geometry": {
        "type": "Polygon",
        "coordinates": [
          [
            [
              24.87135800743657,
              60.22507212809681
            ],
            [
              24.87136822798883,
              60.225098524326334
            ],
            [
              24.871182905010418,
              60.225116278466615
            ],
            [
              24.87117268473931,
              60.225089882223074
            ],
            [
              24.87135800743657,
              60.22507212809681
            ]
          ]
        ]
      },
      "properties": {
        "confidence": 0.8453,
        "length_m": 10.46,
        "width_m": 3,
        "heading_deg": 101,
        "aoi": "valimo",
        "source_layer": "Ortoilmakuva_2025_5cm",
        "zoom": 16,
        "status": "candidate",
        "class": ""
      }
    },
    {
      "type": "Feature",
      "geometry": {
        "type": "Polygon",
        "coordinates": [
          [
            [
              24.871318780224975,
              60.22500420372758
            ],
            [
              24.87133247571811,
              60.22503026142563
            ],
            [
              24.8711451789099,
              60.22505461790077
            ],
            [
              24.871131483555022,
              60.22502856025198
            ],
            [
              24.871318780224975,
              60.22500420372758
            ]
          ]
        ]
      },
      "properties": {
        "confidence": 0.8407,
        "length_m": 10.73,
        "width_m": 3,
        "heading_deg": 104.8,
        "aoi": "valimo",
        "source_layer": "Ortoilmakuva_2025_5cm",
        "zoom": 16,
        "status": "candidate",
        "class": ""
      }
    },
    {
      "type": "Feature",
      "geometry": {
        "type": "Polygon",
        "coordinates": [
          [
            [
              24.871343762634922,
              60.225109238710864
            ],
            [
              24.871353300086348,
              60.22513620010187
            ],
            [
              24.871162323517453,
              60.22515291521421
            ],
            [
              24.871152786218026,
              60.2251259538096
            ],
            [
              24.871343762634922,
              60.225109238710864
            ]
          ]
        ]
      },
      "properties": {
        "confidence": 0.839,
        "length_m": 10.75,
        "width_m": 3.05,
        "heading_deg": 100.1,
        "aoi": "valimo",
        "source_layer": "Ortoilmakuva_2025_5cm",
        "zoom": 16,
        "status": "candidate",
        "class": ""
      }
    },
    {
      "type": "Feature",
      "geometry": {
        "type": "Polygon",
        "coordinates": [
          [
            [
              24.87133892273288,
              60.225041024471736
            ],
            [
              24.871348756032866,
              60.22506808290775
            ],
            [
              24.871171125568996,
              60.2250840550564
            ],
            [
              24.871161292272983,
              60.225056996607194
            ],
            [
              24.87133892273288,
              60.225041024471736
            ]
          ]
        ]
      },
      "properties": {
        "confidence": 0.8368,
        "length_m": 10,
        "width_m": 3.06,
        "heading_deg": 100.4,
        "aoi": "valimo",
        "source_layer": "Ortoilmakuva_2025_5cm",
        "zoom": 16,
        "status": "candidate",
        "class": ""
      }
    },
    {
      "type": "Feature",
      "geometry": {
        "type": "Polygon",
        "coordinates": [
          [
            [
              24.87271578855007,
              60.22622083578959
            ],
            [
              24.872763159282478,
              60.22623940103667
            ],
            [
              24.872646290566298,
              60.22631317816145
            ],
            [
              24.87259891979363,
              60.226294612872856
            ],
            [
              24.87271578855007,
              60.22622083578959
            ]
          ]
        ]
      },
      "properties": {
        "confidence": 0.7653,
        "length_m": 10.46,
        "width_m": 3.34,
        "heading_deg": 141.9,
        "aoi": "valimo",
        "source_layer": "Ortoilmakuva_2025_5cm",
        "zoom": 16,
        "status": "candidate",
        "class": ""
      }
    },
    {
      "type": "Feature",
      "geometry": {
        "type": "Polygon",
        "coordinates": [
          [
            [
              24.871306339760835,
              60.22571568256284
            ],
            [
              24.87131083334049,
              60.225748311396124
            ],
            [
              24.8711115504404,
              60.22575510152161
            ],
            [
              24.87110705705787,
              60.22572247268167
            ],
            [
              24.871306339760835,
              60.22571568256284
            ]
          ]
        ]
      },
      "properties": {
        "confidence": 0.7639,
        "length_m": 11.07,
        "width_m": 3.64,
        "heading_deg": 94,
        "aoi": "valimo",
        "source_layer": "Ortoilmakuva_2025_5cm",
        "zoom": 16,
        "status": "candidate",
        "class": ""
      }
    },
    {
      "type": "Feature",
      "geometry": {
        "type": "Polygon",
        "coordinates": [
          [
            [
              24.87132546020107,
              60.22530861274564
            ],
            [
              24.871331231719527,
              60.22533575331853
            ],
            [
              24.87116078180081,
              60.2253447214315
            ],
            [
              24.87115501042169,
              60.225317580851296
            ],
            [
              24.87132546020107,
              60.22530861274564
            ]
          ]
        ]
      },
      "properties": {
        "confidence": 0.7199,
        "length_m": 9.5,
        "width_m": 3.04,
        "heading_deg": 96.1,
        "aoi": "valimo",
        "source_layer": "Ortoilmakuva_2025_5cm",
        "zoom": 16,
        "status": "candidate",
        "class": ""
      }
    },
    {
      "type": "Feature",
      "geometry": {
        "type": "Polygon",
        "coordinates": [
          [
            [
              24.871555515420077,
              60.22633238760328
            ],
            [
              24.871604235663998,
              60.22635168661992
            ],
            [
              24.871478109505347,
              60.22643046210414
            ],
            [
              24.871429389218804,
              60.22641116303714
            ],
            [
              24.871555515420077,
              60.22633238760328
            ]
          ]
        ]
      },
      "properties": {
        "confidence": 0.7022,
        "length_m": 11.22,
        "width_m": 3.45,
        "heading_deg": 141.6,
        "aoi": "valimo",
        "source_layer": "Ortoilmakuva_2025_5cm",
        "zoom": 16,
        "status": "candidate",
        "class": ""
      }
    },
    {
      "type": "Feature",
      "geometry": {
        "type": "Polygon",
        "coordinates": [
          [
            [
              24.870370119946767,
              60.22583986939315
            ],
            [
              24.87041392820791,
              60.225859091123304
            ],
            [
              24.870310646850584,
              60.22591732971511
            ],
            [
              24.87026683857215,
              60.22589810798523
            ],
            [
              24.870370119946767,
              60.22583986939315
            ]
          ]
        ]
      },
      "properties": {
        "confidence": 0.5931,
        "length_m": 8.65,
        "width_m": 3.24,
        "heading_deg": 138.7,
        "aoi": "valimo",
        "source_layer": "Ortoilmakuva_2025_5cm",
        "zoom": 16,
        "status": "candidate",
        "class": ""
      }
    },
    {
      "type": "Feature",
      "geometry": {
        "type": "Polygon",
        "coordinates": [
          [
            [
              24.872846318348696,
              60.226368849268525
            ],
            [
              24.872949371122264,
              60.22640921946707
            ],
            [
              24.872917490175862,
              60.22642935398215
            ],
            [
              24.872814437309525,
              60.226388983758895
            ],
            [
              24.872846318348696,
              60.226368849268525
            ]
          ]
        ]
      },
      "properties": {
        "confidence": 0.5637,
        "length_m": 7.27,
        "width_m": 2.86,
        "heading_deg": 51.9,
        "aoi": "valimo",
        "source_layer": "Ortoilmakuva_2025_5cm",
        "zoom": 16,
        "status": "candidate",
        "class": ""
      }
    },
    {
      "type": "Feature",
      "geometry": {
        "type": "Polygon",
        "coordinates": [
          [
            [
              24.871614791382157,
              60.22635561173702
            ],
            [
              24.87166289108138,
              60.226374910953375
            ],
            [
              24.87153260482356,
              60.226455247418706
            ],
            [
              24.871484505083345,
              60.226435948155356
            ],
            [
              24.871614791382157,
              60.22635561173702
            ]
          ]
        ]
      },
      "properties": {
        "confidence": 0.5424,
        "length_m": 11.5,
        "width_m": 3.42,
        "heading_deg": 141.2,
        "aoi": "valimo",
        "source_layer": "Ortoilmakuva_2025_5cm",
        "zoom": 16,
        "status": "candidate",
        "class": ""
      }
    },
    {
      "type": "Feature",
      "geometry": {
        "type": "Polygon",
        "coordinates": [
          [
            [
              24.870998885867653,
              60.22559220643859
            ],
            [
              24.871139922483476,
              60.22564335104809
            ],
            [
              24.871105260279624,
              60.225667000452795
            ],
            [
              24.87096422361631,
              60.22561585580663
            ],
            [
              24.870998885867653,
              60.22559220643859
            ]
          ]
        ]
      },
      "properties": {
        "confidence": 0.5424,
        "length_m": 9.67,
        "width_m": 3.26,
        "heading_deg": 54,
        "aoi": "valimo",
        "source_layer": "Ortoilmakuva_2025_5cm",
        "zoom": 16,
        "status": "candidate",
        "class": ""
      }
    },
    {
      "type": "Feature",
      "geometry": {
        "type": "Polygon",
        "coordinates": [
          [
            [
              24.870515943079273,
              60.223882910987335
            ],
            [
              24.870610327038534,
              60.22395240540423
            ],
            [
              24.87056097473343,
              60.22396899108364
            ],
            [
              24.870466590813827,
              60.22389949663182
            ],
            [
              24.870515943079273,
              60.223882910987335
            ]
          ]
        ]
      },
      "properties": {
        "confidence": 0.525,
        "length_m": 9.34,
        "width_m": 3.3,
        "heading_deg": 34.2,
        "aoi": "valimo",
        "source_layer": "Ortoilmakuva_2025_5cm",
        "zoom": 16,
        "status": "candidate",
        "class": ""
      }
    },
    {
      "type": "Feature",
      "geometry": {
        "type": "Polygon",
        "coordinates": [
          [
            [
              24.87131799339147,
              60.225147155725885
            ],
            [
              24.871327835179308,
              60.2251741596638
            ],
            [
              24.871136041334804,
              60.22519145455964
            ],
            [
              24.87112619969956,
              60.22516445060765
            ],
            [
              24.87131799339147,
              60.225147155725885
            ]
          ]
        ]
      },
      "properties": {
        "confidence": 0.524,
        "length_m": 10.8,
        "width_m": 3.06,
        "heading_deg": 100.4,
        "aoi": "valimo",
        "source_layer": "Ortoilmakuva_2025_5cm",
        "zoom": 16,
        "status": "candidate",
        "class": ""
      }
    },
    {
      "type": "Feature",
      "geometry": {
        "type": "Polygon",
        "coordinates": [
          [
            [
              24.87126697193413,
              60.2253807497093
            ],
            [
              24.87127329081432,
              60.225403560898535
            ],
            [
              24.871173371450364,
              60.22541040897873
            ],
            [
              24.871167052638285,
              60.22538759778478
            ],
            [
              24.87126697193413,
              60.2253807497093
            ]
          ]
        ]
      },
      "properties": {
        "confidence": 0.454,
        "length_m": 5.59,
        "width_m": 2.57,
        "heading_deg": 98,
        "aoi": "valimo",
        "source_layer": "Ortoilmakuva_2025_5cm",
        "zoom": 16,
        "status": "candidate",
        "class": ""
      }
    },
    {
      "type": "Feature",
      "geometry": {
        "type": "Polygon",
        "coordinates": [
          [
            [
              24.871539679479444,
              60.22417295473393
            ],
            [
              24.871595874528992,
              60.22421660302048
            ],
            [
              24.87155826900019,
              60.22422858277916
            ],
            [
              24.871502073980164,
              60.224184934476774
            ],
            [
              24.871539679479444,
              60.22417295473393
            ]
          ]
        ]
      },
      "properties": {
        "confidence": 0.4359,
        "length_m": 5.77,
        "width_m": 2.47,
        "heading_deg": 32.7,
        "aoi": "valimo",
        "source_layer": "Ortoilmakuva_2025_5cm",
        "zoom": 16,
        "status": "candidate",
        "class": ""
      }
    },
    {
      "type": "Feature",
      "geometry": {
        "type": "Polygon",
        "coordinates": [
          [
            [
              24.868863599838708,
              60.225439452795115
            ],
            [
              24.869124761444755,
              60.225617476737355
            ],
            [
              24.869072903760923,
              60.22563629926241
            ],
            [
              24.868811742321018,
              60.225458275218685
            ],
            [
              24.868863599838708,
              60.225439452795115
            ]
          ]
        ]
      },
      "properties": {
        "confidence": 0.4009,
        "length_m": 24.55,
        "width_m": 3.56,
        "heading_deg": 36.2,
        "aoi": "valimo",
        "source_layer": "Ortoilmakuva_2025_5cm",
        "zoom": 16,
        "status": "candidate",
        "class": ""
      }
    },
    {
      "type": "Feature",
      "geometry": {
        "type": "Polygon",
        "coordinates": [
          [
            [
              24.87055560369864,
              60.22591992591019
            ],
            [
              24.87059920887911,
              60.225937251467286
            ],
            [
              24.8704998527617,
              60.22599911976969
            ],
            [
              24.870456247551576,
              60.22598179418009
            ],
            [
              24.87055560369864,
              60.22591992591019
            ]
          ]
        ]
      },
      "properties": {
        "confidence": 0.3723,
        "length_m": 8.82,
        "width_m": 3.09,
        "heading_deg": 141.5,
        "aoi": "valimo",
        "source_layer": "Ortoilmakuva_2025_5cm",
        "zoom": 16,
        "status": "candidate",
        "class": ""
      }
    },
    {
      "type": "Feature",
      "geometry": {
        "type": "Polygon",
        "coordinates": [
          [
            [
              24.87103599923572,
              60.22556432717443
            ],
            [
              24.871113153613372,
              60.22559622077361
            ],
            [
              24.871081159180083,
              60.22561537055907
            ],
            [
              24.87100400478856,
              60.225583476941395
            ],
            [
              24.87103599923572,
              60.22556432717443
            ]
          ]
        ]
      },
      "properties": {
        "confidence": 0.366,
        "length_m": 5.56,
        "width_m": 2.77,
        "heading_deg": 50.4,
        "aoi": "valimo",
        "source_layer": "Ortoilmakuva_2025_5cm",
        "zoom": 16,
        "status": "candidate",
        "class": ""
      }
    },
    {
      "type": "Feature",
      "geometry": {
        "type": "Polygon",
        "coordinates": [
          [
            [
              24.87034662530401,
              60.22440770111884
            ],
            [
              24.870410470778783,
              60.22444629558461
            ],
            [
              24.870376080025494,
              60.22446037257543
            ],
            [
              24.870312234563816,
              60.224421778093195
            ],
            [
              24.87034662530401,
              60.22440770111884
            ]
          ]
        ]
      },
      "properties": {
        "confidence": 0.3189,
        "length_m": 5.57,
        "width_m": 2.47,
        "heading_deg": 39.6,
        "aoi": "valimo",
        "source_layer": "Ortoilmakuva_2025_5cm",
        "zoom": 16,
        "status": "candidate",
        "class": ""
      }
    },
    {
      "type": "Feature",
      "geometry": {
        "type": "Polygon",
        "coordinates": [
          [
            [
              24.872892633739756,
              60.2262950923271
            ],
            [
              24.872935120241376,
              60.22631019164729
            ],
            [
              24.872867355583306,
              60.22635736645756
            ],
            [
              24.87282486905183,
              60.22634226712434
            ],
            [
              24.872892633739756,
              60.2262950923271
            ]
          ]
        ]
      },
      "properties": {
        "confidence": 0.3109,
        "length_m": 6.46,
        "width_m": 2.89,
        "heading_deg": 144.6,
        "aoi": "valimo",
        "source_layer": "Ortoilmakuva_2025_5cm",
        "zoom": 16,
        "status": "candidate",
        "class": ""
      }
    }
  ]
}
