{
  "type": "FeatureCollection",
  "crs": {
    "type": "name",
    "properties": {
      "name": "urn:ogc:def:crs:EPSG::3879"
    }
  },
  "features": [
    {
      "type": "Feature",
      "geometry": {
        "type": "Polygon",
        "coordinates": [
          [
            [
              25510559.853,
              6677466.443
            ],
            [
              25510568.525,
              6677481.91
            ],
            [
              25510565.486,
              6677483.614
            ],
            [
              25510556.814,
              6677468.146
            ],
            [
              25510559.853,
              6677466.443
            ]
          ]
        ]
      },
      "properties": {
        "confidence": 0.8786,
        "length_m": 17.73,
        "width_m": 3.48,
        "heading_deg": 29.3,
        "aoi": "vuosaari-channel-road",
        "source_layer": "Ortoilmakuva_2025_5cm",
        "zoom": 16,
        "status": "confirmed",
        "class": "truck"
      }
    },
    {
      "type": "Feature",
      "geometry": {
        "type": "Polygon",
        "coordinates": [
          [
            [
              25510578.018,
              6677498.686
            ],
            [
              25510586.383,
              6677513.857
            ],
            [
              25510583.323,
              6677515.545
            ],
            [
              25510574.958,
              6677500.374
            ],
            [
              25510578.018,
              6677498.686
            ]
          ]
        ]
      },
      "properties": {
        "confidence": 0.8731,
        "length_m": 17.32,
        "width_m": 3.49,
        "heading_deg": 28.9,
        "aoi": "vuosaari-channel-road",
        "source_layer": "Ortoilmakuva_2025_5cm",
        "zoom": 16,
        "status": "confirmed",
        "class": "truck"
      }
    },
    {
      "type": "Feature",
      "geometry": {
        "type": "Polygon",
        "coordinates": [
          [
            [
              25510642.348,
              6677392.543
            ],
            [
              25510645.321,
              6677393.861
            ],
            [
              25510638.501,
              6677409.251
            ],
            [
              25510635.528,
              6677407.933
            ],
            [
              25510642.348,
              6677392.543
            ]
          ]
        ]
      },
      "properties": {
        "confidence": 0.8665,
        "length_m": 16.83,
        "width_m": 3.25,
        "heading_deg": 156.1,
        "aoi": "vuosaari-channel-road",
        "source_layer": "Ortoilmakuva_2025_5cm",
        "zoom": 16,
        "status": "confirmed",
        "class": "truck"
      }
    },
    {
      "type": "Feature",
      "geometry": {
        "type": "Polygon",
        "coordinates": [
          [
            [
              25510583.4,
              6677494.168
            ],
            [
              25510591.978,
              6677510.09
            ],
            [
              25510588.761,
              6677511.823
            ],
            [
              25510580.184,
              6677495.9
            ],
            [
              25510583.4,
              6677494.168
            ]
          ]
        ]
      },
      "properties": {
        "confidence": 0.8655,
        "length_m": 18.09,
        "width_m": 3.65,
        "heading_deg": 28.3,
        "aoi": "vuosaari-channel-road",
        "source_layer": "Ortoilmakuva_2025_5cm",
        "zoom": 16,
        "status": "confirmed",
        "class": "truck"
      }
    },
    {
      "type": "Feature",
      "geometry": {
        "type": "Polygon",
        "coordinates": [
          [
            [
              25510652.97,
              6677402.448
            ],
            [
              25510655.801,
              6677403.626
            ],
            [
              25510649.377,
              6677419.063
            ],
            [
              25510646.546,
              6677417.885
            ],
            [
              25510652.97,
              6677402.448
            ]
          ]
        ]
      },
      "properties": {
        "confidence": 0.8637,
        "length_m": 16.72,
        "width_m": 3.07,
        "heading_deg": 157.4,
        "aoi": "vuosaari-channel-road",
        "source_layer": "Ortoilmakuva_2025_5cm",
        "zoom": 16,
        "status": "confirmed",
        "class": "truck"
      }
    },
    {
      "type": "Feature",
      "geometry": {
        "type": "Polygon",
        "coordinates": [
          [
            [
              25510650.847,
              6677398.602
            ],
            [
              25510653.637,
              6677399.767
            ],
            [
              25510647.291,
              6677414.97
            ],
            [
              25510644.501,
              6677413.805
            ],
            [
              25510650.847,
              6677398.602
            ]
          ]
        ]
      },
      "properties": {
        "confidence": 0.8604,
        "length_m": 16.47,
        "width_m": 3.02,
        "heading_deg": 157.3,
        "aoi": "vuosaari-channel-road",
        "source_layer": "Ortoilmakuva_2025_5cm",
        "zoom": 16,
        "status": "confirmed",
        "class": "truck"
      }
    },
    {
      "type": "Feature",
      "geometry": {
        "type": "Polygon",
        "coordinates": [
          [
            [
              25510579.447,
              6677473.875
            ],
            [
              25510587.848,
              6677488.476
            ],
            [
              25510585.028,
              6677490.099
            ],
            [
              25510576.626,
              6677475.498
            ],
            [
              25510579.447,
              6677473.875
            ]
          ]
        ]
      },
      "properties": {
        "confidence": 0.8561,
        "length_m": 16.85,
        "width_m": 3.25,
        "heading_deg": 29.9,
        "aoi": "vuosaari-channel-road",
        "source_layer": "Ortoilmakuva_2025_5cm",
        "zoom": 16,
        "status": "confirmed",
        "class": "truck"
      }
    },
    {
      "type": "Feature",
      "geometry": {
        "type": "Polygon",
        "coordinates": [
          [
            [
              25510569.259,
              6677483.081
            ],
            [
              25510577.566,
              6677498.002
            ],
            [
              25510574.505,
              6677499.706
            ],
            [
              25510566.197,
              6677484.786
            ],
            [
              25510569.259,
              6677483.081
            ]
          ]
        ]
      },
      "properties": {
        "confidence": 0.8523,
        "length_m": 17.08,
        "width_m": 3.5,
        "heading_deg": 29.1,
        "aoi": "vuosaari-channel-road",
        "source_layer": "Ortoilmakuva_2025_5cm",
        "zoom": 16,
        "status": "confirmed",
        "class": "truck"
      }
    },
    {
      "type": "Feature",
      "geometry": {
        "type": "Polygon",
        "coordinates": [
          [
            [
              25510660.298,
              6677384.825
            ],
            [
              25510663.263,
              6677386.094
            ],
            [
              25510656.523,
              6677401.837
            ],
            [
              25510653.559,
              6677400.568
            ],
            [
              25510660.298,
              6677384.825
            ]
          ]
        ]
      },
      "properties": {
        "confidence": 0.8512,
        "length_m": 17.13,
        "width_m": 3.23,
        "heading_deg": 156.8,
        "aoi": "vuosaari-channel-road",
        "source_layer": "Ortoilmakuva_2025_5cm",
        "zoom": 16,
        "status": "confirmed",
        "class": "truck"
      }
    },
    {
      "type": "Feature",
      "geometry": {
        "type": "Polygon",
        "coordinates": [
          [
            [
              25510643.884,
              6677415.581
            ],
            [
              25510646.774,
              6677416.764
            ],
            [
              25510640.193,
              6677432.831
            ],
            [
              25510637.303,
              6677431.648
            ],
            [
              25510643.884,
              6677415.581
            ]
          ]
        ]
      },
      "properties": {
        "confidence": 0.8503,
        "length_m": 17.36,
        "width_m": 3.12,
        "heading_deg": 157.7,
        "aoi": "vuosaari-channel-road",
        "source_layer": "Ortoilmakuva_2025_5cm",
        "zoom": 16,
        "status": "confirmed",
        "class": "truck"
      }
    },
    {
      "type": "Feature",
      "geometry": {
        "type": "Polygon",
        "coordinates": [
          [
            [
              25510649.212,
              6677375.977
            ],
            [
              25510652.113,
              6677377.206
            ],
            [
              25510645.587,
              6677392.6
            ],
            [
              25510642.686,
              6677391.37
            ],
            [
              25510649.212,
              6677375.977
            ]
          ]
        ]
      },
      "properties": {
        "confidence": 0.8481,
        "length_m": 16.72,
        "width_m": 3.15,
        "heading_deg": 157,
        "aoi": "vuosaari-channel-road",
        "source_layer": "Ortoilmakuva_2025_5cm",
        "zoom": 16,
        "status": "confirmed",
        "class": "truck"
      }
    },
    {
      "type": "Feature",
      "geometry": {
        "type": "Polygon",
        "coordinates": [
          [
            [
              25510634.626,
              6677427.894
            ],
            [
              25510637.956,
              6677429.204
            ],
            [
              25510631.619,
              6677445.31
            ],
            [
              25510628.29,
              6677444
            ],
            [
              25510634.626,
              6677427.894
            ]
          ]
        ]
      },
      "properties": {
        "confidence": 0.8477,
        "length_m": 17.31,
        "width_m": 3.58,
        "heading_deg": 158.5,
        "aoi": "vuosaari-channel-road",
        "source_layer": "Ortoilmakuva_2025_5cm",
        "zoom": 16,
        "status": "confirmed",
        "class": "truck"
      }
    },
    {
      "type": "Feature",
      "geometry": {
        "type": "Polygon",
        "coordinates": [
          [
            [
              25510573.43,
              6677477.277
            ],
            [
              25510582.019,
              6677492.559
            ],
            [
              25510579.34,
              6677494.065
            ],
            [
              25510570.751,
              6677478.782
            ],
            [
              25510573.43,
              6677477.277
            ]
          ]
        ]
      },
      "properties": {
        "confidence": 0.8472,
        "length_m": 17.53,
        "width_m": 3.07,
        "heading_deg": 29.3,
        "aoi": "vuosaari-channel-road",
        "source_layer": "Ortoilmakuva_2025_5cm",
        "zoom": 16,
        "status": "confirmed",
        "class": "truck"
      }
    },
    {
      "type": "Feature",
      "geometry": {
        "type": "Polygon",
        "coordinates": [
          [
            [
              25510564.583,
              6677460.989
            ],
            [
              25510573.03,
              6677476.239
            ],
            [
              25510570.078,
              6677477.874
            ],
            [
              25510561.631,
              6677462.624
            ],
            [
              25510564.583,
              6677460.989
            ]
          ]
        ]
      },
      "properties": {
        "confidence": 0.845,
        "length_m": 17.43,
        "width_m": 3.37,
        "heading_deg": 29,
        "aoi": "vuosaari-channel-road",
        "source_layer": "Ortoilmakuva_2025_5cm",
        "zoom": 16,
        "status": "confirmed",
        "class": "truck"
      }
    },
    {
      "type": "Feature",
      "geometry": {
        "type": "Polygon",
        "coordinates": [
          [
            [
              25510683.854,
              6677322.832
            ],
            [
              25510686.78,
              6677324.104
            ],
            [
              25510681.04,
              6677337.313
            ],
            [
              25510678.113,
              6677336.041
            ],
            [
              25510683.854,
              6677322.832
            ]
          ]
        ]
      },
      "properties": {
        "confidence": 0.8444,
        "length_m": 14.4,
        "width_m": 3.19,
        "heading_deg": 156.5,
        "aoi": "vuosaari-channel-road",
        "source_layer": "Ortoilmakuva_2025_5cm",
        "zoom": 16,
        "status": "confirmed",
        "class": "truck"
      }
    },
    {
      "type": "Feature",
      "geometry": {
        "type": "Polygon",
        "coordinates": [
          [
            [
              25510673.773,
              6677332.556
            ],
            [
              25510679.391,
              6677319.386
            ],
            [
              25510676.906,
              6677318.326
            ],
            [
              25510671.289,
              6677331.496
            ],
            [
              25510673.773,
              6677332.556
            ]
          ]
        ]
      },
      "properties": {
        "confidence": 0.8427,
        "length_m": 14.32,
        "width_m": 2.7,
        "heading_deg": 156.9,
        "aoi": "vuosaari-channel-road",
        "source_layer": "Ortoilmakuva_2025_5cm",
        "zoom": 16,
        "status": "confirmed",
        "class": "truck"
      }
    },
    {
      "type": "Feature",
      "geometry": {
        "type": "Polygon",
        "coordinates": [
          [
            [
              25510568.182,
              6677460.936
            ],
            [
              25510576.584,
              6677475.808
            ],
            [
              25510573.757,
              6677477.405
            ],
            [
              25510565.355,
              6677462.534
            ],
            [
              25510568.182,
              6677460.936
            ]
          ]
        ]
      },
      "properties": {
        "confidence": 0.8414,
        "length_m": 17.08,
        "width_m": 3.25,
        "heading_deg": 29.5,
        "aoi": "vuosaari-channel-road",
        "source_layer": "Ortoilmakuva_2025_5cm",
        "zoom": 16,
        "status": "confirmed",
        "class": "truck"
      }
    },
    {
      "type": "Feature",
      "geometry": {
        "type": "Polygon",
        "coordinates": [
          [
            [
              25510651.442,
              6677332.992
            ],
            [
              25510664.383,
              6677336.366
            ],
            [
              25510663.594,
              6677339.392
            ],
            [
              25510650.653,
              6677336.017
            ],
            [
              25510651.442,
              6677332.992
            ]
          ]
        ]
      },
      "properties": {
        "confidence": 0.8406,
        "length_m": 13.37,
        "width_m": 3.13,
        "heading_deg": 75.4,
        "aoi": "vuosaari-channel-road",
        "source_layer": "Ortoilmakuva_2025_5cm",
        "zoom": 16,
        "status": "confirmed",
        "class": "truck"
      }
    },
    {
      "type": "Feature",
      "geometry": {
        "type": "Polygon",
        "coordinates": [
          [
            [
              25510644.7,
              6677395.796
            ],
            [
              25510647.49,
              6677396.941
            ],
            [
              25510641.081,
              6677412.56
            ],
            [
              25510638.291,
              6677411.415
            ],
            [
              25510644.7,
              6677395.796
            ]
          ]
        ]
      },
      "properties": {
        "confidence": 0.8405,
        "length_m": 16.88,
        "width_m": 3.02,
        "heading_deg": 157.7,
        "aoi": "vuosaari-channel-road",
        "source_layer": "Ortoilmakuva_2025_5cm",
        "zoom": 16,
        "status": "confirmed",
        "class": "truck"
      }
    },
    {
      "type": "Feature",
      "geometry": {
        "type": "Polygon",
        "coordinates": [
          [
            [
              25510577.534,
              6677477.297
            ],
            [
              25510586.093,
              6677492.204
            ],
            [
              25510583.134,
              6677493.903
            ],
            [
              25510574.575,
              6677478.996
            ],
            [
              25510577.534,
              6677477.297
            ]
          ]
        ]
      },
      "properties": {
        "confidence": 0.8405,
        "length_m": 17.19,
        "width_m": 3.41,
        "heading_deg": 29.9,
        "aoi": "vuosaari-channel-road",
        "source_layer": "Ortoilmakuva_2025_5cm",
        "zoom": 16,
        "status": "confirmed",
        "class": "truck"
      }
    },
    {
      "type": "Feature",
      "geometry": {
        "type": "Polygon",
        "coordinates": [
          [
            [
              25510652.524,
              6677326.349
            ],
            [
              25510668.351,
              6677333.421
            ],
            [
              25510666.991,
              6677336.464
            ],
            [
              25510651.164,
              6677329.392
            ],
            [
              25510652.524,
              6677326.349
            ]
          ]
        ]
      },
      "properties": {
        "confidence": 0.8398,
        "length_m": 17.34,
        "width_m": 3.33,
        "heading_deg": 65.9,
        "aoi": "vuosaari-channel-road",
        "source_layer": "Ortoilmakuva_2025_5cm",
        "zoom": 16,
        "status": "confirmed",
        "class": "truck"
      }
    },
    {
      "type": "Feature",
      "geometry": {
        "type": "Polygon",
        "coordinates": [
          [
            [
              25510677.394,
              6677333.427
            ],
            [
              25510683.931,
              6677318.373
            ],
            [
              25510681.149,
              6677317.165
            ],
            [
              25510674.612,
              6677332.219
            ],
            [
              25510677.394,
              6677333.427
            ]
          ]
        ]
      },
      "properties": {
        "confidence": 0.8384,
        "length_m": 16.41,
        "width_m": 3.03,
        "heading_deg": 156.5,
        "aoi": "vuosaari-channel-road",
        "source_layer": "Ortoilmakuva_2025_5cm",
        "zoom": 16,
        "status": "confirmed",
        "class": "truck"
      }
    },
    {
      "type": "Feature",
      "geometry": {
        "type": "Polygon",
        "coordinates": [
          [
            [
              25510652.197,
              6677377.704
            ],
            [
              25510654.951,
              6677378.857
            ],
            [
              25510648.17,
              6677395.051
            ],
            [
              25510645.416,
              6677393.897
            ],
            [
              25510652.197,
              6677377.704
            ]
          ]
        ]
      },
      "properties": {
        "confidence": 0.8379,
        "length_m": 17.56,
        "width_m": 2.99,
        "heading_deg": 157.3,
        "aoi": "vuosaari-channel-road",
        "source_layer": "Ortoilmakuva_2025_5cm",
        "zoom": 16,
        "status": "confirmed",
        "class": "truck"
      }
    },
    {
      "type": "Feature",
      "geometry": {
        "type": "Polygon",
        "coordinates": [
          [
            [
              25510574.264,
              6677457.792
            ],
            [
              25510582.847,
              6677472.616
            ],
            [
              25510579.972,
              6677474.281
            ],
            [
              25510571.389,
              6677459.457
            ],
            [
              25510574.264,
              6677457.792
            ]
          ]
        ]
      },
      "properties": {
        "confidence": 0.8367,
        "length_m": 17.13,
        "width_m": 3.32,
        "heading_deg": 30.1,
        "aoi": "vuosaari-channel-road",
        "source_layer": "Ortoilmakuva_2025_5cm",
        "zoom": 16,
        "status": "confirmed",
        "class": "truck"
      }
    },
    {
      "type": "Feature",
      "geometry": {
        "type": "Polygon",
        "coordinates": [
          [
            [
              25510648.708,
              6677395.094
            ],
            [
              25510651.528,
              6677396.259
            ],
            [
              25510644.919,
              6677412.262
            ],
            [
              25510642.099,
              6677411.097
            ],
            [
              25510648.708,
              6677395.094
            ]
          ]
        ]
      },
      "properties": {
        "confidence": 0.8359,
        "length_m": 17.31,
        "width_m": 3.05,
        "heading_deg": 157.6,
        "aoi": "vuosaari-channel-road",
        "source_layer": "Ortoilmakuva_2025_5cm",
        "zoom": 16,
        "status": "confirmed",
        "class": "truck"
      }
    },
    {
      "type": "Feature",
      "geometry": {
        "type": "Polygon",
        "coordinates": [
          [
            [
              25510570.65,
              6677458.032
            ],
            [
              25510579.191,
              6677473.224
            ],
            [
              25510576.37,
              6677474.81
            ],
            [
              25510567.829,
              6677459.618
            ],
            [
              25510570.65,
              6677458.032
            ]
          ]
        ]
      },
      "properties": {
        "confidence": 0.8346,
        "length_m": 17.43,
        "width_m": 3.24,
        "heading_deg": 29.3,
        "aoi": "vuosaari-channel-road",
        "source_layer": "Ortoilmakuva_2025_5cm",
        "zoom": 16,
        "status": "confirmed",
        "class": "truck"
      }
    },
    {
      "type": "Feature",
      "geometry": {
        "type": "Polygon",
        "coordinates": [
          [
            [
              25510563.545,
              6677466.411
            ],
            [
              25510571.15,
              6677479.874
            ],
            [
              25510568.495,
              6677481.373
            ],
            [
              25510560.891,
              6677467.911
            ],
            [
              25510563.545,
              6677466.411
            ]
          ]
        ]
      },
      "properties": {
        "confidence": 0.8332,
        "length_m": 15.46,
        "width_m": 3.05,
        "heading_deg": 29.5,
        "aoi": "vuosaari-channel-road",
        "source_layer": "Ortoilmakuva_2025_5cm",
        "zoom": 16,
        "status": "confirmed",
        "class": "truck"
      }
    },
    {
      "type": "Feature",
      "geometry": {
        "type": "Polygon",
        "coordinates": [
          [
            [
              25510655.345,
              6677378.438
            ],
            [
              25510657.922,
              6677379.517
            ],
            [
              25510651.377,
              6677395.143
            ],
            [
              25510648.8,
              6677394.064
            ],
            [
              25510655.345,
              6677378.438
            ]
          ]
        ]
      },
      "properties": {
        "confidence": 0.8332,
        "length_m": 16.94,
        "width_m": 2.79,
        "heading_deg": 157.3,
        "aoi": "vuosaari-channel-road",
        "source_layer": "Ortoilmakuva_2025_5cm",
        "zoom": 16,
        "status": "confirmed",
        "class": "truck"
      }
    },
    {
      "type": "Feature",
      "geometry": {
        "type": "Polygon",
        "coordinates": [
          [
            [
              25510657.924,
              6677381.09
            ],
            [
              25510660.864,
              6677382.285
            ],
            [
              25510654.448,
              6677398.067
            ],
            [
              25510651.508,
              6677396.872
            ],
            [
              25510657.924,
              6677381.09
            ]
          ]
        ]
      },
      "properties": {
        "confidence": 0.8321,
        "length_m": 17.04,
        "width_m": 3.17,
        "heading_deg": 157.9,
        "aoi": "vuosaari-channel-road",
        "source_layer": "Ortoilmakuva_2025_5cm",
        "zoom": 16,
        "status": "confirmed",
        "class": "truck"
      }
    },
    {
      "type": "Feature",
      "geometry": {
        "type": "Polygon",
        "coordinates": [
          [
            [
              25510637.858,
              6677411.927
            ],
            [
              25510640.688,
              6677413.139
            ],
            [
              25510633.722,
              6677429.408
            ],
            [
              25510630.892,
              6677428.196
            ],
            [
              25510637.858,
              6677411.927
            ]
          ]
        ]
      },
      "properties": {
        "confidence": 0.8301,
        "length_m": 17.7,
        "width_m": 3.08,
        "heading_deg": 156.8,
        "aoi": "vuosaari-channel-road",
        "source_layer": "Ortoilmakuva_2025_5cm",
        "zoom": 16,
        "status": "confirmed",
        "class": "truck"
      }
    },
    {
      "type": "Feature",
      "geometry": {
        "type": "Polygon",
        "coordinates": [
          [
            [
              25510553.176,
              6677475.811
            ],
            [
              25510559.439,
              6677486.75
            ],
            [
              25510556.338,
              6677488.525
            ],
            [
              25510550.076,
              6677477.587
            ],
            [
              25510553.176,
              6677475.811
            ]
          ]
        ]
      },
      "properties": {
        "confidence": 0.827,
        "length_m": 12.61,
        "width_m": 3.57,
        "heading_deg": 29.8,
        "aoi": "vuosaari-channel-road",
        "source_layer": "Ortoilmakuva_2025_5cm",
        "zoom": 16,
        "status": "confirmed",
        "class": "truck"
      }
    },
    {
      "type": "Feature",
      "geometry": {
        "type": "Polygon",
        "coordinates": [
          [
            [
              25510676.183,
              6677312.509
            ],
            [
              25510678.831,
              6677313.772
            ],
            [
              25510672.259,
              6677327.549
            ],
            [
              25510669.611,
              6677326.286
            ],
            [
              25510676.183,
              6677312.509
            ]
          ]
        ]
      },
      "properties": {
        "confidence": 0.8226,
        "length_m": 15.26,
        "width_m": 2.93,
        "heading_deg": 154.5,
        "aoi": "vuosaari-channel-road",
        "source_layer": "Ortoilmakuva_2025_5cm",
        "zoom": 16,
        "status": "confirmed",
        "class": "truck"
      }
    },
    {
      "type": "Feature",
      "geometry": {
        "type": "Polygon",
        "coordinates": [
          [
            [
              25510641.791,
              6677412.077
            ],
            [
              25510644.697,
              6677413.312
            ],
            [
              25510638.001,
              6677429.069
            ],
            [
              25510635.095,
              6677427.835
            ],
            [
              25510641.791,
              6677412.077
            ]
          ]
        ]
      },
      "properties": {
        "confidence": 0.8207,
        "length_m": 17.12,
        "width_m": 3.16,
        "heading_deg": 157,
        "aoi": "vuosaari-channel-road",
        "source_layer": "Ortoilmakuva_2025_5cm",
        "zoom": 16,
        "status": "confirmed",
        "class": "truck"
      }
    },
    {
      "type": "Feature",
      "geometry": {
        "type": "Polygon",
        "coordinates": [
          [
            [
              25510572.638,
              6677482.521
            ],
            [
              25510580.102,
              6677496.219
            ],
            [
              25510577.462,
              6677497.658
            ],
            [
              25510569.997,
              6677483.959
            ],
            [
              25510572.638,
              6677482.521
            ]
          ]
        ]
      },
      "properties": {
        "confidence": 0.8196,
        "length_m": 15.6,
        "width_m": 3.01,
        "heading_deg": 28.6,
        "aoi": "vuosaari-channel-road",
        "source_layer": "Ortoilmakuva_2025_5cm",
        "zoom": 16,
        "status": "confirmed",
        "class": "truck"
      }
    },
    {
      "type": "Feature",
      "geometry": {
        "type": "Polygon",
        "coordinates": [
          [
            [
              25510635.539,
              6677409.028
            ],
            [
              25510638.399,
              6677410.296
            ],
            [
              25510631.449,
              6677425.968
            ],
            [
              25510628.589,
              6677424.7
            ],
            [
              25510635.539,
              6677409.028
            ]
          ]
        ]
      },
      "properties": {
        "confidence": 0.8152,
        "length_m": 17.14,
        "width_m": 3.13,
        "heading_deg": 156.1,
        "aoi": "vuosaari-channel-road",
        "source_layer": "Ortoilmakuva_2025_5cm",
        "zoom": 16,
        "status": "confirmed",
        "class": "truck"
      }
    },
    {
      "type": "Feature",
      "geometry": {
        "type": "Polygon",
        "coordinates": [
          [
            [
              25510557.099,
              6677474.837
            ],
            [
              25510563.056,
              6677485.345
            ],
            [
              25510560.075,
              6677487.035
            ],
            [
              25510554.117,
              6677476.527
            ],
            [
              25510557.099,
              6677474.837
            ]
          ]
        ]
      },
      "properties": {
        "confidence": 0.8099,
        "length_m": 12.08,
        "width_m": 3.43,
        "heading_deg": 29.5,
        "aoi": "vuosaari-channel-road",
        "source_layer": "Ortoilmakuva_2025_5cm",
        "zoom": 16,
        "status": "confirmed",
        "class": "truck"
      }
    },
    {
      "type": "Feature",
      "geometry": {
        "type": "Polygon",
        "coordinates": [
          [
            [
              25510652.583,
              6677337.116
            ],
            [
              25510665.721,
              6677341.185
            ],
            [
              25510664.826,
              6677344.074
            ],
            [
              25510651.689,
              6677340.005
            ],
            [
              25510652.583,
              6677337.116
            ]
          ]
        ]
      },
      "properties": {
        "confidence": 0.8089,
        "length_m": 13.75,
        "width_m": 3.02,
        "heading_deg": 72.8,
        "aoi": "vuosaari-channel-road",
        "source_layer": "Ortoilmakuva_2025_5cm",
        "zoom": 16,
        "status": "confirmed",
        "class": "truck"
      }
    },
    {
      "type": "Feature",
      "geometry": {
        "type": "Polygon",
        "coordinates": [
          [
            [
              25510670.918,
              6677313.407
            ],
            [
              25510673.542,
              6677314.719
            ],
            [
              25510668.112,
              6677325.583
            ],
            [
              25510665.487,
              6677324.272
            ],
            [
              25510670.918,
              6677313.407
            ]
          ]
        ]
      },
      "properties": {
        "confidence": 0.8017,
        "length_m": 12.15,
        "width_m": 2.93,
        "heading_deg": 153.4,
        "aoi": "vuosaari-channel-road",
        "source_layer": "Ortoilmakuva_2025_5cm",
        "zoom": 16,
        "status": "confirmed",
        "class": "truck"
      }
    },
    {
      "type": "Feature",
      "geometry": {
        "type": "Polygon",
        "coordinates": [
          [
            [
              25510624.423,
              6677383.754
            ],
            [
              25510627.589,
              6677385.064
            ],
            [
              25510620.21,
              6677402.895
            ],
            [
              25510617.044,
              6677401.585
            ],
            [
              25510624.423,
              6677383.754
            ]
          ]
        ]
      },
      "properties": {
        "confidence": 0.7803,
        "length_m": 19.3,
        "width_m": 3.43,
        "heading_deg": 157.5,
        "aoi": "vuosaari-channel-road",
        "source_layer": "Ortoilmakuva_2025_5cm",
        "zoom": 16,
        "status": "confirmed",
        "class": "truck"
      }
    },
    {
      "type": "Feature",
      "geometry": {
        "type": "Polygon",
        "coordinates": [
          [
            [
              25510541.293,
              6677455.91
            ],
            [
              25510543.641,
              6677458.051
            ],
            [
              25510531.25,
              6677471.642
            ],
            [
              25510528.901,
              6677469.501
            ],
            [
              25510541.293,
              6677455.91
            ]
          ]
        ]
      },
      "properties": {
        "confidence": 0.7528,
        "length_m": 18.39,
        "width_m": 3.18,
        "heading_deg": 137.6,
        "aoi": "vuosaari-channel-road",
        "source_layer": "Ortoilmakuva_2025_5cm",
        "zoom": 16,
        "status": "confirmed",
        "class": "truck"
      }
    },
    {
      "type": "Feature",
      "geometry": {
        "type": "Polygon",
        "coordinates": [
          [
            [
              25510628.716,
              6677390.264
            ],
            [
              25510634.801,
              6677375.831
            ],
            [
              25510632.043,
              6677374.668
            ],
            [
              25510625.958,
              6677389.101
            ],
            [
              25510628.716,
              6677390.264
            ]
          ]
        ]
      },
      "properties": {
        "confidence": 0.7399,
        "length_m": 15.66,
        "width_m": 2.99,
        "heading_deg": 157.1,
        "aoi": "vuosaari-channel-road",
        "source_layer": "Ortoilmakuva_2025_5cm",
        "zoom": 16,
        "status": "confirmed",
        "class": "truck"
      }
    },
    {
      "type": "Feature",
      "geometry": {
        "type": "Polygon",
        "coordinates": [
          [
            [
              25510624.781,
              6677391.747
            ],
            [
              25510627.716,
              6677392.953
            ],
            [
              25510621.626,
              6677407.774
            ],
            [
              25510618.691,
              6677406.568
            ],
            [
              25510624.781,
              6677391.747
            ]
          ]
        ]
      },
      "properties": {
        "confidence": 0.7362,
        "length_m": 16.02,
        "width_m": 3.17,
        "heading_deg": 157.7,
        "aoi": "vuosaari-channel-road",
        "source_layer": "Ortoilmakuva_2025_5cm",
        "zoom": 16,
        "status": "confirmed",
        "class": "truck"
      }
    },
    {
      "type": "Feature",
      "geometry": {
        "type": "Polygon",
        "coordinates": [
          [
            [
              25510618.029,
              6677408.006
            ],
            [
              25510620.855,
              6677409.214
            ],
            [
              25510614.058,
              6677425.122
            ],
            [
              25510611.232,
              6677423.915
            ],
            [
              25510618.029,
              6677408.006
            ]
          ]
        ]
      },
      "properties": {
        "confidence": 0.4381,
        "length_m": 17.3,
        "width_m": 3.07,
        "heading_deg": 156.9,
        "aoi": "vuosaari-channel-road",
        "source_layer": "Ortoilmakuva_2025_5cm",
        "zoom": 16,
        "status": "confirmed",
        "class": "truck"
      }
    },
    {
      "type": "Feature",
      "geometry": {
        "type": "Polygon",
        "coordinates": [
          [
            [
              25510616.995,
              6677403.013
            ],
            [
              25510609.642,
              6677419.957
            ],
            [
              25510611.752,
              6677420.872
            ],
            [
              25510619.105,
              6677403.928
            ],
            [
              25510616.995,
              6677403.013
            ]
          ]
        ]
      },
      "properties": {
        "class": "truck",
        "status": "added",
        "confidence": null,
        "aoi": "vuosaari-channel-road",
        "source_layer": "Ortoilmakuva_2025_5cm",
        "zoom": 16,
        "length_m": 18.47,
        "width_m": 2.3,
        "heading_deg": 156.5
      }
    }
  ]
}
